{
  "type": "FeatureCollection",
  "generator": "overpass-turbo",
  "copyright": "The data included in this document is from www.openstreetmap.org. The data is made available under ODbL.",
  "timestamp": "2026-09-24T16:51:00Z",
  "features": [
    {
      "type": "Feature",
      "properties": {
        "@id": "way/81348220",
        "addr:city": "Hillsboro",
        "addr:housenumber": "10087",
        "addr:postcode": "97124",
        "addr:state": "OR",
        "addr:street": "Northeast Emma Way",
        "amenity": "cafe",
        "brand": "Corner Bakery",
        "brand:wikidata": "Q5171598",
        "building": "yes",
        "cuisine": "coffee_shop",
        "internet_access": "wlan",
        "internet_access:fee": "no",
        "name": "Corner Bakery",
        "opening_hours": "Mo-Sa 08:00-20:00; Su 08:00-19:00",
        "phone": "+1-503-536-2375",
        "takeaway": "yes",
        "website": "https://cornerbakerycafe.com/location/corner-bakery-cafe-tanasbourne/",
        "@geometry": "center"
      },
      "geometry": {
        "type": "Point",
        "coordinates": [
          -122.8775973,
          45.5355209
        ]
      },
      "id": "way/81348220"
    },
    {
      "type": "Feature",
      "properties": {
        "@id": "way/98917707",
        "addr:city": "La Grange",
        "addr:housenumber": "39",
        "addr:postcode": "60525",
        "addr:state": "IL",
        "addr:street": "North La Grange Road",
        "amenity": "cafe",
        "brand": "Corner Bakery",
        "brand:wikidata": "Q5171598",
        "building": "retail",
        "building:levels": "2",
        "cuisine": "coffee_shop",
        "name": "Corner Bakery",
        "opening_hours": "Mo-Su 07:00-21:00",
        "takeaway": "yes",
        "@geometry": "center"
      },
      "geometry": {
        "type": "Point",
        "coordinates": [
          -87.8693891,
          41.8176284
        ]
      },
      "id": "way/98917707"
    },
    {
      "type": "Feature",
      "properties": {
        "@id": "way/101122069",
        "addr:city": "Irvine",
        "addr:housenumber": "13652",
        "addr:postcode": "92602",
        "addr:street": "Jamboree Road",
        "amenity": "cafe",
        "brand": "Corner Bakery",
        "brand:wikidata": "Q5171598",
        "building": "retail",
        "building:levels": "1",
        "cuisine": "coffee_shop",
        "height": "6.6",
        "name": "Corner Bakery",
        "takeaway": "yes",
        "@geometry": "center"
      },
      "geometry": {
        "type": "Point",
        "coordinates": [
          -117.792085,
          33.7218229
        ]
      },
      "id": "way/101122069"
    },
    {
      "type": "Feature",
      "properties": {
        "@id": "way/143526361",
        "amenity": "cafe",
        "brand": "Corner Bakery",
        "brand:wikidata": "Q5171598",
        "building": "yes",
        "cuisine": "coffee_shop",
        "ele": "267.1",
        "height": "9.6",
        "lacounty:ain": "8642020055",
        "lacounty:bld_id": "611432864043",
        "name": "Corner Bakery",
        "start_date": "2007",
        "takeaway": "yes",
        "@geometry": "center"
      },
      "geometry": {
        "type": "Point",
        "coordinates": [
          -117.8357267,
          34.1142578
        ]
      },
      "id": "way/143526361"
    },
    {
      "type": "Feature",
      "properties": {
        "@id": "way/281629303",
        "addr:housenumber": "500",
        "amenity": "cafe",
        "brand": "Corner Bakery",
        "brand:wikidata": "Q5171598",
        "building": "retail",
        "cuisine": "coffee_shop",
        "name": "Corner Bakery",
        "takeaway": "yes",
        "@geometry": "center"
      },
      "geometry": {
        "type": "Point",
        "coordinates": [
          -84.2328864,
          33.953842
        ]
      },
      "id": "way/281629303"
    },
    {
      "type": "Feature",
      "properties": {
        "@id": "way/312650488",
        "addr:city": "Irvine",
        "addr:housenumber": "17575",
        "addr:postcode": "92614",
        "addr:state": "CA",
        "addr:street": "Harvard Avenue",
        "amenity": "cafe",
        "brand": "Corner Bakery",
        "brand:wikidata": "Q5171598",
        "building": "yes",
        "cuisine": "coffee_shop",
        "height": "8.68",
        "name": "Corner Bakery",
        "takeaway": "yes",
        "website": "https://www.cornerbakerycafe.com/",
        "@geometry": "center"
      },
      "geometry": {
        "type": "Point",
        "coordinates": [
          -117.8318286,
          33.677261
        ]
      },
      "id": "way/312650488"
    },
    {
      "type": "Feature",
      "properties": {
        "@id": "node/361337412",
        "addr:housenumber": "5312",
        "addr:street": "Clark Avenue",
        "amenity": "cafe",
        "brand": "Corner Bakery",
        "brand:wikidata": "Q5171598",
        "check_date": "2026-07-11",
        "cuisine": "coffee_shop",
        "name": "Corner Bakery",
        "takeaway": "yes"
      },
      "geometry": {
        "type": "Point",
        "coordinates": [
          -118.133493,
          33.8540298
        ]
      },
      "id": "node/361337412"
    },
    {
      "type": "Feature",
      "properties": {
        "@id": "node/371769317",
        "addr:city": "Pasadena",
        "addr:housenumber": "3807",
        "addr:postcode": "91107",
        "addr:state": "CA",
        "addr:street": "East Foothill Boulevard",
        "amenity": "cafe",
        "brand": "Corner Bakery",
        "brand:wikidata": "Q5171598",
        "check_date": "2026-01-04",
        "contact:yelp": "https://www.yelp.com/biz/corner-bakery-pasadena-5",
        "cuisine": "coffee_shop",
        "drive_through": "no",
        "level": "0",
        "name": "Corner Bakery",
        "opening_hours": "07:00-21:00",
        "outdoor_seating": "yes",
        "payment:cash": "yes",
        "payment:credit_cards": "yes",
        "payment:debit_cards": "yes",
        "phone": "+1-626-351-0464",
        "takeaway": "yes",
        "toilets": "yes",
        "website": "https://cornerbakerycafe.com/location/hastings-ranch/",
        "website:menu": "https://cornerbakerycafe.com/menu/"
      },
      "geometry": {
        "type": "Point",
        "coordinates": [
          -118.069595,
          34.1506679
        ]
      },
      "id": "node/371769317"
    },
    {
      "type": "Feature",
      "properties": {
        "@id": "node/394818567",
        "amenity": "cafe",
        "brand": "Corner Bakery",
        "brand:wikidata": "Q5171598",
        "cuisine": "coffee_shop",
        "name": "Corner Bakery",
        "opening_hours": "Mo-Fr 06:30-17:30",
        "phone": "+1-312-920-9100",
        "takeaway": "yes",
        "url": "http://www.cornerbakerycafe.com",
        "website": "https://www.cornerbakerycafe.com/"
      },
      "geometry": {
        "type": "Point",
        "coordinates": [
          -87.6295395,
          41.8800215
        ]
      },
      "id": "node/394818567"
    },
    {
      "type": "Feature",
      "properties": {
        "@id": "way/439745494",
        "addr:city": "Salt Lake City",
        "addr:country": "US",
        "addr:housenumber": "610",
        "addr:postcode": "84113",
        "addr:state": "UT",
        "addr:street": "South Foothill Drive",
        "amenity": "cafe",
        "brand": "Corner Bakery",
        "brand:wikidata": "Q5171598",
        "building": "yes",
        "cuisine": "coffee_shop",
        "delivery": "yes",
        "internet_access": "yes",
        "name": "Corner Bakery",
        "opening_hours": "Mo-Fr 06:30-21:00; Sa 07:00-21:00; Su 07:00-20:00",
        "operator": "Corner Bakery",
        "outdoor_seating": "yes",
        "phone": "+1 801-503-2000",
        "takeaway": "yes",
        "website": "https://www.cornerbakerycafe.com/",
        "@geometry": "center"
      },
      "geometry": {
        "type": "Point",
        "coordinates": [
          -111.8339117,
          40.7547677
        ]
      },
      "id": "way/439745494"
    },
    {
      "type": "Feature",
      "properties": {
        "@id": "node/471139124",
        "addr:city": "Washington",
        "addr:housenumber": "1828",
        "addr:postcode": "20036",
        "addr:state": "DC",
        "addr:street": "L Street Northwest",
        "brand": "Corner Bakery",
        "brand:wikidata": "Q5171598",
        "check_date": "2024-06-07",
        "cuisine": "coffee_shop",
        "disused:amenity": "cafe",
        "indoor_seating": "yes",
        "name": "Corner Bakery",
        "name:de": "Corner Bakery",
        "opening_hours": "Mo-Fr 07:00-15:00; Sa 08:00-14:00",
        "outdoor_seating": "yes",
        "takeaway": "yes"
      },
      "geometry": {
        "type": "Point",
        "coordinates": [
          -77.0431505,
          38.9035809
        ]
      },
      "id": "node/471139124"
    },
    {
      "type": "Feature",
      "properties": {
        "@id": "node/471255273",
        "amenity": "cafe",
        "brand": "Corner Bakery",
        "brand:wikidata": "Q5171598",
        "cuisine": "coffee_shop",
        "name": "Corner Bakery",
        "takeaway": "yes"
      },
      "geometry": {
        "type": "Point",
        "coordinates": [
          -118.2617582,
          34.0480163
        ]
      },
      "id": "node/471255273"
    },
    {
      "type": "Feature",
      "properties": {
        "@id": "way/481306774",
        "amenity": "cafe",
        "brand": "Corner Bakery",
        "brand:wikidata": "Q5171598",
        "building": "retail",
        "cuisine": "coffee_shop",
        "name": "Corner Bakery",
        "takeaway": "yes",
        "@geometry": "center"
      },
      "geometry": {
        "type": "Point",
        "coordinates": [
          -97.0860575,
          33.0724253
        ]
      },
      "id": "way/481306774"
    },
    {
      "type": "Feature",
      "properties": {
        "@id": "way/592384619",
        "addr:city": "Warrenville",
        "addr:country": "US",
        "addr:county": "DuPage, IL",
        "addr:housenumber": "28258A",
        "addr:postcode": "60555",
        "addr:state": "IL",
        "addr:street": "West Diehl Road",
        "amenity": "cafe",
        "brand": "Corner Bakery",
        "brand:wikidata": "Q5171598",
        "building": "retail",
        "cuisine": "coffee_shop",
        "name": "Corner Bakery",
        "napervillegis:loc_id": "0",
        "napervillegis:prop_id": "58658",
        "opening_hours": "Mo-Th 07:30-20:00; Fr 07:30-20:30; Sa 08:00-20:30; Su 08:00-18:00",
        "phone": "+1 630 836 1689",
        "takeaway": "yes",
        "website": "https://www.cornerbakerycafe.com/location/cantera",
        "@geometry": "center"
      },
      "geometry": {
        "type": "Point",
        "coordinates": [
          -88.173424,
          41.8034151
        ]
      },
      "id": "way/592384619"
    },
    {
      "type": "Feature",
      "properties": {
        "@id": "way/660524139",
        "addr:city": "Shorewood",
        "addr:housenumber": "1305",
        "addr:postcode": "53211",
        "addr:state": "WI",
        "addr:street": "East Capitol Drive",
        "amenity": "cafe",
        "brand": "Corner Bakery",
        "brand:wikidata": "Q5171598",
        "building": "yes",
        "cuisine": "coffee_shop",
        "name": "Corner Bakery",
        "takeaway": "yes",
        "@geometry": "center"
      },
      "geometry": {
        "type": "Point",
        "coordinates": [
          -87.8946874,
          43.0888465
        ]
      },
      "id": "way/660524139"
    },
    {
      "type": "Feature",
      "properties": {
        "@id": "way/687860661",
        "addr:city": "Skokie",
        "addr:housenumber": "5369",
        "addr:postcode": "60077",
        "addr:state": "IL",
        "addr:street": "West Touhy Avenue",
        "addr:unit": "31",
        "amenity": "cafe",
        "brand": "Corner Bakery",
        "brand:wikidata": "Q5171598",
        "building": "retail",
        "building:part": "yes",
        "cuisine": "coffee_shop",
        "name": "Corner Bakery",
        "takeaway": "yes",
        "@geometry": "center"
      },
      "geometry": {
        "type": "Point",
        "coordinates": [
          -87.7626494,
          42.0114021
        ]
      },
      "id": "way/687860661"
    },
    {
      "type": "Feature",
      "properties": {
        "@id": "node/734278762",
        "addr:city": "Washington",
        "addr:housenumber": "529",
        "addr:postcode": "20045",
        "addr:state": "DC",
        "addr:street": "14th Street Northwest",
        "amenity": "cafe",
        "branch": "National Press",
        "brand": "Corner Bakery",
        "brand:wikidata": "Q5171598",
        "check_date": "2025-03-08",
        "cuisine": "coffee_shop",
        "name": "Corner Bakery",
        "opening_hours": "06:00-17:00",
        "phone": "+1 202-662-7400",
        "takeaway": "yes",
        "website": "https://cornerbakerycafe.com/location/national-press"
      },
      "geometry": {
        "type": "Point",
        "coordinates": [
          -77.0316782,
          38.8971432
        ]
      },
      "id": "node/734278762"
    },
    {
      "type": "Feature",
      "properties": {
        "@id": "way/734907091",
        "amenity": "cafe",
        "brand": "Corner Bakery",
        "brand:wikidata": "Q5171598",
        "building": "yes",
        "cuisine": "coffee_shop",
        "name": "Corner Bakery",
        "takeaway": "yes",
        "@geometry": "center"
      },
      "geometry": {
        "type": "Point",
        "coordinates": [
          -106.3023395,
          31.7283388
        ]
      },
      "id": "way/734907091"
    },
    {
      "type": "Feature",
      "properties": {
        "@id": "way/790207395",
        "addr:city": "Glen Allen",
        "addr:housenumber": "11000",
        "addr:postcode": "23060",
        "addr:state": "VA",
        "addr:street": "West Broad Street",
        "amenity": "cafe",
        "brand": "Corner Bakery",
        "brand:wikidata": "Q5171598",
        "building": "yes",
        "cuisine": "coffee_shop",
        "name": "Corner Bakery",
        "opening_hours": "Mo-Su 07:00-20:00",
        "outdoor_seating": "yes",
        "phone": "+1-804-447-3766",
        "shop": "bakery",
        "takeaway": "yes",
        "website": "https://www.cornerbakerycafe.com/",
        "@geometry": "center"
      },
      "geometry": {
        "type": "Point",
        "coordinates": [
          -77.586866,
          37.6479748
        ]
      },
      "id": "way/790207395"
    },
    {
      "type": "Feature",
      "properties": {
        "@id": "way/962083907",
        "amenity": "cafe",
        "brand": "Corner Bakery",
        "brand:wikidata": "Q5171598",
        "check_date": "2025-05-25",
        "cuisine": "coffee_shop",
        "name": "Corner Bakery",
        "takeaway": "yes",
        "@geometry": "center"
      },
      "geometry": {
        "type": "Point",
        "coordinates": [
          -95.7069985,
          29.7836365
        ]
      },
      "id": "way/962083907"
    },
    {
      "type": "Feature",
      "properties": {
        "@id": "way/976513292",
        "addr:city": "Pleasant Prairie",
        "addr:housenumber": "9250",
        "addr:postcode": "53158",
        "addr:state": "WI",
        "addr:street": "76th Street",
        "addr:unit": "Suite G",
        "amenity": "cafe",
        "brand": "Corner Bakery",
        "brand:wikidata": "Q5171598",
        "building": "retail",
        "cuisine": "coffee_shop",
        "name": "Corner Bakery",
        "opening_hours": "Mo-Fr 06:30-21:00; Sa-Su 07:00-21:00",
        "phone": "+1 262 997 6251",
        "takeaway": "yes",
        "website": "https://www.cornerbakerycafe.com/",
        "@geometry": "center"
      },
      "geometry": {
        "type": "Point",
        "coordinates": [
          -87.9193901,
          42.5658684
        ]
      },
      "id": "way/976513292"
    },
    {
      "type": "Feature",
      "properties": {
        "@id": "way/977419024",
        "brand": "Corner Bakery",
        "brand:wikidata": "Q5171598",
        "cuisine": "coffee_shop",
        "demolished:amenity": "cafe",
        "demolished:building:part": "yes",
        "demolished:shop": "vacant",
        "level": "0",
        "old_name": "Corner Bakery",
        "website": "https://www.cornerbakerycafe.com/",
        "@geometry": "center"
      },
      "geometry": {
        "type": "Point",
        "coordinates": [
          -118.6036012,
          34.1816255
        ]
      },
      "id": "way/977419024"
    },
    {
      "type": "Feature",
      "properties": {
        "@id": "way/1011516059",
        "addr:city": "Bowling Green",
        "addr:housenumber": "1951",
        "addr:postcode": "42104",
        "addr:state": "KY",
        "addr:street": "Scottsville Road",
        "amenity": "cafe",
        "brand": "Corner Bakery",
        "brand:wikidata": "Q5171598",
        "building": "yes",
        "cuisine": "coffee_shop",
        "name": "Corner Bakery",
        "opening_hours": "Su-Sa 07:00-18:00",
        "phone": "+1-270-796-8100",
        "takeaway": "yes",
        "website": "https://cornerbakerycafe.com/",
        "@geometry": "center"
      },
      "geometry": {
        "type": "Point",
        "coordinates": [
          -86.4308305,
          36.9609365
        ]
      },
      "id": "way/1011516059"
    },
    {
      "type": "Feature",
      "properties": {
        "@id": "way/1127935802",
        "amenity": "cafe",
        "brand": "Corner Bakery",
        "brand:wikidata": "Q5171598",
        "building": "yes",
        "cuisine": "coffee_shop",
        "name": "Corner Bakery",
        "source": "microsoft/BuildingFootprints",
        "takeaway": "yes",
        "@geometry": "center"
      },
      "geometry": {
        "type": "Point",
        "coordinates": [
          -106.3959843,
          31.7847498
        ]
      },
      "id": "way/1127935802"
    },
    {
      "type": "Feature",
      "properties": {
        "@id": "way/1154835983",
        "addr:city": "Henderson",
        "addr:housenumber": "494",
        "addr:postcode": "89014",
        "addr:state": "NV",
        "addr:street": "North Stephanie Street",
        "amenity": "cafe",
        "brand": "Corner Bakery",
        "brand:wikidata": "Q5171598",
        "building": "retail",
        "cuisine": "coffee_shop",
        "drive_through": "yes",
        "name": "Corner Bakery",
        "phone": "+17028402336",
        "takeaway": "yes",
        "@geometry": "center"
      },
      "geometry": {
        "type": "Point",
        "coordinates": [
          -115.045708,
          36.0588328
        ]
      },
      "id": "way/1154835983"
    },
    {
      "type": "Feature",
      "properties": {
        "@id": "node/1340720777",
        "addr:city": "Centennial",
        "addr:housenumber": "2253",
        "addr:postcode": "80122",
        "addr:state": "CO",
        "addr:street": "East Briarwood Avenue",
        "addr:unit": "Unit 509",
        "amenity": "cafe",
        "brand": "Corner Bakery",
        "brand:wikidata": "Q5171598",
        "check_date": "2026-07-13",
        "cuisine": "coffee_shop",
        "name": "Corner Bakery",
        "opening_hours": "Su 07:00-17:00; Mo-Fr 06:30-20:00; Sa 07:00-19:00",
        "outdoor_seating": "yes",
        "phone": "+1-303-794-3900",
        "takeaway": "yes",
        "website": "https://cornerbakerycafe.com/location/corner-bakery-cafe-south-glenn/",
        "website:menu": "https://cornerbakerycafe.com/menu/"
      },
      "geometry": {
        "type": "Point",
        "coordinates": [
          -104.9617982,
          39.5928742
        ]
      },
      "id": "node/1340720777"
    },
    {
      "type": "Feature",
      "properties": {
        "@id": "node/1351004371",
        "amenity": "cafe",
        "brand": "Corner Bakery",
        "brand:wikidata": "Q5171598",
        "cuisine": "coffee_shop",
        "name": "Corner Bakery",
        "takeaway": "yes"
      },
      "geometry": {
        "type": "Point",
        "coordinates": [
          -88.3411247,
          41.892376
        ]
      },
      "id": "node/1351004371"
    },
    {
      "type": "Feature",
      "properties": {
        "@id": "way/1384291245",
        "addr:city": "Las Cruces",
        "addr:housenumber": "2305",
        "addr:postcode": "88001",
        "addr:state": "NM",
        "addr:street": "East Lohman Avenue",
        "amenity": "cafe",
        "brand": "Corner Bakery",
        "brand:wikidata": "Q5171598",
        "building": "yes",
        "cuisine": "coffee_shop",
        "menu": "https://cornerbakery.com/menu",
        "name": "Corner Bakery",
        "opening_hours": "Mo-Su 06:30-21:00",
        "phone": "+15755415767",
        "takeaway": "yes",
        "website": "https://www.cornerbakerycafe.com/",
        "@geometry": "center"
      },
      "geometry": {
        "type": "Point",
        "coordinates": [
          -106.7525174,
          32.313544
        ]
      },
      "id": "way/1384291245"
    },
    {
      "type": "Feature",
      "properties": {
        "@id": "node/1557770404",
        "amenity": "cafe",
        "brand": "Corner Bakery",
        "brand:wikidata": "Q5171598",
        "cuisine": "coffee_shop",
        "name": "Corner Bakery",
        "source": "Bing",
        "takeaway": "yes"
      },
      "geometry": {
        "type": "Point",
        "coordinates": [
          -117.152908,
          32.76802
        ]
      },
      "id": "node/1557770404"
    },
    {
      "type": "Feature",
      "properties": {
        "@id": "node/1584214965",
        "addr:city": "Dallas",
        "addr:housenumber": "7615",
        "addr:postcode": "75248",
        "addr:state": "TX",
        "addr:street": "Campbell Road",
        "addr:unit": "106",
        "amenity": "cafe",
        "brand": "Corner Bakery",
        "brand:wikidata": "Q5171598",
        "cuisine": "coffee_shop",
        "delivery": "yes",
        "internet_access": "wlan",
        "internet_access:fee": "customers",
        "name": "Corner Bakery",
        "opening_hours": "Mo-Su 07:00-21:00",
        "outdoor_seating": "yes",
        "phone": "+1-972-407-9131",
        "takeaway": "yes",
        "website": "https://www.cornerbakerycafe.com/location/coit-campbell",
        "website:menu": "https://www.cornerbakerycafe.com/menu",
        "wheelchair": "yes"
      },
      "geometry": {
        "type": "Point",
        "coordinates": [
          -96.7687484,
          32.9799111
        ]
      },
      "id": "node/1584214965"
    },
    {
      "type": "Feature",
      "properties": {
        "@id": "node/1619741021",
        "addr:city": "Chicago",
        "addr:housenumber": "444",
        "addr:postcode": "60606",
        "addr:state": "IL",
        "addr:street": "West Jackson Boulevard",
        "amenity": "cafe",
        "brand": "Corner Bakery",
        "brand:wikidata": "Q5171598",
        "cuisine": "coffee_shop",
        "level": "0",
        "name": "Corner Bakery",
        "opening_hours": "Mo-Fr 06:00-20:30; Sa-Su 07:00-17:00",
        "phone": "+1-872-272-4308",
        "takeaway": "yes",
        "website": "https://cornerbakerycafe.com/location/union-station/",
        "website:menu": "https://order.cornerbakerycafe.com/menu/union-station"
      },
      "geometry": {
        "type": "Point",
        "coordinates": [
          -87.6384518,
          41.8781929
        ]
      },
      "id": "node/1619741021"
    },
    {
      "type": "Feature",
      "properties": {
        "@id": "node/1698687109",
        "addr:city": "San Diego",
        "addr:housenumber": "4575",
        "addr:postcode": "92122",
        "addr:state": "CA",
        "addr:street": "La Jolla Village Drive",
        "addr:unit": "1120",
        "air_conditioning": "yes",
        "amenity": "cafe",
        "brand": "Corner Bakery",
        "brand:wikidata": "Q5171598",
        "cuisine": "coffee_shop",
        "diet:vegan": "yes",
        "diet:vegetarian": "yes",
        "name": "Corner Bakery",
        "opening_hours": "Mo-Sa 07:00-20:00; Su 08:00-19:00",
        "outdoor_seating": "yes",
        "phone": "+18584531333",
        "smoking": "no",
        "source": "Bing",
        "takeaway": "yes",
        "website": "https://www.cornerbakerycafe.com/"
      },
      "geometry": {
        "type": "Point",
        "coordinates": [
          -117.2094267,
          32.8726533
        ]
      },
      "id": "node/1698687109"
    },
    {
      "type": "Feature",
      "properties": {
        "@id": "node/2092465077",
        "addr:city": "Dallas",
        "addr:housenumber": "5225",
        "addr:postcode": "75248",
        "addr:state": "TX",
        "addr:street": "Belt Line Road",
        "amenity": "cafe",
        "brand": "Corner Bakery",
        "brand:wikidata": "Q5171598",
        "cuisine": "coffee_shop",
        "name": "Corner Bakery",
        "takeaway": "yes"
      },
      "geometry": {
        "type": "Point",
        "coordinates": [
          -96.8176749,
          32.9551011
        ]
      },
      "id": "node/2092465077"
    },
    {
      "type": "Feature",
      "properties": {
        "@id": "node/2300445237",
        "addr:city": "Oak Lawn",
        "addr:housenumber": "9621",
        "addr:postcode": "60453",
        "addr:state": "IL",
        "addr:street": "South Cicero Avenue",
        "amenity": "cafe",
        "brand": "Corner Bakery",
        "brand:wikidata": "Q5171598",
        "cuisine": "coffee_shop",
        "name": "Corner Bakery",
        "takeaway": "yes"
      },
      "geometry": {
        "type": "Point",
        "coordinates": [
          -87.7404043,
          41.7178384
        ]
      },
      "id": "node/2300445237"
    },
    {
      "type": "Feature",
      "properties": {
        "@id": "node/2317807664",
        "amenity": "cafe",
        "brand": "Corner Bakery",
        "brand:wikidata": "Q5171598",
        "cuisine": "coffee_shop",
        "name": "Corner Bakery",
        "takeaway": "yes"
      },
      "geometry": {
        "type": "Point",
        "coordinates": [
          -112.069558,
          33.4527763
        ]
      },
      "id": "node/2317807664"
    },
    {
      "type": "Feature",
      "properties": {
        "@id": "node/2375736609",
        "addr:floor": "1",
        "addr:housenumber": "800",
        "addr:postcode": "91502",
        "addr:street": "North San Fernando Boulevard",
        "amenity": "cafe",
        "brand": "Corner Bakery",
        "brand:wikidata": "Q5171598",
        "check_date": "2024-10-01",
        "cuisine": "breakfast;coffee_shop",
        "email": "cb0227@cornerbakerycafe.com",
        "internet_access": "wlan",
        "level": "0",
        "name": "Corner Bakery",
        "opening_hours": "Mo-Su 07:00-21:00",
        "outdoor_seating": "no",
        "payment:cash": "yes",
        "payment:debit_cards": "yes",
        "takeaway": "yes",
        "website": "https://cornerbakerycafe.com/location/burbank",
        "wheelchair": "yes"
      },
      "geometry": {
        "type": "Point",
        "coordinates": [
          -118.315068,
          34.1858224
        ]
      },
      "id": "node/2375736609"
    },
    {
      "type": "Feature",
      "properties": {
        "@id": "node/2387758798",
        "addr:city": "Washington",
        "addr:housenumber": "500",
        "addr:postcode": "20001",
        "addr:state": "DC",
        "addr:street": "North Capitol Street Northwest",
        "addr:unit": "110",
        "amenity": "cafe",
        "brand": "Corner Bakery",
        "brand:wikidata": "Q5171598",
        "check_date": "2026-01-18",
        "cuisine": "coffee_shop",
        "indoor_seating": "yes",
        "name": "Corner Bakery",
        "opening_hours": "Mo-Fr 06:00-20:30; Sa-Su 07:00-17:00",
        "outdoor_seating": "no",
        "phone": "+1 202-627-3139",
        "takeaway": "yes",
        "website": "https://cornerbakerycafe.com/location/capitol-hill"
      },
      "geometry": {
        "type": "Point",
        "coordinates": [
          -77.0093591,
          38.8963164
        ]
      },
      "id": "node/2387758798"
    },
    {
      "type": "Feature",
      "properties": {
        "@id": "node/2469022622",
        "amenity": "cafe",
        "brand": "Corner Bakery",
        "brand:wikidata": "Q5171598",
        "cuisine": "coffee_shop",
        "name": "Corner Bakery",
        "takeaway": "yes"
      },
      "geometry": {
        "type": "Point",
        "coordinates": [
          -105.0042332,
          39.5460558
        ]
      },
      "id": "node/2469022622"
    },
    {
      "type": "Feature",
      "properties": {
        "@id": "node/2509551201",
        "amenity": "cafe",
        "brand": "Corner Bakery",
        "brand:wikidata": "Q5171598",
        "cuisine": "coffee_shop",
        "name": "Corner Bakery",
        "takeaway": "yes"
      },
      "geometry": {
        "type": "Point",
        "coordinates": [
          -95.4198259,
          29.7297034
        ]
      },
      "id": "node/2509551201"
    },
    {
      "type": "Feature",
      "properties": {
        "@id": "node/2622260530",
        "amenity": "cafe",
        "brand": "Corner Bakery",
        "brand:wikidata": "Q5171598",
        "cuisine": "coffee_shop",
        "internet_access": "yes",
        "name": "Corner Bakery",
        "takeaway": "yes"
      },
      "geometry": {
        "type": "Point",
        "coordinates": [
          -97.3692204,
          27.7085886
        ]
      },
      "id": "node/2622260530"
    },
    {
      "type": "Feature",
      "properties": {
        "@id": "node/2699058635",
        "addr:city": "McLean",
        "addr:housenumber": "2001",
        "addr:postcode": "22102",
        "addr:state": "VA",
        "addr:street": "International Drive",
        "addr:unit": "1790M",
        "amenity": "cafe",
        "brand": "Corner Bakery",
        "brand:wikidata": "Q5171598",
        "cuisine": "coffee_shop",
        "name": "Corner Bakery",
        "phone": "+1 703-821-4224",
        "takeaway": "yes",
        "website": "https://www.cornerbakerycafe.com/location/tysons"
      },
      "geometry": {
        "type": "Point",
        "coordinates": [
          -77.2248551,
          38.9233452
        ]
      },
      "id": "node/2699058635"
    },
    {
      "type": "Feature",
      "properties": {
        "@id": "node/3052732299",
        "amenity": "cafe",
        "brand": "Corner Bakery",
        "brand:wikidata": "Q5171598",
        "cuisine": "coffee_shop",
        "name": "Corner Bakery",
        "takeaway": "yes"
      },
      "geometry": {
        "type": "Point",
        "coordinates": [
          -117.7057074,
          33.9823369
        ]
      },
      "id": "node/3052732299"
    },
    {
      "type": "Feature",
      "properties": {
        "@id": "node/3085000117",
        "addr:city": "Denver",
        "addr:housenumber": "1147",
        "addr:postcode": "80202",
        "addr:state": "CO",
        "addr:street": "16th Street",
        "amenity": "cafe",
        "brand": "Corner Bakery",
        "brand:wikidata": "Q5171598",
        "cuisine": "coffee_shop",
        "name": "Corner Bakery",
        "opening_hours": "Mo-Fr 06:30-17:00; Sa,Su 07:00-17:00",
        "takeaway": "yes",
        "wheelchair": "yes"
      },
      "geometry": {
        "type": "Point",
        "coordinates": [
          -104.995916,
          39.7483094
        ]
      },
      "id": "node/3085000117"
    },
    {
      "type": "Feature",
      "properties": {
        "@id": "node/3093306794",
        "addr:city": "Santa Ana",
        "addr:housenumber": "2789",
        "addr:postcode": "92705",
        "addr:street": "North Main Street",
        "amenity": "cafe",
        "brand": "Corner Bakery",
        "brand:wikidata": "Q5171598",
        "cuisine": "coffee_shop",
        "diet:vegetarian": "yes",
        "indoor_seating": "yes",
        "name": "Corner Bakery",
        "opening_hours": "07:00-21:00",
        "outdoor_seating": "yes",
        "takeaway": "yes"
      },
      "geometry": {
        "type": "Point",
        "coordinates": [
          -117.866847,
          33.7740656
        ]
      },
      "id": "node/3093306794"
    },
    {
      "type": "Feature",
      "properties": {
        "@id": "node/3112822235",
        "amenity": "cafe",
        "brand": "Corner Bakery",
        "brand:wikidata": "Q5171598",
        "cuisine": "coffee_shop",
        "name": "Corner Bakery",
        "shop": "bakery",
        "takeaway": "yes"
      },
      "geometry": {
        "type": "Point",
        "coordinates": [
          -97.750673,
          30.393758
        ]
      },
      "id": "node/3112822235"
    },
    {
      "type": "Feature",
      "properties": {
        "@id": "node/3267516553",
        "addr:housenumber": "107",
        "addr:street": "Yale Street",
        "addr:unit": "100",
        "amenity": "cafe",
        "brand": "Corner Bakery",
        "brand:wikidata": "Q5171598",
        "cuisine": "coffee_shop",
        "name": "Corner Bakery",
        "shop": "bakery",
        "takeaway": "yes"
      },
      "geometry": {
        "type": "Point",
        "coordinates": [
          -95.3989858,
          29.772809
        ]
      },
      "id": "node/3267516553"
    },
    {
      "type": "Feature",
      "properties": {
        "@id": "node/3762605728",
        "amenity": "cafe",
        "brand": "Corner Bakery",
        "brand:wikidata": "Q5171598",
        "cost:coffee": "$2",
        "cuisine": "coffee_shop",
        "name": "Corner Bakery",
        "takeaway": "yes"
      },
      "geometry": {
        "type": "Point",
        "coordinates": [
          -96.9432811,
          32.8662522
        ]
      },
      "id": "node/3762605728"
    },
    {
      "type": "Feature",
      "properties": {
        "@id": "node/3782266641",
        "addr:city": "Horsham",
        "addr:housenumber": "100",
        "addr:state": "PA",
        "addr:street": "Welsh Road",
        "amenity": "cafe",
        "brand": "Corner Bakery",
        "brand:wikidata": "Q5171598",
        "check_date": "2026-01-02",
        "cuisine": "coffee_shop",
        "name": "Corner Bakery",
        "phone": "+1 215-659-5126",
        "takeaway": "yes",
        "website": "https://cornerbakerycafe.com/location/corner-bakery-cafe-horsham/"
      },
      "geometry": {
        "type": "Point",
        "coordinates": [
          -75.1430094,
          40.158282
        ]
      },
      "id": "node/3782266641"
    },
    {
      "type": "Feature",
      "properties": {
        "@id": "node/3999437607",
        "amenity": "cafe",
        "brand": "Corner Bakery",
        "brand:wikidata": "Q5171598",
        "check_date": "2022-10-05",
        "cuisine": "coffee_shop",
        "name": "Corner Bakery Cafe",
        "payment:mastercard": "yes",
        "payment:visa": "yes",
        "shop": "bakery",
        "takeaway": "yes",
        "wheelchair": "yes"
      },
      "geometry": {
        "type": "Point",
        "coordinates": [
          -111.886105,
          40.6349271
        ]
      },
      "id": "node/3999437607"
    },
    {
      "type": "Feature",
      "properties": {
        "@id": "node/4255404389",
        "brand": "Corner Bakery",
        "brand:wikidata": "Q5171598",
        "check_date": "2023-12-22",
        "cuisine": "coffee_shop",
        "disused:amenity": "cafe",
        "indoor_seating": "yes",
        "name": "Corner Bakery",
        "takeaway": "yes",
        "toilets": "yes",
        "toilets:access": "customers"
      },
      "geometry": {
        "type": "Point",
        "coordinates": [
          -118.394141,
          33.8988282
        ]
      },
      "id": "node/4255404389"
    },
    {
      "type": "Feature",
      "properties": {
        "@id": "node/4323700577",
        "addr:city": "Denver",
        "addr:housenumber": "500",
        "addr:postcode": "80202",
        "addr:state": "CO",
        "addr:street": "16th Street",
        "addr:unit": "150",
        "amenity": "cafe",
        "brand": "Corner Bakery",
        "brand:wikidata": "Q5171598",
        "cuisine": "coffee_shop",
        "level": "0",
        "name": "Corner Bakery",
        "takeaway": "yes",
        "wheelchair": "yes"
      },
      "geometry": {
        "type": "Point",
        "coordinates": [
          -104.990106,
          39.7432835
        ]
      },
      "id": "node/4323700577"
    },
    {
      "type": "Feature",
      "properties": {
        "@id": "node/4502540273",
        "amenity": "cafe",
        "brand": "Corner Bakery",
        "brand:wikidata": "Q5171598",
        "check_date": "2025-10-06",
        "cuisine": "coffee_shop",
        "internet_access": "wlan",
        "internet_access:fee": "no",
        "name": "Corner Bakery",
        "shop": "bakery",
        "takeaway": "yes"
      },
      "geometry": {
        "type": "Point",
        "coordinates": [
          -96.8068114,
          32.7808038
        ]
      },
      "id": "node/4502540273"
    },
    {
      "type": "Feature",
      "properties": {
        "@id": "node/4934615452",
        "addr:housenumber": "1868",
        "amenity": "cafe",
        "brand": "Corner Bakery",
        "brand:wikidata": "Q5171598",
        "cuisine": "coffee_shop",
        "name": "Corner Bakery",
        "takeaway": "yes"
      },
      "geometry": {
        "type": "Point",
        "coordinates": [
          -118.3783126,
          33.816381
        ]
      },
      "id": "node/4934615452"
    },
    {
      "type": "Feature",
      "properties": {
        "@id": "node/4994150228",
        "addr:city": "Atlanta",
        "addr:floor": "G",
        "addr:housenumber": "270",
        "addr:postcode": "30303",
        "addr:state": "GA",
        "addr:street": "Peachtree Street Northeast",
        "air_conditioning": "yes",
        "amenity": "cafe",
        "brand": "Corner Bakery",
        "brand:wikidata": "Q5171598",
        "check_date": "2025-09-01",
        "contact:phone": "+1 404 2159000",
        "cuisine": "coffee_shop",
        "internet_access": "wlan",
        "level": "0",
        "name": "Corner Bakery",
        "name:en": "Corner Bakery Cafe",
        "opening_hours": "06:00-17:00",
        "payment:cash": "yes",
        "payment:credit_cards": "yes",
        "payment:debit_cards": "yes",
        "shop": "bakery",
        "takeaway": "yes",
        "toilets": "yes",
        "website": "https://www.cornerbakerycafe.com/location/southern-building",
        "wheelchair": "yes"
      },
      "geometry": {
        "type": "Point",
        "coordinates": [
          -84.3878388,
          33.761818
        ]
      },
      "id": "node/4994150228"
    },
    {
      "type": "Feature",
      "properties": {
        "@id": "node/5044912221",
        "addr:housenumber": "1019",
        "addr:postcode": "90024",
        "addr:street": "Westwood Boulevard",
        "air_conditioning": "yes",
        "amenity": "cafe",
        "brand": "Corner Bakery",
        "brand:wikidata": "Q5171598",
        "cuisine": "coffee_shop",
        "name": "Corner Bakery",
        "opening_hours": "Mo-Fr 07:00-21:00; Sa-Su 08:00-21:00",
        "takeaway": "yes"
      },
      "geometry": {
        "type": "Point",
        "coordinates": [
          -118.445595,
          34.0621954
        ]
      },
      "id": "node/5044912221"
    },
    {
      "type": "Feature",
      "properties": {
        "@id": "node/5335740047",
        "amenity": "cafe",
        "brand": "Corner Bakery",
        "brand:wikidata": "Q5171598",
        "cuisine": "coffee_shop",
        "name": "Corner Bakery",
        "takeaway": "yes"
      },
      "geometry": {
        "type": "Point",
        "coordinates": [
          -118.250898,
          34.0526394
        ]
      },
      "id": "node/5335740047"
    },
    {
      "type": "Feature",
      "properties": {
        "@id": "node/5355148074",
        "amenity": "cafe",
        "brand": "Corner Bakery",
        "brand:wikidata": "Q5171598",
        "cuisine": "coffee_shop",
        "indoor_seating": "yes",
        "name": "Corner Bakery",
        "opening_hours": "Mo-Fr 06:30-17:30",
        "outdoor_seating": "no",
        "phone": "+1-312-269-9100",
        "takeaway": "yes",
        "website": "https://www.cornerbakerycafe.com/location/south-lasalle"
      },
      "geometry": {
        "type": "Point",
        "coordinates": [
          -87.6324897,
          41.8801039
        ]
      },
      "id": "node/5355148074"
    },
    {
      "type": "Feature",
      "properties": {
        "@id": "node/5430996818",
        "addr:city": "Denver",
        "addr:housenumber": "717",
        "addr:postcode": "80202",
        "addr:state": "CO",
        "addr:street": "17th Street",
        "amenity": "cafe",
        "brand": "Corner Bakery",
        "brand:wikidata": "Q5171598",
        "cuisine": "coffee_shop",
        "name": "Corner Bakery",
        "opening_hours": "Mo-Fr 07:00-15:00",
        "phone": "+1-303-292-5100",
        "takeaway": "yes",
        "website": "https://www.cornerbakerycafe.com/"
      },
      "geometry": {
        "type": "Point",
        "coordinates": [
          -104.9909694,
          39.7470415
        ]
      },
      "id": "node/5430996818"
    },
    {
      "type": "Feature",
      "properties": {
        "@id": "node/5577534145",
        "addr:city": "Hurst",
        "addr:housenumber": "1410",
        "addr:postcode": "76053",
        "addr:state": "TX",
        "addr:street": "Precinct Line Road",
        "amenity": "cafe",
        "brand": "Corner Bakery",
        "brand:wikidata": "Q5171598",
        "cuisine": "coffee_shop",
        "name": "Corner Bakery",
        "opening_hours": "Mo-Su 07:00-21:00",
        "payment:cash": "yes",
        "payment:credit_cards": "yes",
        "payment:debit_cards": "yes",
        "shop": "bakery",
        "takeaway": "yes"
      },
      "geometry": {
        "type": "Point",
        "coordinates": [
          -97.1858284,
          32.8367783
        ]
      },
      "id": "node/5577534145"
    },
    {
      "type": "Feature",
      "properties": {
        "@id": "node/5603454421",
        "addr:city": "Pleasanton",
        "addr:housenumber": "6770",
        "addr:postcode": "94566",
        "addr:state": "CA",
        "addr:street": "Bernal Avenue",
        "addr:unit": "450",
        "brand:wikidata": "Q5171598"
      },
      "geometry": {
        "type": "Point",
        "coordinates": [
          -121.897684,
          37.6578001
        ]
      },
      "id": "node/5603454421"
    },
    {
      "type": "Feature",
      "properties": {
        "@id": "node/5625625834",
        "amenity": "cafe",
        "brand": "Corner Bakery",
        "brand:wikidata": "Q5171598",
        "cuisine": "coffee_shop",
        "name": "Corner Bakery",
        "takeaway": "yes"
      },
      "geometry": {
        "type": "Point",
        "coordinates": [
          -117.89038,
          33.6955915
        ]
      },
      "id": "node/5625625834"
    },
    {
      "type": "Feature",
      "properties": {
        "@id": "node/5631407034",
        "amenity": "cafe",
        "brand": "Corner Bakery",
        "brand:wikidata": "Q5171598",
        "cuisine": "coffee_shop",
        "level": "1",
        "name": "Corner Bakery",
        "takeaway": "yes"
      },
      "geometry": {
        "type": "Point",
        "coordinates": [
          -117.888208,
          33.6899818
        ]
      },
      "id": "node/5631407034"
    },
    {
      "type": "Feature",
      "properties": {
        "@id": "node/5719023596",
        "amenity": "cafe",
        "brand": "Corner Bakery",
        "brand:wikidata": "Q5171598",
        "cuisine": "coffee_shop",
        "level": "1",
        "name": "Corner Bakery",
        "takeaway": "yes"
      },
      "geometry": {
        "type": "Point",
        "coordinates": [
          -118.132535,
          34.1398776
        ]
      },
      "id": "node/5719023596"
    },
    {
      "type": "Feature",
      "properties": {
        "@id": "node/5864266545",
        "addr:city": "McAllen",
        "addr:housenumber": "3400",
        "addr:postcode": "78501",
        "addr:state": "TX",
        "addr:street": "Expressway 83",
        "addr:unit": "Suite 780",
        "amenity": "cafe",
        "brand": "Corner Bakery",
        "brand:wikidata": "Q5171598",
        "cuisine": "coffee_shop",
        "internet_access": "wlan",
        "name": "Corner Bakery",
        "opening_hours": "Mo-Sa 07:30-22:00, Su 07:30-21:00",
        "phone": "+1-956-800-6279",
        "takeaway": "yes",
        "website": "https://www.cornerbakerycafe.com/"
      },
      "geometry": {
        "type": "Point",
        "coordinates": [
          -98.260511,
          26.1959907
        ]
      },
      "id": "node/5864266545"
    },
    {
      "type": "Feature",
      "properties": {
        "@id": "node/5897682948",
        "amenity": "cafe",
        "brand": "Corner Bakery",
        "brand:wikidata": "Q5171598",
        "check_date": "2023-07-11",
        "cuisine": "coffee_shop",
        "disused:amenity": "cafe",
        "name": "Corner Bakery",
        "opening_hours": "Mo-Sa 08:00-14:00",
        "shop": "bakery",
        "takeaway": "yes"
      },
      "geometry": {
        "type": "Point",
        "coordinates": [
          -76.6084975,
          39.2870588
        ]
      },
      "id": "node/5897682948"
    },
    {
      "type": "Feature",
      "properties": {
        "@id": "node/5946317385",
        "addr:city": "Chicago",
        "addr:housenumber": "224",
        "addr:postcode": "60604",
        "addr:state": "IL",
        "addr:street": "South Michigan Avenue",
        "amenity": "cafe",
        "brand": "Corner Bakery",
        "brand:wikidata": "Q5171598",
        "cuisine": "coffee_shop",
        "name": "Corner Bakery",
        "phone": "+1-312-431-7600",
        "takeaway": "yes",
        "website": "https://www.cornerbakerycafe.com/"
      },
      "geometry": {
        "type": "Point",
        "coordinates": [
          -87.6246417,
          41.8783991
        ]
      },
      "id": "node/5946317385"
    },
    {
      "type": "Feature",
      "properties": {
        "@id": "node/6136939093",
        "addr:city": "Tukwila",
        "addr:housenumber": "393",
        "addr:postcode": "98188",
        "addr:street": "Strander Boulevard",
        "addr:unit": "A",
        "air_conditioning": "yes",
        "amenity": "cafe",
        "branch": "Southcenter Plaza",
        "brand": "Corner Bakery",
        "brand:wikidata": "Q5171598",
        "check_date": "2025-07-13",
        "cuisine": "coffee_shop",
        "diet:vegetarian": "yes",
        "indoor_seating": "yes",
        "name": "Corner Bakery",
        "opening_hours": "Mo-Su 07:00-20:00",
        "outdoor_seating": "yes",
        "takeaway": "yes",
        "wheelchair": "yes"
      },
      "geometry": {
        "type": "Point",
        "coordinates": [
          -122.2548686,
          47.4556342
        ]
      },
      "id": "node/6136939093"
    },
    {
      "type": "Feature",
      "properties": {
        "@id": "node/6283504666",
        "addr:city": "Chicago",
        "addr:housenumber": "56",
        "addr:postcode": "60602",
        "addr:state": "IL",
        "addr:street": "West Randolph Street",
        "amenity": "cafe",
        "brand": "Corner Bakery",
        "brand:wikidata": "Q5171598",
        "cuisine": "coffee_shop",
        "indoor_seating": "yes",
        "name": "Corner Bakery",
        "outdoor_seating": "yes",
        "phone": "+1-312-346-9492",
        "takeaway": "yes",
        "website": "https://www.cornerbakerycafe.com/"
      },
      "geometry": {
        "type": "Point",
        "coordinates": [
          -87.6300195,
          41.8846088
        ]
      },
      "id": "node/6283504666"
    },
    {
      "type": "Feature",
      "properties": {
        "@id": "node/6283843439",
        "addr:city": "Chicago",
        "addr:housenumber": "676",
        "addr:postcode": "60611",
        "addr:state": "IL",
        "addr:street": "North Saint Clair Street",
        "amenity": "cafe",
        "brand": "Corner Bakery",
        "brand:wikidata": "Q5171598",
        "cuisine": "coffee_shop",
        "name": "Corner Bakery",
        "phone": "+1-312-266-2570",
        "takeaway": "yes",
        "website": "https://www.cornerbakerycafe.com/"
      },
      "geometry": {
        "type": "Point",
        "coordinates": [
          -87.6229706,
          41.8942888
        ]
      },
      "id": "node/6283843439"
    },
    {
      "type": "Feature",
      "properties": {
        "@id": "node/6283844447",
        "addr:city": "Chicago",
        "addr:housenumber": "360",
        "addr:postcode": "60601",
        "addr:state": "IL",
        "addr:street": "North Michigan Avenue",
        "amenity": "cafe",
        "brand": "Corner Bakery",
        "brand:wikidata": "Q5171598",
        "cuisine": "coffee_shop",
        "drive_through": "no",
        "name": "Corner Bakery",
        "phone": "+1-312-236-2400",
        "shop": "bakery",
        "takeaway": "yes",
        "website": "https://www.cornerbakerycafe.com/location/michigan-wacker"
      },
      "geometry": {
        "type": "Point",
        "coordinates": [
          -87.6252478,
          41.8880277
        ]
      },
      "id": "node/6283844447"
    },
    {
      "type": "Feature",
      "properties": {
        "@id": "node/7236236392",
        "addr:city": "McAllen",
        "addr:housenumber": "4021",
        "addr:postcode": "78504",
        "addr:state": "TX",
        "addr:street": "North 10th Street",
        "amenity": "cafe",
        "brand": "Corner Bakery",
        "brand:wikidata": "Q5171598",
        "cuisine": "coffee_shop",
        "internet_access": "yes",
        "name": "Corner Bakery",
        "phone": "+1-956-278-8270",
        "takeaway": "yes"
      },
      "geometry": {
        "type": "Point",
        "coordinates": [
          -98.2245198,
          26.2407249
        ]
      },
      "id": "node/7236236392"
    },
    {
      "type": "Feature",
      "properties": {
        "@id": "node/7729451441",
        "addr:city": "Plano",
        "addr:postcode": "75075",
        "addr:state": "TX",
        "addr:street": "Preston Road",
        "amenity": "cafe",
        "brand": "Corner Bakery",
        "brand:wikidata": "Q5171598",
        "cuisine": "coffee_shop",
        "name": "Corner Bakery",
        "takeaway": "yes"
      },
      "geometry": {
        "type": "Point",
        "coordinates": [
          -96.7955061,
          33.0309091
        ]
      },
      "id": "node/7729451441"
    },
    {
      "type": "Feature",
      "properties": {
        "@id": "node/7954645855",
        "amenity": "cafe",
        "brand": "Corner Bakery",
        "brand:wikidata": "Q5171598",
        "check_date": "2025-12-29",
        "cuisine": "coffee_shop",
        "name": "Corner Bakery",
        "shop": "bakery",
        "takeaway": "yes"
      },
      "geometry": {
        "type": "Point",
        "coordinates": [
          -73.6018151,
          41.5621668
        ]
      },
      "id": "node/7954645855"
    },
    {
      "type": "Feature",
      "properties": {
        "@id": "node/8436892625",
        "addr:city": "Anaheim",
        "addr:housenumber": "5747",
        "addr:postcode": "92807",
        "addr:state": "CA",
        "addr:street": "Santa Ana Canyon Rd",
        "amenity": "cafe",
        "brand": "Corner Bakery",
        "brand:wikidata": "Q5171598",
        "cuisine": "coffee_shop",
        "diet:meat": "yes",
        "diet:vegan": "yes",
        "diet:vegetarian": "yes",
        "internet_access": "wlan",
        "name": "Corner Bakery",
        "opening_hours:covid19": "Mo-Su 07:30-20:30",
        "phone": "+1 714-685-6970",
        "takeaway": "yes",
        "website": "https://cornerbakery.com/"
      },
      "geometry": {
        "type": "Point",
        "coordinates": [
          -117.788476,
          33.8522588
        ]
      },
      "id": "node/8436892625"
    },
    {
      "type": "Feature",
      "properties": {
        "@id": "node/8501649231",
        "addr:city": "Round Rock",
        "addr:housenumber": "110",
        "addr:postcode": "78681",
        "addr:state": "TX",
        "addr:street": "North Interstate 35",
        "addr:unit": "180",
        "amenity": "cafe",
        "brand": "Corner Bakery",
        "brand:wikidata": "Q5171598",
        "cuisine": "coffee_shop",
        "delivery": "yes",
        "diet:healthy": "yes",
        "diet:vegetarian": "yes",
        "internet_access": "wlan",
        "name": "Corner Bakery",
        "opening_hours": "Mo-Su 07:30-19:30",
        "outdoor_seating": "yes",
        "phone": "+1-512-582-8938",
        "takeaway": "yes",
        "website": "https://cornerbakerycafe.com/location/round-rock",
        "wheelchair": "yes"
      },
      "geometry": {
        "type": "Point",
        "coordinates": [
          -97.6879599,
          30.5090786
        ]
      },
      "id": "node/8501649231"
    },
    {
      "type": "Feature",
      "properties": {
        "@id": "node/9008993742",
        "amenity": "cafe",
        "brand": "Corner Bakery",
        "brand:wikidata": "Q5171598",
        "check_date": "2023-09-02",
        "cuisine": "coffee_shop",
        "name": "Corner Bakery",
        "opening_hours": "Mo-Sa 07:00-20:00; Su 07:00-20:00",
        "takeaway": "yes"
      },
      "geometry": {
        "type": "Point",
        "coordinates": [
          -98.4811884,
          29.4921804
        ]
      },
      "id": "node/9008993742"
    },
    {
      "type": "Feature",
      "properties": {
        "@id": "node/9418312176",
        "amenity": "cafe",
        "brand": "Corner Bakery",
        "brand:wikidata": "Q5171598",
        "cuisine": "coffee_shop",
        "name": "Corner Bakery",
        "takeaway": "yes"
      },
      "geometry": {
        "type": "Point",
        "coordinates": [
          -87.8196525,
          42.0799692
        ]
      },
      "id": "node/9418312176"
    },
    {
      "type": "Feature",
      "properties": {
        "@id": "node/9439738673",
        "addr:housenumber": "13521",
        "addr:street": "Westlake Drive",
        "amenity": "cafe",
        "brand": "Corner Bakery",
        "brand:wikidata": "Q5171598",
        "cuisine": "coffee_shop",
        "fixme": "resurvey",
        "name": "Corner Bakery",
        "takeaway": "yes",
        "website": "https://cornerbakerycafe.com/location/westlake"
      },
      "geometry": {
        "type": "Point",
        "coordinates": [
          -77.1473241,
          39.025961
        ]
      },
      "id": "node/9439738673"
    },
    {
      "type": "Feature",
      "properties": {
        "@id": "node/9760846603",
        "addr:city": "Schaumburg",
        "addr:housenumber": "1901",
        "addr:postcode": "60173",
        "addr:state": "IL",
        "addr:street": "East Woodfield Road",
        "amenity": "cafe",
        "brand": "Corner Bakery",
        "brand:wikidata": "Q5171598",
        "cuisine": "coffee_shop",
        "name": "Corner Bakery",
        "takeaway": "yes"
      },
      "geometry": {
        "type": "Point",
        "coordinates": [
          -88.0332246,
          42.0426758
        ]
      },
      "id": "node/9760846603"
    },
    {
      "type": "Feature",
      "properties": {
        "@id": "node/10224462279",
        "addr:city": "Wauwatosa",
        "addr:housenumber": "11500",
        "addr:postcode": "53222",
        "addr:state": "WI",
        "addr:street": "West Burleigh Street",
        "addr:unit": "103",
        "amenity": "cafe",
        "brand": "Corner Bakery",
        "brand:wikidata": "Q5171598",
        "cuisine": "coffee_shop",
        "name": "Corner Bakery",
        "takeaway": "yes"
      },
      "geometry": {
        "type": "Point",
        "coordinates": [
          -88.0564924,
          43.0761269
        ]
      },
      "id": "node/10224462279"
    },
    {
      "type": "Feature",
      "properties": {
        "@id": "node/10770674166",
        "amenity": "cafe",
        "brand": "Corner Bakery",
        "brand:wikidata": "Q5171598",
        "cuisine": "coffee_shop",
        "name": "Corner Bakery",
        "takeaway": "yes"
      },
      "geometry": {
        "type": "Point",
        "coordinates": [
          -77.3725475,
          38.8730379
        ]
      },
      "id": "node/10770674166"
    },
    {
      "type": "Feature",
      "properties": {
        "@id": "node/10797738733",
        "addr:city": "Temecula",
        "addr:housenumber": "26440",
        "addr:postcode": "92591-4653",
        "addr:state": "CA",
        "addr:street": "Ynez Road",
        "amenity": "cafe",
        "brand": "Corner Bakery",
        "brand:wikidata": "Q5171598",
        "cuisine": "coffee_shop",
        "indoor_seating": "yes",
        "name": "Corner Bakery",
        "outdoor_seating": "yes",
        "phone": "+1-951-719-3289",
        "takeaway": "yes"
      },
      "geometry": {
        "type": "Point",
        "coordinates": [
          -117.158832,
          33.523969
        ]
      },
      "id": "node/10797738733"
    },
    {
      "type": "Feature",
      "properties": {
        "@id": "node/10856074615",
        "amenity": "cafe",
        "brand": "Corner Bakery",
        "brand:wikidata": "Q5171598",
        "cuisine": "coffee_shop",
        "name": "Corner Bakery",
        "shop": "bakery",
        "takeaway": "yes"
      },
      "geometry": {
        "type": "Point",
        "coordinates": [
          -86.7750165,
          36.1579989
        ]
      },
      "id": "node/10856074615"
    },
    {
      "type": "Feature",
      "properties": {
        "@id": "node/10922694297",
        "addr:city": "Chicago",
        "addr:housenumber": "188",
        "addr:postcode": "60606",
        "addr:state": "IL",
        "addr:street": "West Washington Street",
        "addr:street:name": "Wells",
        "addr:street:prefix": "North",
        "addr:street:type": "Street",
        "amenity": "cafe",
        "brand": "Corner Bakery",
        "brand:wikidata": "Q5171598",
        "chicago:building_id": "355064",
        "cuisine": "coffee_shop",
        "name": "Corner Bakery",
        "outdoor_seating": "yes",
        "takeaway": "yes",
        "wheelchair": "yes"
      },
      "geometry": {
        "type": "Point",
        "coordinates": [
          -87.6336916,
          41.8833469
        ]
      },
      "id": "node/10922694297"
    },
    {
      "type": "Feature",
      "properties": {
        "@id": "node/11009397479",
        "addr:city": "Lake Forest",
        "addr:country": "US",
        "addr:housenumber": "23702",
        "addr:postcode": "92630",
        "addr:state": "CA",
        "addr:street": "El Toro Road",
        "addr:unit": "Suite C",
        "amenity": "cafe",
        "branch": "Lake Forest",
        "brand": "Corner Bakery",
        "brand:wikidata": "Q5171598",
        "check_date": "2026-01-14",
        "craft": "caterer",
        "cuisine": "coffee_shop",
        "delivery": "yes",
        "internet_access": "wlan",
        "name": "Corner Bakery",
        "opening_hours": "07:00-21:00",
        "outdoor_seating": "yes",
        "phone": "+1 949-472-1383",
        "takeaway": "yes",
        "website": "https://cornerbakerycafe.com/location/corner-bakery-cafe-lake-forest/",
        "website:menu": "https://order.cornerbakerycafe.com/menu/corner-bakery-cafe-lake-forest",
        "wheelchair": "yes"
      },
      "geometry": {
        "type": "Point",
        "coordinates": [
          -117.7024973,
          33.6180365
        ]
      },
      "id": "node/11009397479"
    },
    {
      "type": "Feature",
      "properties": {
        "@id": "node/11028900911",
        "amenity": "cafe",
        "brand": "Corner Bakery",
        "brand:wikidata": "Q5171598",
        "check_date": "2025-10-08",
        "cuisine": "coffee_shop",
        "name": "Corner Bakery",
        "takeaway": "yes"
      },
      "geometry": {
        "type": "Point",
        "coordinates": [
          -75.2220835,
          40.0038775
        ]
      },
      "id": "node/11028900911"
    },
    {
      "type": "Feature",
      "properties": {
        "@id": "node/11255964565",
        "amenity": "cafe",
        "brand": "Corner Bakery",
        "brand:wikidata": "Q5171598",
        "cuisine": "coffee_shop",
        "name": "Corner Bakery",
        "takeaway": "yes"
      },
      "geometry": {
        "type": "Point",
        "coordinates": [
          -118.376289,
          34.0746788
        ]
      },
      "id": "node/11255964565"
    },
    {
      "type": "Feature",
      "properties": {
        "@id": "node/11258942554",
        "addr:city": "Philadelphia",
        "addr:housenumber": "3737",
        "addr:postcode": "19104",
        "addr:state": "PA",
        "addr:street": "Market Street",
        "air_conditioning": "yes",
        "amenity": "cafe",
        "brand": "Corner Bakery",
        "brand:wikidata": "Q5171598",
        "contact:instagram": "https://www.instagram.com/cornerbakery/",
        "cuisine": "coffee_shop",
        "email": "cb0304@cornerbakerycafe.com",
        "internet_access": "yes",
        "internet_access:fee": "no",
        "name": "Corner Bakery",
        "opening_hours": "Mo-Fr 07:00-16:00; Sa 08:00-14:00",
        "phone": "+1-215-349-6290",
        "takeaway": "yes",
        "website": "https://www.cornerbakerycafe.com/location/38th-market"
      },
      "geometry": {
        "type": "Point",
        "coordinates": [
          -75.1975935,
          39.9568177
        ]
      },
      "id": "node/11258942554"
    },
    {
      "type": "Feature",
      "properties": {
        "@id": "node/11682526145",
        "amenity": "cafe",
        "brand": "Corner Bakery",
        "brand:wikidata": "Q5171598",
        "cuisine": "coffee_shop",
        "name": "Corner Bakery",
        "takeaway": "yes"
      },
      "geometry": {
        "type": "Point",
        "coordinates": [
          -119.3148489,
          36.2941697
        ]
      },
      "id": "node/11682526145"
    },
    {
      "type": "Feature",
      "properties": {
        "@id": "node/11731365006",
        "addr:city": "Fresno",
        "addr:housenumber": "8464",
        "addr:postcode": "93720",
        "addr:state": "CA",
        "addr:street": "North Friant Road",
        "addr:unit": "103",
        "amenity": "cafe",
        "brand": "Corner Bakery",
        "brand:wikidata": "Q5171598",
        "cuisine": "coffee_shop",
        "name": "Corner Bakery",
        "opening_hours": "Mo-Su 07:00-21:00",
        "outdoor_seating": "yes",
        "phone": "+1-559-328-5991",
        "takeaway": "yes",
        "website": "https://www.cornerbakerycafe.com/",
        "website:menu": "https://www.cornerbakerycafe.com/menu"
      },
      "geometry": {
        "type": "Point",
        "coordinates": [
          -119.7840786,
          36.85706
        ]
      },
      "id": "node/11731365006"
    },
    {
      "type": "Feature",
      "properties": {
        "@id": "node/11914596788",
        "amenity": "cafe",
        "brand": "Corner Bakery",
        "brand:wikidata": "Q5171598",
        "cuisine": "coffee_shop",
        "name": "Corner Bakery",
        "takeaway": "yes"
      },
      "geometry": {
        "type": "Point",
        "coordinates": [
          -95.5216506,
          29.7830408
        ]
      },
      "id": "node/11914596788"
    },
    {
      "type": "Feature",
      "properties": {
        "@id": "node/12099723642",
        "amenity": "cafe",
        "brand": "Corner Bakery",
        "brand:wikidata": "Q5171598",
        "cuisine": "coffee_shop",
        "name": "Corner Bakery",
        "opening_hours": "Mo-Sa 06:30-21:00",
        "takeaway": "yes"
      },
      "geometry": {
        "type": "Point",
        "coordinates": [
          -84.3673532,
          33.8482812
        ]
      },
      "id": "node/12099723642"
    },
    {
      "type": "Feature",
      "properties": {
        "@id": "node/13021084777",
        "amenity": "cafe",
        "brand": "Corner Bakery",
        "brand:wikidata": "Q5171598",
        "cuisine": "coffee_shop",
        "name": "Corner Bakery",
        "takeaway": "yes"
      },
      "geometry": {
        "type": "Point",
        "coordinates": [
          -117.5355044,
          34.1106836
        ]
      },
      "id": "node/13021084777"
    },
    {
      "type": "Feature",
      "properties": {
        "@id": "node/13070406454",
        "addr:city": "Houston",
        "addr:housenumber": "1000",
        "addr:postcode": "77002",
        "addr:state": "TX",
        "addr:street": "Main Street",
        "amenity": "cafe",
        "brand": "Corner Bakery",
        "brand:wikidata": "Q5171598",
        "cuisine": "coffee_shop",
        "name": "Corner Bakery",
        "takeaway": "yes",
        "website": "https://cornerbakerycafe.com/location/1000-main/"
      },
      "geometry": {
        "type": "Point",
        "coordinates": [
          -95.3652551,
          29.7569524
        ]
      },
      "id": "node/13070406454"
    },
    {
      "type": "Feature",
      "properties": {
        "@id": "node/13391359435",
        "addr:city": "Dallas",
        "addr:housenumber": "8687",
        "addr:postcode": "75225",
        "addr:state": "TX",
        "addr:street": "North Central Expressway",
        "addr:unit": "207",
        "amenity": "cafe",
        "brand": "Corner Bakery",
        "brand:wikidata": "Q5171598",
        "check_date": "2026-04-18",
        "cuisine": "coffee_shop",
        "level": "0",
        "name": "Corner Bakery",
        "opening_hours": "Mo-Sa 07:30-21:00; Su 08:00-18:00",
        "phone": "+1-214-361-1316",
        "takeaway": "yes",
        "website": "https://cornerbakerycafe.com/location/corner-bakery-cafe-northpark-mall/"
      },
      "geometry": {
        "type": "Point",
        "coordinates": [
          -96.7727872,
          32.8671885
        ]
      },
      "id": "node/13391359435"
    },
    {
      "type": "Feature",
      "properties": {
        "@id": "node/13646615115",
        "amenity": "cafe",
        "brand": "Corner Bakery",
        "brand:wikidata": "Q5171598",
        "cuisine": "coffee_shop",
        "name": "Corner Bakery",
        "shop": "bakery",
        "takeaway": "yes"
      },
      "geometry": {
        "type": "Point",
        "coordinates": [
          -104.7710046,
          39.7997088
        ]
      },
      "id": "node/13646615115"
    },
    {
      "type": "Feature",
      "properties": {
        "@id": "node/14018870442",
        "amenity": "cafe",
        "brand": "Corner Bakery",
        "brand:wikidata": "Q5171598",
        "cuisine": "coffee_shop",
        "indoor_seating": "yes",
        "internet_access": "yes",
        "internet_access:fee": "no",
        "name": "Corner Bakery",
        "opening_hours": "Mo-Su 07:00-21:00",
        "outdoor_seating": "yes",
        "takeaway": "yes",
        "toilets": "yes"
      },
      "geometry": {
        "type": "Point",
        "coordinates": [
          -98.4911872,
          29.6097898
        ]
      },
      "id": "node/14018870442"
    }
  ]
}