{
  "type": "FeatureCollection",
  "generator": "overpass-turbo",
  "copyright": "The data included in this document is from www.openstreetmap.org. The data is made available under ODbL.",
  "timestamp": "2026-09-26T05:28:18Z",
  "features": [
    {
      "type": "Feature",
      "properties": {
        "@id": "way/55730148",
        "addr:city": "Gresham",
        "addr:housenumber": "881",
        "addr:postcode": "97080",
        "addr:state": "OR",
        "addr:street": "Southwest Highland Drive",
        "amenity": "restaurant",
        "branch": "Gresham",
        "brand": "Huckleberry's Breakfast & Lunch",
        "brand:wikidata": "Q134614425",
        "building": "yes",
        "delivery": "yes",
        "height": "6.0",
        "name": "Huckleberry's",
        "official_name": "Huckleberry's Breakfast & Lunch",
        "opening_hours": "Mo-Su 07:00-15:00",
        "phone": "+1 503-512-5880",
        "takeaway": "yes",
        "website": "https://huckleberrys.com/locations/huckleberry-portland/",
        "@geometry": "center"
      },
      "geometry": {
        "type": "Point",
        "coordinates": [
          -122.4758763,
          45.4901726
        ]
      },
      "id": "way/55730148"
    },
    {
      "type": "Feature",
      "properties": {
        "@id": "node/1812231834",
        "amenity": "restaurant",
        "brand": "Huckleberry's Breakfast & Lunch",
        "brand:wikidata": "Q134614425",
        "cuisine": "breakfast;burger",
        "name": "Huckleberry's",
        "opening_hours": "Mo-Su 07:00-15:00",
        "phone": "+1 805-250-4116",
        "website": "https://huckleberrys.com/locations/huckleberrys-santa-maria/"
      },
      "geometry": {
        "type": "Point",
        "coordinates": [
          -120.4318126,
          34.9227127
        ]
      },
      "id": "node/1812231834"
    }
  ]
}