{
  "type": "FeatureCollection",
  "generator": "overpass-turbo",
  "copyright": "The data included in this document is from www.openstreetmap.org. The data is made available under ODbL.",
  "timestamp": "2026-09-26T05:19:10Z",
  "features": [
    {
      "type": "Feature",
      "properties": {
        "@id": "way/239080135",
        "addr:city": "Highlands Ranch",
        "addr:housenumber": "1164",
        "addr:postcode": "80129",
        "addr:state": "CO",
        "addr:street": "Sergeant Jon Stiles Drive",
        "amenity": "restaurant",
        "brand": "Keke's Breakfast Cafe",
        "brand:wikidata": "Q115930150",
        "building": "retail",
        "building:levels": "1",
        "cuisine": "american;breakfast",
        "name": "Keke's Breakfast Cafe",
        "phone": "+1-720-739-6350",
        "website": "https://www.kekes.com/locations/kekes-highlands-ranch",
        "@geometry": "center"
      },
      "geometry": {
        "type": "Point",
        "coordinates": [
          -105.0031533,
          39.5483562
        ]
      },
      "id": "way/239080135"
    },
    {
      "type": "Feature",
      "properties": {
        "@id": "way/300642734",
        "addr:city": "Orlando",
        "addr:housenumber": "4000",
        "addr:postcode": "32837",
        "addr:street": "Town Center Boulevard",
        "amenity": "restaurant",
        "brand": "Keke's Breakfast Cafe",
        "brand:wikidata": "Q115930150",
        "building": "yes",
        "cuisine": "breakfast",
        "name": "Keke's Breakfast Cafe",
        "opening_hours": "07:00-14:30",
        "phone": "+1-407-857-1404",
        "website": "https://www.kekes.com/",
        "wheelchair": "yes",
        "@geometry": "center"
      },
      "geometry": {
        "type": "Point",
        "coordinates": [
          -81.4251783,
          28.3631862
        ]
      },
      "id": "way/300642734"
    },
    {
      "type": "Feature",
      "properties": {
        "@id": "way/931060349",
        "addr:city": "Orlando",
        "addr:housenumber": "9723",
        "addr:postcode": "32832",
        "addr:state": "FL",
        "addr:street": "Eagle Creek Center Boulevard",
        "amenity": "restaurant",
        "brand": "Keke's Breakfast Cafe",
        "brand:wikidata": "Q115930150",
        "building": "yes",
        "cuisine": "breakfast",
        "name": "Keke's Breakfast Cafe",
        "opening_hours": "Mo-Su 07:00-14:30",
        "phone": "+1-407-751-7440",
        "website": "https://www.kekes.com/locations/kekes-lake-nona",
        "@geometry": "center"
      },
      "geometry": {
        "type": "Point",
        "coordinates": [
          -81.2426921,
          28.3640676
        ]
      },
      "id": "way/931060349"
    },
    {
      "type": "Feature",
      "properties": {
        "@id": "way/1347394159",
        "amenity": "restaurant",
        "brand": "Keke's Breakfast Cafe",
        "brand:wikidata": "Q115930150",
        "building": "yes",
        "cuisine": "breakfast",
        "name": "Keke's Breakfast Cafe",
        "@geometry": "center"
      },
      "geometry": {
        "type": "Point",
        "coordinates": [
          -81.6084805,
          28.348522
        ]
      },
      "id": "way/1347394159"
    },
    {
      "type": "Feature",
      "properties": {
        "@id": "node/4293270689",
        "addr:city": "West Melbourne",
        "addr:housenumber": "1523",
        "addr:postcode": "32904",
        "addr:state": "FL",
        "addr:street": "West New Haven Avenue",
        "air_conditioning": "yes",
        "amenity": "restaurant",
        "branch": "West Melbourne",
        "brand": "Keke's Breakfast Cafe",
        "brand:wikidata": "Q115930150",
        "cuisine": "breakfast",
        "delivery": "yes",
        "indoor_seating": "yes",
        "name": "Keke's Breakfast Cafe",
        "opening_hours": "Mo-Su 07:00-14:30",
        "outdoor_seating": "no",
        "payment:credit_cards": "yes",
        "payment:debit_cards": "yes",
        "phone": "+1 321-254-5353",
        "smoking": "outside",
        "takeaway": "yes",
        "toilets:wheelchair": "yes",
        "website": "https://www.kekes.com/locations/kekes-west-melbourne"
      },
      "geometry": {
        "type": "Point",
        "coordinates": [
          -80.6460776,
          28.0779028
        ]
      },
      "id": "node/4293270689"
    },
    {
      "type": "Feature",
      "properties": {
        "@id": "node/5362620599",
        "addr:city": "Windermere",
        "addr:housenumber": "6526",
        "addr:postcode": "34786",
        "addr:state": "FL",
        "addr:street": "Old Brick Road",
        "amenity": "restaurant",
        "brand": "Keke's Breakfast Cafe",
        "brand:wikidata": "Q115930150",
        "cuisine": "breakfast",
        "name": "Keke's Breakfast Cafe",
        "wheelchair": "yes"
      },
      "geometry": {
        "type": "Point",
        "coordinates": [
          -81.5634577,
          28.4499497
        ]
      },
      "id": "node/5362620599"
    },
    {
      "type": "Feature",
      "properties": {
        "@id": "node/7995512579",
        "addr:city": "Tallahassee",
        "addr:country": "US",
        "addr:housenumber": "1861",
        "addr:state": "FL",
        "addr:street": "West Tennessee Street",
        "addr:unit": "270",
        "amenity": "restaurant",
        "brand": "Keke's Breakfast Cafe",
        "brand:wikidata": "Q115930150",
        "changing_table": "yes",
        "changing_table:count": "2",
        "changing_table:fee": "no",
        "changing_table:location": "male_toilet;female_toilet",
        "cuisine": "breakfast",
        "internet_access": "no",
        "name": "Keke's Breakfast Cafe",
        "outdoor_seating": "no",
        "smoking": "no",
        "takeaway": "yes",
        "toilets": "yes",
        "toilets:access": "customers",
        "toilets:wheelchair": "yes",
        "wheelchair": "yes"
      },
      "geometry": {
        "type": "Point",
        "coordinates": [
          -84.3142972,
          30.447953
        ]
      },
      "id": "node/7995512579"
    },
    {
      "type": "Feature",
      "properties": {
        "@id": "node/8908739002",
        "addr:city": "Fort Worth",
        "addr:housenumber": "3000",
        "addr:postcode": "76109",
        "addr:state": "TX",
        "addr:street": "South Hulen Street",
        "addr:unit": "110",
        "air_conditioning": "yes",
        "amenity": "restaurant",
        "brand": "Keke's Breakfast Cafe",
        "brand:wikidata": "Q115930150",
        "cuisine": "breakfast",
        "name": "Keke's Breakfast Cafe",
        "opening_hours": "Mo-Su 07:00-14:30",
        "website": "https://www.kekes.com/locations/kekes-fort-worth-trinity-commons"
      },
      "geometry": {
        "type": "Point",
        "coordinates": [
          -97.3903517,
          32.7052148
        ]
      },
      "id": "node/8908739002"
    },
    {
      "type": "Feature",
      "properties": {
        "@id": "node/11234646628",
        "amenity": "restaurant",
        "brand": "Keke's Breakfast Cafe",
        "brand:wikidata": "Q115930150",
        "cuisine": "breakfast",
        "name": "Keke's Breakfast Cafe"
      },
      "geometry": {
        "type": "Point",
        "coordinates": [
          -81.4899965,
          28.4544586
        ]
      },
      "id": "node/11234646628"
    },
    {
      "type": "Feature",
      "properties": {
        "@id": "node/12007697684",
        "addr:city": "Orlando",
        "addr:housenumber": "4192",
        "addr:postcode": "32839",
        "addr:state": "FL",
        "addr:street": "Conroy Road",
        "amenity": "restaurant",
        "brand": "Keke's Breakfast Cafe",
        "brand:wikidata": "Q115930150",
        "cuisine": "breakfast",
        "name": "Keke's Breakfast Cafe",
        "opening_hours": "Mo-Su 07:00-14:30",
        "phone": "+1-407-226-1400",
        "website": "https://kekes.com"
      },
      "geometry": {
        "type": "Point",
        "coordinates": [
          -81.4296071,
          28.4885291
        ]
      },
      "id": "node/12007697684"
    },
    {
      "type": "Feature",
      "properties": {
        "@id": "node/12425249654",
        "addr:city": "Boynton Beach",
        "addr:housenumber": "2206",
        "addr:postcode": "33426",
        "addr:state": "FL",
        "addr:street": "North Congress Avenue",
        "amenity": "restaurant",
        "brand": "Keke's Breakfast Cafe",
        "brand:wikidata": "Q115930150",
        "capacity": "185",
        "cuisine": "breakfast",
        "name": "Keke's Breakfast Cafe",
        "opening_hours": "07:00-14:30",
        "phone": "+1 561-877-6970",
        "website": "https://www.kekes.com/locations/kekes-boynton-beach"
      },
      "geometry": {
        "type": "Point",
        "coordinates": [
          -80.0898919,
          26.5469627
        ]
      },
      "id": "node/12425249654"
    },
    {
      "type": "Feature",
      "properties": {
        "@id": "node/12559428392",
        "addr:city": "Sunnyvale",
        "addr:housenumber": "311",
        "addr:postcode": "94086",
        "addr:state": "CA",
        "addr:street": "South Mathilda Avenue",
        "amenity": "restaurant",
        "brand": "Keke's Breakfast Cafe",
        "brand:wikidata": "Q115930150",
        "contact:facebook": "https://www.facebook.com/kekessunnyvale/",
        "cuisine": "breakfast",
        "name": "Keke's Breakfast Cafe",
        "opening_hours": "07:00-14:30; PH off",
        "phone": "+1 408-514-1136",
        "takeaway": "yes",
        "website": "https://www.kekes.com/locations/kekes-sunnyvale"
      },
      "geometry": {
        "type": "Point",
        "coordinates": [
          -122.035398,
          37.3749239
        ]
      },
      "id": "node/12559428392"
    },
    {
      "type": "Feature",
      "properties": {
        "@id": "node/12571886076",
        "amenity": "restaurant",
        "brand": "Keke's Breakfast Cafe",
        "brand:wikidata": "Q115930150",
        "cuisine": "breakfast",
        "name": "Keke's Breakfast Cafe"
      },
      "geometry": {
        "type": "Point",
        "coordinates": [
          -81.8266318,
          30.196849
        ]
      },
      "id": "node/12571886076"
    },
    {
      "type": "Feature",
      "properties": {
        "@id": "node/13098930982",
        "amenity": "restaurant",
        "brand": "Keke's Breakfast Cafe",
        "brand:wikidata": "Q115930150",
        "cuisine": "breakfast",
        "name": "Keke's Breakfast Cafe"
      },
      "geometry": {
        "type": "Point",
        "coordinates": [
          -97.3183244,
          32.9178697
        ]
      },
      "id": "node/13098930982"
    },
    {
      "type": "Feature",
      "properties": {
        "@id": "node/13483848906",
        "addr:city": "Sarasota",
        "addr:housenumber": "3456",
        "addr:postcode": "34231",
        "addr:state": "FL",
        "addr:street": "Clark Road",
        "amenity": "restaurant",
        "brand": "Keke's Breakfast Cafe",
        "brand:wikidata": "Q115930150",
        "cuisine": "breakfast",
        "name": "Keke's Breakfast Cafe",
        "opening_hours": "07:00-14:30",
        "phone": "+19414449487",
        "website": "https://www.kekes.com/locations/kekes-clark-road-siesta-key"
      },
      "geometry": {
        "type": "Point",
        "coordinates": [
          -82.5004864,
          27.2679227
        ]
      },
      "id": "node/13483848906"
    },
    {
      "type": "Feature",
      "properties": {
        "@id": "node/13716588002",
        "addr:city": "Gainesville",
        "addr:housenumber": "4062",
        "addr:postcode": "32608",
        "addr:state": "FL",
        "addr:street": "Plaza Boulevard",
        "addr:unit": "#10",
        "amenity": "restaurant",
        "brand": "Keke's Breakfast Cafe",
        "brand:wikidata": "Q115930150",
        "cuisine": "breakfast",
        "name": "Keke's Breakfast Cafe"
      },
      "geometry": {
        "type": "Point",
        "coordinates": [
          -82.3853622,
          29.6270676
        ]
      },
      "id": "node/13716588002"
    },
    {
      "type": "Feature",
      "properties": {
        "@id": "node/13790552067",
        "amenity": "restaurant",
        "brand": "Keke's Breakfast Cafe",
        "brand:wikidata": "Q115930150",
        "cuisine": "breakfast",
        "name": "Keke's Breakfast Cafe"
      },
      "geometry": {
        "type": "Point",
        "coordinates": [
          -82.5725528,
          27.4612993
        ]
      },
      "id": "node/13790552067"
    },
    {
      "type": "Feature",
      "properties": {
        "@id": "node/14014560642",
        "addr:city": "Plano",
        "addr:housenumber": "9613",
        "addr:postcode": "75024-7203",
        "addr:state": "TX",
        "addr:street": "Coit Road",
        "addr:unit": "101",
        "amenity": "restaurant",
        "brand": "Keke's Breakfast Cafe",
        "brand:wikidata": "Q115930150",
        "contact:facebook": "https://www.facebook.com/608062005725925",
        "cuisine": "breakfast",
        "name": "Keke's Breakfast Cafe",
        "phone": "+12143800172",
        "website": "https://www.kekes.com/locations/kekes-plano"
      },
      "geometry": {
        "type": "Point",
        "coordinates": [
          -96.7687832,
          33.1084495
        ]
      },
      "id": "node/14014560642"
    }
  ]
}