{
  "type": "FeatureCollection",
  "generator": "overpass-turbo",
  "copyright": "The data included in this document is from www.openstreetmap.org. The data is made available under ODbL.",
  "timestamp": "2026-09-25T04:33:35Z",
  "features": [
    {
      "type": "Feature",
      "properties": {
        "@id": "way/132842847",
        "amenity": "restaurant",
        "brand": "Metro Diner",
        "brand:wikidata": "Q104870732",
        "building": "yes",
        "check_date": "2025-11-27",
        "cuisine": "diner",
        "name": "Metro Diner",
        "takeaway": "yes",
        "@geometry": "center"
      },
      "geometry": {
        "type": "Point",
        "coordinates": [
          -80.0191821,
          32.8011089
        ]
      },
      "id": "way/132842847"
    },
    {
      "type": "Feature",
      "properties": {
        "@id": "way/334400560",
        "addr:city": "Huntersville",
        "addr:housenumber": "14211",
        "addr:postcode": "28078",
        "addr:state": "NC",
        "addr:street": "Reese Boulevard",
        "amenity": "restaurant",
        "brand": "Metro Diner",
        "brand:wikidata": "Q104870732",
        "building": "restaurant",
        "contact:facebook": "https://www.facebook.com/MetroDinerHuntersville/",
        "cuisine": "diner",
        "delivery": "yes",
        "internet_access": "wlan",
        "name": "Metro Diner",
        "opening_hours": "Mo-Su 08:00-20:00",
        "payment:cash": "yes",
        "payment:credit_cards": "yes",
        "payment:debit_cards": "yes",
        "phone": "+1-704-912-1566",
        "takeaway": "yes",
        "website": "https://metrodiner.com/locations/north-carolina/huntersville/",
        "website:menu": "https://metrodiner.com/menus/all/",
        "wheelchair": "yes",
        "@geometry": "center"
      },
      "geometry": {
        "type": "Point",
        "coordinates": [
          -80.863096,
          35.407552
        ]
      },
      "id": "way/334400560"
    },
    {
      "type": "Feature",
      "properties": {
        "@id": "way/339285564",
        "amenity": "restaurant",
        "brand": "Metro Diner",
        "brand:wikidata": "Q104870732",
        "building": "yes",
        "cuisine": "diner",
        "name": "Metro Diner",
        "@geometry": "center"
      },
      "geometry": {
        "type": "Point",
        "coordinates": [
          -82.0318206,
          28.9280032
        ]
      },
      "id": "way/339285564"
    },
    {
      "type": "Feature",
      "properties": {
        "@id": "way/586446104",
        "addr:city": "Augusta",
        "addr:housenumber": "2820",
        "addr:postcode": "30909",
        "addr:state": "GA",
        "addr:street": "Washington Road",
        "amenity": "restaurant",
        "brand": "Metro Diner",
        "brand:wikidata": "Q104870732",
        "building": "yes",
        "cuisine": "diner",
        "name": "Metro Diner",
        "phone": "+1-706-750-0520",
        "website": "https://metrodiner.com/locations/georgia/augusta/",
        "@geometry": "center"
      },
      "geometry": {
        "type": "Point",
        "coordinates": [
          -82.0319304,
          33.5100915
        ]
      },
      "id": "way/586446104"
    },
    {
      "type": "Feature",
      "properties": {
        "@id": "way/731983887",
        "addr:city": "Terre Haute",
        "addr:housenumber": "3451",
        "addr:postcode": "47802",
        "addr:state": "IN",
        "addr:street": "South 3rd Street",
        "air_conditioning": "yes",
        "amenity": "restaurant",
        "brand": "Metro Diner",
        "brand:wikidata": "Q104870732",
        "building": "retail",
        "cuisine": "diner",
        "name": "Metro Diner",
        "phone": "+1-812-420-5465",
        "toilets": "yes",
        "website": "https://metrodiner.com/locations/indiana/terre-haute/",
        "@geometry": "center"
      },
      "geometry": {
        "type": "Point",
        "coordinates": [
          -87.4164894,
          39.4257288
        ]
      },
      "id": "way/731983887"
    },
    {
      "type": "Feature",
      "properties": {
        "@id": "way/794603341",
        "addr:city": "Altamonte Springs",
        "addr:housenumber": "985",
        "addr:postcode": "32714",
        "addr:state": "FL",
        "addr:street": "N FL 434",
        "amenity": "restaurant",
        "brand": "Metro Diner",
        "brand:wikidata": "Q104870732",
        "building": "yes",
        "cuisine": "diner",
        "name": "Metro Diner",
        "opening_hours": "Mo-Su 08:00-20:00",
        "phone": "+1-407-917-8997",
        "takeaway": "yes",
        "website": "https://metrodiner.com/locations/florida/altamonte-springs/",
        "@geometry": "center"
      },
      "geometry": {
        "type": "Point",
        "coordinates": [
          -81.4184646,
          28.6831266
        ]
      },
      "id": "way/794603341"
    },
    {
      "type": "Feature",
      "properties": {
        "@id": "way/1007525865",
        "amenity": "restaurant",
        "brand": "Metro Diner",
        "brand:wikidata": "Q104870732",
        "building": "yes",
        "cuisine": "diner",
        "name": "Metro Diner",
        "@geometry": "center"
      },
      "geometry": {
        "type": "Point",
        "coordinates": [
          -85.4307696,
          31.2279878
        ]
      },
      "id": "way/1007525865"
    },
    {
      "type": "Feature",
      "properties": {
        "@id": "way/1029063190",
        "addr:city": "Athens",
        "addr:housenumber": "3075",
        "addr:postcode": "30606",
        "addr:street": "Atlanta Highway",
        "amenity": "restaurant",
        "branch": "Athens",
        "brand": "Metro Diner",
        "brand:wikidata": "Q104870732",
        "building": "retail",
        "cuisine": "diner",
        "name": "Metro Diner",
        "opening_hours": "Mo-Su 08:00-20:00",
        "phone": "+1-706-708-9243",
        "ref:athensclarkeaddress": "27208",
        "website": "https://metrodiner.com/locations/georgia/athens/",
        "@geometry": "center"
      },
      "geometry": {
        "type": "Point",
        "coordinates": [
          -83.4411848,
          33.9428766
        ]
      },
      "id": "way/1029063190"
    },
    {
      "type": "Feature",
      "properties": {
        "@id": "way/1115739288",
        "amenity": "restaurant",
        "brand": "Metro Diner",
        "brand:wikidata": "Q104870732",
        "building": "yes",
        "cuisine": "diner",
        "name": "Metro Diner",
        "@geometry": "center"
      },
      "geometry": {
        "type": "Point",
        "coordinates": [
          -82.4115541,
          27.0563078
        ]
      },
      "id": "way/1115739288"
    },
    {
      "type": "Feature",
      "properties": {
        "@id": "way/1442258159",
        "amenity": "restaurant",
        "brand": "Metro Diner",
        "brand:wikidata": "Q104870732",
        "building": "yes",
        "cuisine": "diner",
        "name": "Metro Diner",
        "@geometry": "center"
      },
      "geometry": {
        "type": "Point",
        "coordinates": [
          -81.3254263,
          29.8805442
        ]
      },
      "id": "way/1442258159"
    },
    {
      "type": "Feature",
      "properties": {
        "@id": "node/4371563736",
        "addr:city": "Sulphur Springs",
        "addr:state": "TX",
        "amenity": "restaurant",
        "brand": "Metro Diner",
        "brand:wikidata": "Q104870732",
        "cuisine": "diner",
        "name": "Metro Diner"
      },
      "geometry": {
        "type": "Point",
        "coordinates": [
          -95.5974275,
          33.1172127
        ]
      },
      "id": "node/4371563736"
    },
    {
      "type": "Feature",
      "properties": {
        "@id": "node/4588441789",
        "addr:city": "Fredericksburg",
        "addr:housenumber": "2068",
        "addr:state": "VA",
        "addr:street": "Plank Road",
        "amenity": "restaurant",
        "brand": "Metro Diner",
        "brand:wikidata": "Q104870732",
        "cuisine": "diner",
        "name": "Metro Diner",
        "source": "esri/Virginia_address",
        "website": "https://metrodiner.com"
      },
      "geometry": {
        "type": "Point",
        "coordinates": [
          -77.4958744,
          38.2955503
        ]
      },
      "id": "node/4588441789"
    },
    {
      "type": "Feature",
      "properties": {
        "@id": "node/6097035144",
        "amenity": "restaurant",
        "brand": "Metro Diner",
        "brand:wikidata": "Q104870732",
        "cuisine": "diner",
        "name": "Metro Diner"
      },
      "geometry": {
        "type": "Point",
        "coordinates": [
          -81.5546835,
          30.2180071
        ]
      },
      "id": "node/6097035144"
    },
    {
      "type": "Feature",
      "properties": {
        "@id": "node/6220653311",
        "addr:city": "Mechanicsburg",
        "addr:housenumber": "5600",
        "addr:postcode": "17050",
        "addr:state": "PA",
        "addr:street": "Carlisle Pike",
        "amenity": "restaurant",
        "brand": "Metro Diner",
        "brand:wikidata": "Q104870732",
        "check_date": "2026-02-25",
        "cuisine": "diner",
        "name": "Metro Diner",
        "opening_hours": "08:00-20:00",
        "phone": "+1 717-388-4823",
        "website": "https://metrodiner.com/locations/pennsylvania/mechanicsburg/"
      },
      "geometry": {
        "type": "Point",
        "coordinates": [
          -76.9877301,
          40.2411186
        ]
      },
      "id": "node/6220653311"
    },
    {
      "type": "Feature",
      "properties": {
        "@id": "node/6332054493",
        "amenity": "restaurant",
        "brand": "Metro Diner",
        "brand:wikidata": "Q104870732",
        "cuisine": "american",
        "name": "Metro Diner",
        "opening_hours": "Mo-Th 08:00-20:00; Fr 08:00-21:00; Sa 07:00-21:00; Su 07:00-20:00",
        "outdoor_seating": "yes",
        "phone": "+1 239 288 0057",
        "smoking": "no",
        "takeaway": "yes",
        "website": "https://metrodiner.com/locations/florida/cape-coral/",
        "wheelchair": "yes"
      },
      "geometry": {
        "type": "Point",
        "coordinates": [
          -81.9427165,
          26.5630313
        ]
      },
      "id": "node/6332054493"
    },
    {
      "type": "Feature",
      "properties": {
        "@id": "node/6582283470",
        "addr:city": "Suffolk",
        "addr:housenumber": "2051",
        "addr:postcode": "23435",
        "addr:state": "VA",
        "addr:street": "Sun Harbour Avenue",
        "addr:unit": "150",
        "amenity": "restaurant",
        "brand": "Metro Diner",
        "brand:wikidata": "Q104870732",
        "cuisine": "diner",
        "name": "Metro Diner",
        "phone": "+1-757-785-4574",
        "source": "esri/USA_NAD_Addresses"
      },
      "geometry": {
        "type": "Point",
        "coordinates": [
          -76.4402969,
          36.8720427
        ]
      },
      "id": "node/6582283470"
    },
    {
      "type": "Feature",
      "properties": {
        "@id": "node/6701110822",
        "addr:city": "Daytona Beach",
        "addr:housenumber": "1702",
        "addr:postcode": "32114",
        "addr:state": "FL",
        "addr:street": "International Speedway Boulevard",
        "addr:unit": "640",
        "amenity": "restaurant",
        "brand": "Metro Diner",
        "brand:wikidata": "Q104870732",
        "cuisine": "diner",
        "internet_access": "yes",
        "internet_access:fee": "customers",
        "name": "Metro Diner",
        "opening_hours": "Mo-Su 08:00-20:00",
        "phone": "+1 386 256 1831",
        "website": "https://metrodiner.com/locations/florida/daytona-beach/"
      },
      "geometry": {
        "type": "Point",
        "coordinates": [
          -81.0609148,
          29.1960779
        ]
      },
      "id": "node/6701110822"
    },
    {
      "type": "Feature",
      "properties": {
        "@id": "node/7409158325",
        "amenity": "restaurant",
        "brand": "Metro Diner",
        "brand:wikidata": "Q104870732",
        "cuisine": "diner",
        "name": "Metro Diner"
      },
      "geometry": {
        "type": "Point",
        "coordinates": [
          -78.622612,
          35.8701884
        ]
      },
      "id": "node/7409158325"
    },
    {
      "type": "Feature",
      "properties": {
        "@id": "node/8554618375",
        "amenity": "restaurant",
        "brand": "Metro Diner",
        "brand:wikidata": "Q104870732",
        "cuisine": "diner",
        "name": "Metro Diner"
      },
      "geometry": {
        "type": "Point",
        "coordinates": [
          -81.2184736,
          28.5971005
        ]
      },
      "id": "node/8554618375"
    },
    {
      "type": "Feature",
      "properties": {
        "@id": "node/8649336208",
        "addr:city": "Jacksonville Beach",
        "addr:housenumber": "1534",
        "addr:postcode": "32250",
        "addr:state": "FL",
        "addr:street": "3rd Street North",
        "amenity": "restaurant",
        "brand": "Metro Diner",
        "brand:wikidata": "Q104870732",
        "cuisine": "diner",
        "facebook": "https://www.facebook.com/MetroDinerJaxBeach/",
        "name": "Metro Diner",
        "phone": "+1-904-853-6817",
        "twitter": "@metrodiner",
        "website": "https://metrodiner.com/locations/florida/jacksonville-beach/"
      },
      "geometry": {
        "type": "Point",
        "coordinates": [
          -81.3953121,
          30.302793
        ]
      },
      "id": "node/8649336208"
    },
    {
      "type": "Feature",
      "properties": {
        "@id": "node/8903535147",
        "addr:city": "Granger",
        "addr:housenumber": "423",
        "addr:postcode": "46530",
        "addr:state": "IN",
        "addr:street": "East University Drive",
        "amenity": "restaurant",
        "brand": "Metro Diner",
        "brand:wikidata": "Q104870732",
        "cuisine": "diner",
        "name": "Metro Diner"
      },
      "geometry": {
        "type": "Point",
        "coordinates": [
          -86.1740475,
          41.7193927
        ]
      },
      "id": "node/8903535147"
    },
    {
      "type": "Feature",
      "properties": {
        "@id": "node/9584149329",
        "addr:city": "Tampa",
        "addr:housenumber": "4011",
        "addr:postcode": "33609",
        "addr:state": "FL",
        "addr:street": "West Kennedy Boulevard",
        "amenity": "restaurant",
        "brand": "Metro Diner",
        "brand:wikidata": "Q104870732",
        "cuisine": "diner",
        "facebook": "https://facebook.com/metrodinersouthtampa",
        "name": "Metro Diner",
        "phone": "+1-813-364-0076",
        "twitter": "@metrodiner",
        "website": "https://metrodiner.com/locations/florida/south-tampa/"
      },
      "geometry": {
        "type": "Point",
        "coordinates": [
          -82.5102612,
          27.945196
        ]
      },
      "id": "node/9584149329"
    },
    {
      "type": "Feature",
      "properties": {
        "@id": "node/9918197099",
        "addr:city": "Aiken",
        "addr:country": "US",
        "addr:housenumber": "1944",
        "addr:postcode": "29803",
        "addr:state": "SC",
        "addr:street": "Whiskey Road",
        "addr:unit": "101",
        "amenity": "restaurant",
        "brand": "Metro Diner",
        "brand:wikidata": "Q104870732",
        "cuisine": "diner",
        "name": "Metro Diner",
        "website": "https://metrodiner.com/locations/south-carolina/aiken/"
      },
      "geometry": {
        "type": "Point",
        "coordinates": [
          -81.7178562,
          33.5215236
        ]
      },
      "id": "node/9918197099"
    },
    {
      "type": "Feature",
      "properties": {
        "@id": "node/11234175552",
        "amenity": "restaurant",
        "brand": "Metro Diner",
        "brand:wikidata": "Q104870732",
        "cuisine": "diner",
        "name": "Metro Diner"
      },
      "geometry": {
        "type": "Point",
        "coordinates": [
          -86.4328616,
          35.859403
        ]
      },
      "id": "node/11234175552"
    },
    {
      "type": "Feature",
      "properties": {
        "@id": "node/11408064058",
        "addr:city": "Indianapolis",
        "addr:housenumber": "7225",
        "addr:postcode": "46227",
        "addr:state": "IN",
        "addr:street": "US 31 S",
        "addr:unit": "A06",
        "amenity": "restaurant",
        "brand": "Metro Diner",
        "brand:wikidata": "Q104870732",
        "cuisine": "diner",
        "name": "Metro Diner",
        "opening_hours": "Mo-Su 08:00-20:00",
        "phone": "+1-317-285-0149",
        "website": "https://metrodiner.com/menus/all"
      },
      "geometry": {
        "type": "Point",
        "coordinates": [
          -86.1438668,
          39.6606005
        ]
      },
      "id": "node/11408064058"
    },
    {
      "type": "Feature",
      "properties": {
        "@id": "node/11415438890",
        "amenity": "restaurant",
        "brand": "Metro Diner",
        "brand:wikidata": "Q104870732",
        "cuisine": "diner",
        "name": "Metro Diner"
      },
      "geometry": {
        "type": "Point",
        "coordinates": [
          -86.3812657,
          39.7123042
        ]
      },
      "id": "node/11415438890"
    },
    {
      "type": "Feature",
      "properties": {
        "@id": "node/12121527282",
        "addr:city": "Huntsville",
        "addr:housenumber": "975",
        "addr:postcode": "35802",
        "addr:state": "AL",
        "addr:street": "Airport Road Southwest",
        "addr:unit": "O",
        "amenity": "restaurant",
        "brand": "Metro Diner",
        "brand:wikidata": "Q104870732",
        "cuisine": "diner",
        "name": "Metro Diner",
        "opening_hours": "Mo-Su 07:00-20:00",
        "phone": "+1-256-333-4974",
        "website": "https://metrodiner.com/locations/alabama/huntsville-airport/"
      },
      "geometry": {
        "type": "Point",
        "coordinates": [
          -86.5776951,
          34.690023
        ]
      },
      "id": "node/12121527282"
    },
    {
      "type": "Feature",
      "properties": {
        "@id": "node/12190257098",
        "addr:city": "Chesapeake",
        "addr:housenumber": "1124",
        "addr:postcode": "23320",
        "addr:state": "VA",
        "addr:street": "Volvo Parkway",
        "amenity": "restaurant",
        "brand": "Metro Diner",
        "brand:wikidata": "Q104870732",
        "cuisine": "diner",
        "name": "Metro Diner",
        "source": "microsoft/BuildingFootprints;esri/USA_NAD_Addresses",
        "website": "https://metrodiner.com/locations/virginia/chesapeake/"
      },
      "geometry": {
        "type": "Point",
        "coordinates": [
          -76.2206776,
          36.7697728
        ]
      },
      "id": "node/12190257098"
    },
    {
      "type": "Feature",
      "properties": {
        "@id": "node/12745627565",
        "amenity": "restaurant",
        "brand": "Metro Diner",
        "brand:wikidata": "Q104870732",
        "cuisine": "diner",
        "name": "Metro Diner"
      },
      "geometry": {
        "type": "Point",
        "coordinates": [
          -86.0988711,
          39.9094634
        ]
      },
      "id": "node/12745627565"
    }
  ]
}