{
  "type": "FeatureCollection",
  "generator": "overpass-turbo",
  "copyright": "The data included in this document is from www.openstreetmap.org. The data is made available under ODbL.",
  "timestamp": "2026-09-26T05:31:21Z",
  "features": [
    {
      "type": "Feature",
      "properties": {
        "@id": "way/26742686",
        "air_conditioning": "yes",
        "amenity": "fast_food",
        "baby_feeding": "no",
        "brand": "Portillo's",
        "brand:wikidata": "Q3399307",
        "building": "yes",
        "changing_table": "yes",
        "changing_table:fee": "no",
        "changing_table:location": "male_toilet;female_toilet",
        "check_date": "2023-08-24",
        "cuisine": "hot_dog;burger",
        "drive_through": "yes",
        "fixme": "approximation based on survey",
        "highchair": "2",
        "indoor_seating": "yes",
        "internet_access": "wlan",
        "internet_access:fee": "no",
        "name": "Portillo's",
        "opening_hours": "Mo-Th,Su 10:00-22:30; Fr-Sa 10:00-23:00",
        "outdoor_seating": "yes",
        "payment:cash": "yes",
        "payment:credit_cards": "yes",
        "payment:visa": "yes",
        "smoking": "no",
        "takeaway": "yes",
        "toilets": "yes",
        "toilets:access": "permissive",
        "toilets:wheelchair": "yes",
        "wheelchair": "yes",
        "@geometry": "center"
      },
      "geometry": {
        "type": "Point",
        "coordinates": [
          -89.5046134,
          43.05457
        ]
      },
      "id": "way/26742686"
    },
    {
      "type": "Feature",
      "properties": {
        "@id": "way/38273870",
        "addr:city": "Niles",
        "addr:housenumber": "8832",
        "addr:postcode": "60714",
        "addr:state": "IL",
        "addr:street": "West Dempster Street",
        "amenity": "fast_food",
        "brand": "Portillo's",
        "brand:wikidata": "Q3399307",
        "building": "retail",
        "cuisine": "hot_dog;burger",
        "drive_through": "yes",
        "name": "Portillo's",
        "takeaway": "yes",
        "@geometry": "center"
      },
      "geometry": {
        "type": "Point",
        "coordinates": [
          -87.8463593,
          42.0402914
        ]
      },
      "id": "way/38273870"
    },
    {
      "type": "Feature",
      "properties": {
        "@id": "way/66393866",
        "addr:city": "Buena Park",
        "addr:housenumber": "8390",
        "addr:postcode": "90620",
        "addr:state": "CA",
        "addr:street": "La Palma Avenue",
        "amenity": "fast_food",
        "brand": "Portillo's",
        "brand:wikidata": "Q3399307",
        "building": "retail",
        "cuisine": "hot_dog;burger",
        "drive_through": "yes",
        "name": "Portillo's",
        "takeaway": "yes",
        "@geometry": "center"
      },
      "geometry": {
        "type": "Point",
        "coordinates": [
          -117.9871609,
          33.846396
        ]
      },
      "id": "way/66393866"
    },
    {
      "type": "Feature",
      "properties": {
        "@id": "way/98738603",
        "addr:city": "Rolling Meadows",
        "addr:housenumber": "1900",
        "addr:postcode": "60008",
        "addr:state": "IL",
        "addr:street": "Golf Road",
        "amenity": "fast_food",
        "brand": "Portillo's",
        "brand:wikidata": "Q3399307",
        "building": "retail",
        "cuisine": "hot_dog;burger",
        "drive_through": "yes",
        "name": "Portillo's",
        "source:name": "local_knowledge",
        "takeaway": "yes",
        "@geometry": "center"
      },
      "geometry": {
        "type": "Point",
        "coordinates": [
          -88.0035965,
          42.0517738
        ]
      },
      "id": "way/98738603"
    },
    {
      "type": "Feature",
      "properties": {
        "@id": "way/123650589",
        "addr:city": "Naperville",
        "addr:country": "US",
        "addr:county": "DuPage, IL",
        "addr:housenumber": "1992",
        "addr:postcode": "60540",
        "addr:state": "IL",
        "addr:street": "West Jefferson Avenue",
        "amenity": "fast_food",
        "brand": "Portillo's",
        "brand:wikidata": "Q3399307",
        "building": "retail",
        "check_date": "2023-10-12",
        "cuisine": "hot_dog;burger",
        "diet:vegan": "yes",
        "diet:vegetarian": "yes",
        "name": "Portillo's",
        "napervillegis:objectid": "212475",
        "opening_hours": "Mo-Su 10:30-23:00",
        "phone": "+1 630 420 7156",
        "takeaway": "yes",
        "website": "https://www.portillos.com/locations/naperville-jefferson/",
        "@geometry": "center"
      },
      "geometry": {
        "type": "Point",
        "coordinates": [
          -88.2051167,
          41.7699252
        ]
      },
      "id": "way/123650589"
    },
    {
      "type": "Feature",
      "properties": {
        "@id": "way/146537039",
        "addr:city": "Arlington Heights",
        "addr:country": "US",
        "addr:county": "Cook, IL",
        "addr:housenumber": "806",
        "addr:postcode": "60004",
        "addr:state": "IL",
        "addr:street": "West Dundee Road",
        "amenity": "fast_food",
        "brand": "Portillo's",
        "brand:wikidata": "Q3399307",
        "building": "retail",
        "cuisine": "hot_dog;burger",
        "name": "Portillo's",
        "opening_hours": "Su-Th 10:30-23:30; Fr,Sa 10:30-24:00",
        "phone": "+1 847 870 0870",
        "source": "local_knowledge",
        "takeaway": "yes",
        "website": "https://www.portillos.com/locations/arlington-heights/",
        "@geometry": "center"
      },
      "geometry": {
        "type": "Point",
        "coordinates": [
          -87.9919623,
          42.1394432
        ]
      },
      "id": "way/146537039"
    },
    {
      "type": "Feature",
      "properties": {
        "@id": "way/153521429",
        "addr:city": "Downers Grove",
        "addr:country": "US",
        "addr:county": "DuPage, IL",
        "addr:housenumber": "1500",
        "addr:postcode": "60515",
        "addr:state": "IL",
        "addr:street": "Butterfield Road",
        "amenity": "fast_food",
        "brand": "Portillo's",
        "brand:wikidata": "Q3399307",
        "building": "retail",
        "cuisine": "hot_dog;burger",
        "drive_through": "yes",
        "name": "Portillo's",
        "opening_hours": "Mo-Su 10:30-22:00",
        "phone": "+1-630-495-9033",
        "takeaway": "yes",
        "website": "https://www.portillos.com/locations/downers-grove/",
        "@geometry": "center"
      },
      "geometry": {
        "type": "Point",
        "coordinates": [
          -88.0225423,
          41.8343637
        ]
      },
      "id": "way/153521429"
    },
    {
      "type": "Feature",
      "properties": {
        "@id": "way/156541170",
        "addr:city": "Glendale",
        "addr:country": "US",
        "addr:housenumber": "17125",
        "addr:postcode": "85308",
        "addr:state": "AZ",
        "addr:street": "North 79th Avenue",
        "air_conditioning": "yes",
        "amenity": "fast_food",
        "brand": "Portillo's",
        "brand:wikidata": "Q3399307",
        "building": "yes",
        "cuisine": "hot_dog;burger",
        "name": "Portillo's",
        "source": "esri/USA_NAD_Addresses",
        "takeaway": "yes",
        "@geometry": "center"
      },
      "geometry": {
        "type": "Point",
        "coordinates": [
          -112.228817,
          33.639785
        ]
      },
      "id": "way/156541170"
    },
    {
      "type": "Feature",
      "properties": {
        "@id": "way/172840264",
        "addr:city": "Batavia",
        "addr:country": "US",
        "addr:county": "Kane, IL",
        "addr:housenumber": "531",
        "addr:postcode": "60510",
        "addr:state": "IL",
        "addr:street": "North Randall Road",
        "amenity": "fast_food",
        "brand": "Portillo's",
        "brand:wikidata": "Q3399307",
        "building": "retail",
        "cuisine": "hot_dog;burger",
        "drive_through": "yes",
        "name": "Portillo's",
        "opening_hours": "Mo-Su 10:30-22:00",
        "phone": "+1 630 482 9600",
        "takeaway": "yes",
        "website": "https://www.portillos.com/locations/batavia/",
        "@geometry": "center"
      },
      "geometry": {
        "type": "Point",
        "coordinates": [
          -88.3413913,
          41.8607953
        ]
      },
      "id": "way/172840264"
    },
    {
      "type": "Feature",
      "properties": {
        "@id": "way/175517734",
        "amenity": "fast_food",
        "brand": "Portillo's",
        "brand:wikidata": "Q3399307",
        "building": "retail",
        "cuisine": "hot_dog;burger",
        "drive_through": "yes",
        "name": "Portillo's",
        "takeaway": "yes",
        "@geometry": "center"
      },
      "geometry": {
        "type": "Point",
        "coordinates": [
          -88.2630616,
          41.9205472
        ]
      },
      "id": "way/175517734"
    },
    {
      "type": "Feature",
      "properties": {
        "@id": "way/185734536",
        "addr:city": "Forest Park",
        "addr:country": "US",
        "addr:county": "Cook, IL",
        "addr:housenumber": "7740",
        "addr:postcode": "60130",
        "addr:state": "IL",
        "addr:street": "Roosevelt Road",
        "amenity": "fast_food",
        "brand": "Portillo's",
        "brand:wikidata": "Q3399307",
        "building": "retail",
        "cuisine": "hot_dog;burger",
        "drive_through": "yes",
        "name": "Portillo's",
        "opening_hours": "Mo-Su 10:30-24:00",
        "phone": "+1 708 383 7557",
        "source": "Bing",
        "takeaway": "yes",
        "website": "https://www.portillos.com/locations/forest-park/",
        "@geometry": "center"
      },
      "geometry": {
        "type": "Point",
        "coordinates": [
          -87.8184605,
          41.8643903
        ]
      },
      "id": "way/185734536"
    },
    {
      "type": "Feature",
      "properties": {
        "@id": "way/203872220",
        "addr:city": "Oswego",
        "addr:housenumber": "2810",
        "addr:postcode": "60543",
        "addr:state": "IL",
        "addr:street": "Route 34",
        "amenity": "fast_food",
        "brand": "Portillo's",
        "brand:wikidata": "Q3399307",
        "building": "retail",
        "cuisine": "hot_dog;burger",
        "drive_through": "yes",
        "name": "Portillo's",
        "opening_hours": "Mo-Su 10:00-24:00",
        "phone": "+1 630 554 1000",
        "source": "Bing",
        "source:addr": "Kendall County",
        "takeaway": "yes",
        "website": "https://www.portillos.com/locations/sswego/",
        "@geometry": "center"
      },
      "geometry": {
        "type": "Point",
        "coordinates": [
          -88.3165202,
          41.6986722
        ]
      },
      "id": "way/203872220"
    },
    {
      "type": "Feature",
      "properties": {
        "@id": "way/210680488",
        "addr:city": "Chicago",
        "addr:housenumber": "100",
        "addr:postcode": "60654",
        "addr:state": "IL",
        "addr:street": "West Ontario Street",
        "addr:street:name": "Ontario",
        "addr:street:prefix": "West",
        "addr:street:type": "Street",
        "amenity": "fast_food",
        "brand": "Portillo's",
        "brand:wikidata": "Q3399307",
        "building": "retail",
        "building:levels": "1",
        "check_date": "2025-09-08",
        "cuisine": "hot_dog;burger",
        "drive_through": "yes",
        "name": "Portillo's",
        "opening_hours": "Mo-Su 10:00-24:00",
        "payment:cash": "yes",
        "payment:credit_cards": "yes",
        "payment:debit_cards": "yes",
        "phone": "+1-312-587-8910",
        "takeaway": "yes",
        "website": "https://www.portillos.com/locations/chicago/",
        "wheelchair": "yes",
        "@geometry": "center"
      },
      "geometry": {
        "type": "Point",
        "coordinates": [
          -87.6315092,
          41.8934763
        ]
      },
      "id": "way/210680488"
    },
    {
      "type": "Feature",
      "properties": {
        "@id": "way/229953689",
        "addr:city": "Addison",
        "addr:housenumber": "100",
        "addr:postcode": "60101",
        "addr:state": "IL",
        "addr:street": "West Lake Street",
        "amenity": "fast_food",
        "brand": "Portillo's",
        "brand:wikidata": "Q3399307",
        "building": "retail",
        "cuisine": "hot_dog;burger",
        "drive_through": "yes",
        "name": "Portillo's",
        "takeaway": "yes",
        "@geometry": "center"
      },
      "geometry": {
        "type": "Point",
        "coordinates": [
          -87.991496,
          41.9336787
        ]
      },
      "id": "way/229953689"
    },
    {
      "type": "Feature",
      "properties": {
        "@id": "way/235912273",
        "addr:city": "Oak Lawn",
        "addr:country": "US",
        "addr:county": "Cook, IL",
        "addr:housenumber": "4020",
        "addr:postcode": "60453",
        "addr:state": "IL",
        "addr:street": "West 95th Street",
        "amenity": "fast_food",
        "brand": "Portillo's",
        "brand:wikidata": "Q3399307",
        "building": "retail",
        "cuisine": "hot_dog;burger",
        "drive_through": "yes",
        "name": "Portillo's",
        "opening_hours": "Mo-Su 10:30-24:00",
        "phone": "+1 708 425 1600",
        "takeaway": "yes",
        "website": "https://www.portillos.com/locations/oak-lawn/",
        "@geometry": "center"
      },
      "geometry": {
        "type": "Point",
        "coordinates": [
          -87.7232051,
          41.7208167
        ]
      },
      "id": "way/235912273"
    },
    {
      "type": "Feature",
      "properties": {
        "@id": "way/236327525",
        "addr:city": "Champaign",
        "addr:country": "US",
        "addr:county": "Champaign, IL",
        "addr:housenumber": "2306",
        "addr:postcode": "61822",
        "addr:state": "IL",
        "addr:street": "North Prospect Avenue",
        "amenity": "fast_food",
        "branch": "Champaign",
        "brand": "Portillo's",
        "brand:wikidata": "Q3399307",
        "buffet": "yes",
        "building": "retail",
        "building:levels": "1",
        "check_date": "2026-06-08",
        "cuisine": "hot_dog;burger",
        "delivery": "yes",
        "diet:vegan": "yes",
        "diet:vegetarian": "yes",
        "drive_through": "yes",
        "layer": "1",
        "name": "Portillo's",
        "opening_hours": "Su-Th 10:00-22:30; Fr,Sa 10:00-23:00",
        "phone": "+1-217-207-9000",
        "takeaway": "yes",
        "website": "https://locations.portillos.com/champaign",
        "website:menu": "https://www.portillos.com/menu/restaurant/",
        "@geometry": "center"
      },
      "geometry": {
        "type": "Point",
        "coordinates": [
          -88.2570884,
          40.1440754
        ]
      },
      "id": "way/236327525"
    },
    {
      "type": "Feature",
      "properties": {
        "@id": "way/239132640",
        "addr:city": "Schaumburg",
        "addr:country": "US",
        "addr:housenumber": "611",
        "addr:postcode": "60173",
        "addr:state": "IL",
        "addr:street": "East Golf Road",
        "amenity": "fast_food",
        "brand": "Portillo's",
        "brand:wikidata": "Q3399307",
        "building": "retail",
        "cuisine": "hot_dog;burger",
        "drive_through": "yes",
        "name": "Portillo's",
        "source": "Bing 2012",
        "takeaway": "yes",
        "@geometry": "center"
      },
      "geometry": {
        "type": "Point",
        "coordinates": [
          -88.0635286,
          42.0493841
        ]
      },
      "id": "way/239132640"
    },
    {
      "type": "Feature",
      "properties": {
        "@id": "way/241097212",
        "addr:city": "Tucson",
        "addr:housenumber": "3761",
        "addr:postcode": "85716",
        "addr:state": "AZ",
        "addr:street": "East Broadway Boulevard",
        "amenity": "fast_food",
        "brand": "Portillo's",
        "brand:wikidata": "Q3399307",
        "building": "yes",
        "building:facade:colour": "brown",
        "contact:facebook": "https://www.facebook.com/portillostucson/",
        "cuisine": "hot_dog;burger",
        "drive_through": "yes",
        "name": "Portillo's",
        "old_name": "Claim Jumper",
        "opening_hours": "Mo-Th,Su 10:00-22:15; Fr,Sa 10:00-22:45",
        "phone": "+1 520-246-2300",
        "source": "http://www.claimjumper.com/locations.aspx",
        "takeaway": "yes",
        "website": "https://order.portillos.com/menu/portillos-tucson",
        "website:menu": "https://order.portillos.com/menu/portillos-tucson",
        "@geometry": "center"
      },
      "geometry": {
        "type": "Point",
        "coordinates": [
          -110.9130162,
          32.2220744
        ]
      },
      "id": "way/241097212"
    },
    {
      "type": "Feature",
      "properties": {
        "@id": "way/282577565",
        "addr:city": "Summit",
        "addr:country": "US",
        "addr:county": "Cook, IL",
        "addr:housenumber": "5532",
        "addr:postcode": "60501",
        "addr:state": "IL",
        "addr:street": "South Harlem Avenue",
        "amenity": "fast_food",
        "branch": "Summit",
        "brand": "Portillo's",
        "brand:wikidata": "Q3399307",
        "building": "retail",
        "cuisine": "hot_dog;burger",
        "drive_through": "yes",
        "name": "Portillo's",
        "opening_hours": "Mo-Su 10:30-24:00",
        "phone": "+1 708 458 7000",
        "takeaway": "yes",
        "website": "https://www.portillos.com/locations/summit/",
        "@geometry": "center"
      },
      "geometry": {
        "type": "Point",
        "coordinates": [
          -87.8018706,
          41.7908359
        ]
      },
      "id": "way/282577565"
    },
    {
      "type": "Feature",
      "properties": {
        "@id": "way/292642449",
        "addr:city": "Naperville",
        "addr:country": "US",
        "addr:county": "DuPage, IL",
        "addr:housenumber": "950",
        "addr:postcode": "60563",
        "addr:state": "IL",
        "addr:street": "East Ogden Avenue",
        "amenity": "fast_food",
        "brand": "Portillo's",
        "brand:wikidata": "Q3399307",
        "building": "retail",
        "check_date": "2024-02-11",
        "cuisine": "hot_dog;burger",
        "drive_through": "yes",
        "name": "Portillo's",
        "napervillegis:loc_id": "25660",
        "napervillegis:prop_id": "18699",
        "opening_hours": "Mo-Su 10:30-22:00",
        "phone": "+1 630 961 1151",
        "takeaway": "yes",
        "website": "https://www.portillos.com/locations/naperville-ogden/",
        "@geometry": "center"
      },
      "geometry": {
        "type": "Point",
        "coordinates": [
          -88.1320961,
          41.789084
        ]
      },
      "id": "way/292642449"
    },
    {
      "type": "Feature",
      "properties": {
        "@id": "way/293133847",
        "addr:city": "Kennesaw",
        "addr:housenumber": "790",
        "addr:postcode": "30144",
        "addr:state": "GA",
        "addr:street": "Cobb Place Boulevard Northwest",
        "amenity": "fast_food",
        "brand": "Portillo's",
        "brand:wikidata": "Q3399307",
        "building": "yes",
        "cuisine": "hot_dog;burger",
        "drive_through": "yes",
        "name": "Portillo's",
        "opening_hours": "Su-Th 10:00-23:30; Fr-Sa 10:00-24:00",
        "opening_hours:drive_through": "Su-Th 10:00-23:30; Fr-Sa 10:00-24:00",
        "phone": "+1-762-533-5040",
        "takeaway": "yes",
        "website": "https://locations.portillos.com/portillos-kennesaw",
        "@geometry": "center"
      },
      "geometry": {
        "type": "Point",
        "coordinates": [
          -84.5701423,
          34.0078514
        ]
      },
      "id": "way/293133847"
    },
    {
      "type": "Feature",
      "properties": {
        "@id": "way/314064791",
        "addr:city": "Vernon Hills",
        "addr:country": "US",
        "addr:county": "Lake, IL",
        "addr:housenumber": "221",
        "addr:postcode": "60061",
        "addr:state": "IL",
        "addr:street": "Townline Road",
        "amenity": "fast_food",
        "brand": "Portillo's",
        "brand:wikidata": "Q3399307",
        "building": "retail",
        "building:levels": "2",
        "cuisine": "hot_dog;burger",
        "name": "Portillo's",
        "opening_hours": "Mo-Su 10:30-22:00",
        "phone": "+1 847-367-7290",
        "takeaway": "yes",
        "website": "https://www.portillos.com/locations/vernon-hills/",
        "@geometry": "center"
      },
      "geometry": {
        "type": "Point",
        "coordinates": [
          -87.9590724,
          42.2399296
        ]
      },
      "id": "way/314064791"
    },
    {
      "type": "Feature",
      "properties": {
        "@id": "way/324370758",
        "addr:city": "Skokie",
        "addr:housenumber": "9400",
        "addr:postcode": "60077",
        "addr:street": "Skokie Boulevard",
        "amenity": "fast_food",
        "brand": "Portillo's",
        "brand:wikidata": "Q3399307",
        "building": "yes",
        "cuisine": "hot_dog;burger",
        "drive_through": "yes",
        "name": "Portillo's",
        "phone": "+1-847-933-0700",
        "smoking": "no",
        "takeaway": "yes",
        "website": "https://www.portillos.com/locations/skokie/",
        "@geometry": "center"
      },
      "geometry": {
        "type": "Point",
        "coordinates": [
          -87.7474056,
          42.051922
        ]
      },
      "id": "way/324370758"
    },
    {
      "type": "Feature",
      "properties": {
        "@id": "way/367444818",
        "amenity": "fast_food",
        "brand": "Portillo's",
        "brand:wikidata": "Q3399307",
        "building": "retail",
        "cuisine": "hot_dog;burger",
        "drive_through": "yes",
        "name": "Portillo's",
        "takeaway": "yes",
        "@geometry": "center"
      },
      "geometry": {
        "type": "Point",
        "coordinates": [
          -88.0765263,
          41.9572175
        ]
      },
      "id": "way/367444818"
    },
    {
      "type": "Feature",
      "properties": {
        "@id": "way/368854855",
        "addr:city": "Bolingbrook",
        "addr:country": "US",
        "addr:county": "Will, IL",
        "addr:housenumber": "134",
        "addr:postcode": "60440",
        "addr:state": "IL",
        "addr:street": "East Boughton Road",
        "amenity": "fast_food",
        "brand": "Portillo's",
        "brand:wikidata": "Q3399307",
        "building": "retail",
        "cuisine": "hot_dog;burger",
        "drive_through": "yes",
        "name": "Portillo's",
        "opening_hours": "Mo-Su 10:30-22:30",
        "phone": "+1 630 759 3735",
        "takeaway": "yes",
        "website": "https://www.portillos.com/locations/bolingbrook/",
        "@geometry": "center"
      },
      "geometry": {
        "type": "Point",
        "coordinates": [
          -88.0671472,
          41.7118516
        ]
      },
      "id": "way/368854855"
    },
    {
      "type": "Feature",
      "properties": {
        "@id": "way/373162473",
        "addr:city": "Scottsdale",
        "addr:country": "US",
        "addr:county": "Maricopa, AZ",
        "addr:housenumber": "10574",
        "addr:postcode": "85258",
        "addr:state": "AZ",
        "addr:street": "North 90th Street",
        "air_conditioning": "yes",
        "amenity": "fast_food",
        "brand": "Portillo's",
        "brand:wikidata": "Q3399307",
        "building": "yes",
        "cuisine": "hot_dog;burger",
        "drive_through": "yes",
        "name": "Portillo's",
        "opening_hours": "Mo-Su 10:00-22:00",
        "outdoor_seating": "yes",
        "phone": "+1-480-451-2888",
        "takeaway": "yes",
        "website": "https://www.portillos.com/locations/scottsdale/",
        "@geometry": "center"
      },
      "geometry": {
        "type": "Point",
        "coordinates": [
          -111.8885621,
          33.5816974
        ]
      },
      "id": "way/373162473"
    },
    {
      "type": "Feature",
      "properties": {
        "@id": "way/395480491",
        "addr:city": "Tempe",
        "addr:country": "US",
        "addr:county": "Maricopa, AZ",
        "addr:housenumber": "65",
        "addr:postcode": "85281",
        "addr:state": "AZ",
        "addr:street": "South McClintock Drive",
        "air_conditioning": "yes",
        "amenity": "fast_food",
        "brand": "Portillo's",
        "brand:wikidata": "Q3399307",
        "building": "yes",
        "check_date": "2026-03-01",
        "cuisine": "hot_dog;burger",
        "diet:vegan": "yes",
        "diet:vegetarian": "yes",
        "drive_through": "yes",
        "level": "0",
        "name": "Portillo's",
        "opening_hours": "Mo-Su 10:00-22:00",
        "outdoor_seating": "yes",
        "phone": "+1 480 967 7988",
        "takeaway": "yes",
        "toilets": "yes",
        "website": "https://www.portillos.com/locations/tempe/",
        "wheelchair": "yes",
        "@geometry": "center"
      },
      "geometry": {
        "type": "Point",
        "coordinates": [
          -111.9086585,
          33.4297862
        ]
      },
      "id": "way/395480491"
    },
    {
      "type": "Feature",
      "properties": {
        "@id": "way/402523094",
        "addr:city": "Elk Grove Village",
        "addr:housenumber": "1500",
        "addr:postcode": "60007",
        "addr:state": "IL",
        "addr:street": "Busse Road",
        "amenity": "fast_food",
        "brand": "Portillo's",
        "brand:wikidata": "Q3399307",
        "building": "retail",
        "building:levels": "2",
        "cuisine": "hot_dog;burger",
        "drive_through": "yes",
        "name": "Portillo's",
        "takeaway": "yes",
        "@geometry": "center"
      },
      "geometry": {
        "type": "Point",
        "coordinates": [
          -87.960187,
          42.0036075
        ]
      },
      "id": "way/402523094"
    },
    {
      "type": "Feature",
      "properties": {
        "@id": "way/468025321",
        "addr:city": "Glendale Heights",
        "addr:country": "US",
        "addr:county": "DuPage, IL",
        "addr:housenumber": "235",
        "addr:postcode": "60139",
        "addr:state": "IL",
        "addr:street": "East North Avenue",
        "amenity": "fast_food",
        "brand": "Portillo's",
        "brand:wikidata": "Q3399307",
        "building": "retail",
        "cuisine": "hot_dog;burger",
        "drive_through": "yes",
        "name": "Portillo's",
        "opening_hours": "Mo-Su 10:30-22:00",
        "phone": "+1 630 690 9380",
        "takeaway": "yes",
        "website": "https://www.portillos.com/locations/glendale-heights/",
        "@geometry": "center"
      },
      "geometry": {
        "type": "Point",
        "coordinates": [
          -88.080471,
          41.902253
        ]
      },
      "id": "way/468025321"
    },
    {
      "type": "Feature",
      "properties": {
        "@id": "way/480545015",
        "addr:city": "Normal",
        "addr:country": "US",
        "addr:county": "McLean, IL",
        "addr:housenumber": "202",
        "addr:postcode": "61761",
        "addr:state": "IL",
        "addr:street": "Landmark Drive",
        "amenity": "fast_food",
        "brand": "Portillo's",
        "brand:wikidata": "Q3399307",
        "building": "yes",
        "cuisine": "hot_dog;burger",
        "name": "Portillo's",
        "opening_hours": "Mo-Su 10:30-22:00",
        "phone": "+1 309 200 8086",
        "takeaway": "yes",
        "website": "https://www.portillos.com/locations/normal/",
        "@geometry": "center"
      },
      "geometry": {
        "type": "Point",
        "coordinates": [
          -88.9539152,
          40.5133558
        ]
      },
      "id": "way/480545015"
    },
    {
      "type": "Feature",
      "properties": {
        "@id": "way/495762634",
        "addr:city": "Elmhurst",
        "addr:country": "US",
        "addr:county": "DuPage, IL",
        "addr:housenumber": "155",
        "addr:postcode": "60126",
        "addr:state": "IL",
        "addr:street": "South Route 83",
        "amenity": "fast_food",
        "brand": "Portillo's",
        "brand:wikidata": "Q3399307",
        "building": "retail",
        "cuisine": "hot_dog;burger",
        "drive_through": "yes",
        "name": "Portillo's",
        "opening_hours": "Mo-Su 10:30-22:00",
        "phone": "+1 630 530 8451",
        "takeaway": "yes",
        "website": "https://www.portillos.com/locations/elmhurst/",
        "@geometry": "center"
      },
      "geometry": {
        "type": "Point",
        "coordinates": [
          -87.9625324,
          41.8954842
        ]
      },
      "id": "way/495762634"
    },
    {
      "type": "Feature",
      "properties": {
        "@id": "way/528465227",
        "addr:city": "Fishers",
        "addr:country": "US",
        "addr:county": "Hamilton, IN",
        "addr:housenumber": "9201",
        "addr:postcode": "46037",
        "addr:state": "IN",
        "addr:street": "East 116th Street",
        "amenity": "fast_food",
        "brand": "Portillo's",
        "brand:wikidata": "Q3399307",
        "building": "retail",
        "cuisine": "hot_dog;burger",
        "name": "Portillo's",
        "opening_hours": "Mo-Su 10:30-22:00",
        "phone": "+1 317 588 1111",
        "takeaway": "yes",
        "website": "https://www.portillos.com/locations/fishers/",
        "@geometry": "center"
      },
      "geometry": {
        "type": "Point",
        "coordinates": [
          -86.0045875,
          39.9563192
        ]
      },
      "id": "way/528465227"
    },
    {
      "type": "Feature",
      "properties": {
        "@id": "way/545780410",
        "addr:city": "Sterling Heights",
        "addr:housenumber": "14425",
        "addr:postcode": "48313",
        "addr:state": "MI",
        "addr:street": "Lakeside Circle",
        "amenity": "fast_food",
        "branch": "Portillo's Sterling Heights",
        "brand": "Portillo's",
        "brand:wikidata": "Q3399307",
        "building": "retail",
        "cuisine": "hot_dog;burger",
        "drive_through": "yes",
        "facebook": "https://www.facebook.com/portillos.hotdog",
        "instagram": "https://www.instagram.com/portilloshotdogs/",
        "name": "Portillo's",
        "opening_hours": "Su-Th 10:00-20:30; Fr-Sa 10:00-23:00",
        "phone": "+1-586-238-3111",
        "takeaway": "yes",
        "website": "https://locations.portillos.com/sterling-heights",
        "website:menu": "https://www.portillos.com/menu/restaurant/",
        "@geometry": "center"
      },
      "geometry": {
        "type": "Point",
        "coordinates": [
          -82.9848085,
          42.6264551
        ]
      },
      "id": "way/545780410"
    },
    {
      "type": "Feature",
      "properties": {
        "@id": "way/549268123",
        "addr:city": "Willowbrook",
        "addr:country": "US",
        "addr:county": "DuPage, IL",
        "addr:housenumber": "7195",
        "addr:postcode": "60527",
        "addr:state": "IL",
        "addr:street": "Kingery Highway",
        "air_conditioning": "yes",
        "amenity": "fast_food",
        "brand": "Portillo's",
        "brand:wikidata": "Q3399307",
        "building": "retail",
        "check_date": "2025-05-21",
        "cuisine": "hot_dog;burger",
        "drive_through": "yes",
        "highchair": "yes",
        "name": "Portillo's",
        "opening_hours": "Mo-Su 10:30-22:30",
        "organic": "no",
        "outdoor_seating": "yes",
        "phone": "+1 630 789 0909",
        "source": "survey",
        "takeaway": "yes",
        "website": "https://www.portillos.com/locations/willowbrook/",
        "@geometry": "center"
      },
      "geometry": {
        "type": "Point",
        "coordinates": [
          -87.9441934,
          41.7574221
        ]
      },
      "id": "way/549268123"
    },
    {
      "type": "Feature",
      "properties": {
        "@id": "way/558366726",
        "addr:city": "Chicago",
        "addr:country": "US",
        "addr:county": "Cook, IL",
        "addr:housenumber": "520",
        "addr:postcode": "60607",
        "addr:state": "IL",
        "addr:street": "West Taylor Street",
        "amenity": "fast_food",
        "brand": "Portillo's",
        "brand:wikidata": "Q3399307",
        "building": "retail",
        "cuisine": "hot_dog;burger",
        "drive_through": "yes",
        "name": "Portillo's",
        "opening_hours": "Mo-Su 10:00-24:00",
        "phone": "+1-312-667-4560",
        "takeaway": "yes",
        "website": "https://www.portillos.com/locations/chicago-canal-taylor/",
        "@geometry": "center"
      },
      "geometry": {
        "type": "Point",
        "coordinates": [
          -87.6401651,
          41.8703065
        ]
      },
      "id": "way/558366726"
    },
    {
      "type": "Feature",
      "properties": {
        "@id": "way/572863684",
        "addr:city": "Harwood Heights",
        "addr:housenumber": "7308",
        "addr:postcode": "60706",
        "addr:state": "IL",
        "addr:street": "West Lawrence Avenue",
        "amenity": "fast_food",
        "branch": "Harwood Heights",
        "brand": "Portillo's",
        "brand:wikidata": "Q3399307",
        "building": "retail",
        "check_date": "2025-05-22",
        "cuisine": "hot_dog;burger",
        "drive_through": "yes",
        "highchair": "yes",
        "name": "Portillo's",
        "payment:apple_pay": "yes",
        "payment:cash": "yes",
        "payment:contactless": "yes",
        "payment:credit_cards": "yes",
        "payment:debit_cards": "yes",
        "payment:google_pay": "yes",
        "takeaway": "yes",
        "website": "https://www.portillos.com/locations/harwoodheights/",
        "wheelchair": "yes",
        "@geometry": "center"
      },
      "geometry": {
        "type": "Point",
        "coordinates": [
          -87.8101227,
          41.9678223
        ]
      },
      "id": "way/572863684"
    },
    {
      "type": "Feature",
      "properties": {
        "@id": "way/599128818",
        "addr:city": "Sycamore",
        "addr:housenumber": "1780",
        "addr:postcode": "60178",
        "addr:state": "IL",
        "addr:street": "Dekalb Avenue",
        "amenity": "fast_food",
        "branch": "Hot Dogs",
        "brand": "Portillo's",
        "brand:wikidata": "Q3399307",
        "building": "retail",
        "cuisine": "hot_dog;burger",
        "delivery": "yes",
        "drive_through": "yes",
        "name": "Portillo's",
        "outdoor_seating": "yes",
        "takeaway": "yes",
        "@geometry": "center"
      },
      "geometry": {
        "type": "Point",
        "coordinates": [
          -88.7173618,
          41.9714421
        ]
      },
      "id": "way/599128818"
    },
    {
      "type": "Feature",
      "properties": {
        "@id": "way/622388715",
        "addr:city": "Gurnee",
        "addr:country": "US",
        "addr:county": "Lake, IL",
        "addr:housenumber": "6102",
        "addr:postcode": "60031",
        "addr:state": "IL",
        "addr:street": "West Grand Avenue",
        "amenity": "fast_food",
        "brand": "Portillo's",
        "brand:wikidata": "Q3399307",
        "building": "retail",
        "cuisine": "hot_dog;burger",
        "drive_through": "yes",
        "name": "Portillo's",
        "opening_hours": "Mo-Su 10:30-22:00",
        "phone": "+1 847 264 5060",
        "takeaway": "yes",
        "website": "https://www.portillos.com/locations/gurnee/",
        "@geometry": "center"
      },
      "geometry": {
        "type": "Point",
        "coordinates": [
          -87.9542928,
          42.3912416
        ]
      },
      "id": "way/622388715"
    },
    {
      "type": "Feature",
      "properties": {
        "@id": "way/654775582",
        "addr:city": "Deerfield",
        "addr:country": "US",
        "addr:county": "Lake, IL",
        "addr:housenumber": "700",
        "addr:postcode": "60015",
        "addr:state": "IL",
        "addr:street": "Lake Cook Road",
        "amenity": "fast_food",
        "brand": "Portillo's",
        "brand:wikidata": "Q3399307",
        "building": "retail",
        "cuisine": "hot_dog;burger",
        "drive_through": "yes",
        "name": "Portillo's",
        "opening_hours": "Mo-Su 10:30-22:00",
        "phone": "+1 847 597 0010",
        "takeaway": "yes",
        "website": "https://www.portillos.com/locations/deerfield/",
        "@geometry": "center"
      },
      "geometry": {
        "type": "Point",
        "coordinates": [
          -87.8456738,
          42.15335
        ]
      },
      "id": "way/654775582"
    },
    {
      "type": "Feature",
      "properties": {
        "@id": "way/682145365",
        "addr:city": "Crystal Lake",
        "addr:country": "US",
        "addr:county": "McHenry, IL",
        "addr:housenumber": "855",
        "addr:postcode": "60014",
        "addr:state": "IL",
        "addr:street": "Cog Circle",
        "amenity": "fast_food",
        "brand": "Portillo's",
        "brand:wikidata": "Q3399307",
        "building": "retail",
        "building:use": "foodservice",
        "cuisine": "hot_dog;burger",
        "drive_through": "yes",
        "internet_access": "wlan",
        "internet_access:fee": "no",
        "name": "Portillo's",
        "opening_hours": "Su-Th 10:30-23:30, Fr-Sa 10:30-00:00",
        "outdoor_seating": "no",
        "phone": "+1 815-788-0900",
        "reservation": "no",
        "takeaway": "yes",
        "toilets:access": "customers",
        "toilets:wheelchair": "yes",
        "website": "https://www.portillos.com/locations/crystal-lake/",
        "wheelchair": "yes",
        "@geometry": "center"
      },
      "geometry": {
        "type": "Point",
        "coordinates": [
          -88.2890077,
          42.2268947
        ]
      },
      "id": "way/682145365"
    },
    {
      "type": "Feature",
      "properties": {
        "@id": "way/684361319",
        "amenity": "fast_food",
        "brand": "Portillo's",
        "brand:wikidata": "Q3399307",
        "building": "retail",
        "building:levels": "1",
        "cuisine": "hot_dog;burger",
        "drive_through": "yes",
        "name": "Portillo's",
        "takeaway": "yes",
        "@geometry": "center"
      },
      "geometry": {
        "type": "Point",
        "coordinates": [
          -88.3369175,
          42.0064822
        ]
      },
      "id": "way/684361319"
    },
    {
      "type": "Feature",
      "properties": {
        "@id": "way/698031092",
        "addr:city": "Greenfield",
        "addr:country": "US",
        "addr:county": "Milwaukee, WI",
        "addr:housenumber": "8705",
        "addr:postcode": "53228",
        "addr:state": "WI",
        "addr:street": "West Sura Lane",
        "amenity": "fast_food",
        "brand": "Portillo's",
        "brand:wikidata": "Q3399307",
        "building": "yes",
        "cuisine": "hot_dog;burger",
        "drive_through": "yes",
        "name": "Portillo's",
        "opening_hours": "Mo-Su 10:30-22:00",
        "phone": "+1 414 877 5400",
        "takeaway": "yes",
        "website": "https://www.portillos.com/locations/greenfield/",
        "@geometry": "center"
      },
      "geometry": {
        "type": "Point",
        "coordinates": [
          -88.0221891,
          42.9597871
        ]
      },
      "id": "way/698031092"
    },
    {
      "type": "Feature",
      "properties": {
        "@id": "way/704004250",
        "addr:city": "Mishawaka",
        "addr:country": "US",
        "addr:county": "St. Joseph, IN",
        "addr:housenumber": "5102",
        "addr:postcode": "46545",
        "addr:state": "IN",
        "addr:street": "North Main Street",
        "amenity": "fast_food",
        "brand": "Portillo's",
        "brand:wikidata": "Q3399307",
        "building": "yes",
        "cuisine": "hot_dog;burger",
        "name": "Portillo's",
        "opening_hours": "Mo-Su 10:30-22:00",
        "phone": "+1 574 347 8720",
        "takeaway": "yes",
        "website": "https://www.portillos.com/locations/mishawaka/",
        "@geometry": "center"
      },
      "geometry": {
        "type": "Point",
        "coordinates": [
          -86.1813099,
          41.7057944
        ]
      },
      "id": "way/704004250"
    },
    {
      "type": "Feature",
      "properties": {
        "@id": "way/746181384",
        "addr:city": "Roseville",
        "addr:country": "US",
        "addr:county": "Ramsey, MN",
        "addr:housenumber": "1800",
        "addr:postcode": "55113",
        "addr:state": "MN",
        "addr:street": "County Road B2",
        "amenity": "fast_food",
        "brand": "Portillo's",
        "brand:wikidata": "Q3399307",
        "building": "yes",
        "cuisine": "hot_dog;burger",
        "name": "Portillo's",
        "opening_hours": "Mo-Su 10:30-22:00",
        "phone": "+1-651-888-8850",
        "start_date": "2019-01-28",
        "takeaway": "yes",
        "website": "https://www.portillos.com/locations/roseville/",
        "@geometry": "center"
      },
      "geometry": {
        "type": "Point",
        "coordinates": [
          -93.1761777,
          45.0138649
        ]
      },
      "id": "way/746181384"
    },
    {
      "type": "Feature",
      "properties": {
        "@id": "way/760449631",
        "addr:city": "Brookfield",
        "addr:country": "US",
        "addr:county": "Waukesha, WI",
        "addr:housenumber": "17685",
        "addr:postcode": "53045",
        "addr:state": "WI",
        "addr:street": "West Bluemound Road",
        "amenity": "fast_food",
        "brand": "Portillo's",
        "brand:wikidata": "Q3399307",
        "building": "yes",
        "cuisine": "hot_dog;burger",
        "drive_through": "yes",
        "name": "Portillo's",
        "opening_hours": "Mo-Su 10:30-22:00",
        "phone": "+1 262 289 3390",
        "takeaway": "yes",
        "website": "https://www.portillos.com/locations/brookfield/",
        "@geometry": "center"
      },
      "geometry": {
        "type": "Point",
        "coordinates": [
          -88.1326977,
          43.0360496
        ]
      },
      "id": "way/760449631"
    },
    {
      "type": "Feature",
      "properties": {
        "@id": "way/761505343",
        "addr:city": "Maple Grove",
        "addr:country": "US",
        "addr:county": "Hennepin, MN",
        "addr:housenumber": "12251",
        "addr:postcode": "55369",
        "addr:state": "MN",
        "addr:street": "Elm Creek Boulevard",
        "amenity": "fast_food",
        "brand": "Portillo's",
        "brand:wikidata": "Q3399307",
        "building": "yes",
        "cuisine": "hot_dog;burger",
        "drive_through": "yes",
        "name": "Portillo's",
        "opening_hours": "Mo-Su 10:30-22:00",
        "phone": "+1 763 316 0860",
        "takeaway": "yes",
        "website": "https://www.portillos.com/locations/maplegrove/",
        "@geometry": "center"
      },
      "geometry": {
        "type": "Point",
        "coordinates": [
          -93.4361321,
          45.0937192
        ]
      },
      "id": "way/761505343"
    },
    {
      "type": "Feature",
      "properties": {
        "@id": "way/777531802",
        "addr:city": "Shorewood",
        "addr:country": "US",
        "addr:county": "Will, IL",
        "addr:housenumber": "1155",
        "addr:postcode": "60431",
        "addr:state": "IL",
        "addr:street": "Brook Forest Avenue",
        "amenity": "fast_food",
        "brand": "Portillo's",
        "brand:wikidata": "Q3399307",
        "building": "retail",
        "cuisine": "hot_dog;burger",
        "name": "Portillo's",
        "opening_hours": "Mo-Su 10:30-24:00",
        "phone": "+1 815 609 1400",
        "takeaway": "yes",
        "website": "https://www.portillos.com/locations/shorewood/",
        "@geometry": "center"
      },
      "geometry": {
        "type": "Point",
        "coordinates": [
          -88.2002364,
          41.5431691
        ]
      },
      "id": "way/777531802"
    },
    {
      "type": "Feature",
      "properties": {
        "@id": "way/785981793",
        "addr:city": "Streamwood",
        "addr:housenumber": "950",
        "addr:postcode": "60107",
        "addr:state": "IL",
        "addr:street": "South Barrington Road",
        "amenity": "fast_food",
        "brand": "Portillo's",
        "brand:wikidata": "Q3399307",
        "building": "retail",
        "cuisine": "hot_dog;burger",
        "drive_through": "yes",
        "name": "Portillo's",
        "takeaway": "yes",
        "@geometry": "center"
      },
      "geometry": {
        "type": "Point",
        "coordinates": [
          -88.1452684,
          42.0130516
        ]
      },
      "id": "way/785981793"
    },
    {
      "type": "Feature",
      "properties": {
        "@id": "way/844549313",
        "addr:city": "Woodbury",
        "addr:country": "US",
        "addr:county": "Washington, MN",
        "addr:housenumber": "8450",
        "addr:postcode": "55125",
        "addr:state": "MN",
        "addr:street": "Hudson Road",
        "amenity": "fast_food",
        "brand": "Portillo's",
        "brand:wikidata": "Q3399307",
        "building": "yes",
        "cuisine": "hot_dog;burger",
        "name": "Portillo's",
        "opening_hours": "Mo-Su 10:30-22:00",
        "phone": "+1 612 295 0100",
        "takeaway": "yes",
        "website": "https://www.portillos.com/locations/woodbury/",
        "@geometry": "center"
      },
      "geometry": {
        "type": "Point",
        "coordinates": [
          -92.9357346,
          44.9444496
        ]
      },
      "id": "way/844549313"
    },
    {
      "type": "Feature",
      "properties": {
        "@id": "way/854397183",
        "addr:city": "Fort Wayne",
        "addr:country": "US",
        "addr:county": "Allen, IN",
        "addr:housenumber": "295",
        "addr:postcode": "46805",
        "addr:state": "IN",
        "addr:street": "West Coliseum Boulevard",
        "amenity": "fast_food",
        "brand": "Portillo's",
        "brand:wikidata": "Q3399307",
        "building": "retail",
        "cuisine": "hot_dog;burger",
        "drive_through": "yes",
        "name": "Portillo's",
        "opening_hours": "Mo-Su 10:30-22:00",
        "phone": "+1 260 704 9770",
        "takeaway": "yes",
        "website": "https://www.portillos.com/locations/fortwayne/",
        "@geometry": "center"
      },
      "geometry": {
        "type": "Point",
        "coordinates": [
          -85.1425847,
          41.1167584
        ]
      },
      "id": "way/854397183"
    },
    {
      "type": "Feature",
      "properties": {
        "@id": "way/864026212",
        "addr:city": "Chicago",
        "addr:housenumber": "3343",
        "addr:postcode": "60618",
        "addr:state": "IL",
        "addr:street": "West Addison Street",
        "amenity": "fast_food",
        "brand": "Portillo's",
        "brand:wikidata": "Q3399307",
        "building": "retail",
        "building:levels": "1",
        "cuisine": "hot_dog;burger",
        "diet:vegan": "yes",
        "diet:vegetarian": "yes",
        "drive_through": "yes",
        "name": "Portillo's",
        "opening_hours": "Mo-Su 10:00-01:00",
        "roof:levels": "0",
        "roof:shape": "flat",
        "takeaway": "yes",
        "website": "https://www.portillos.com/locations/chicago-addison-kimball/",
        "wheelchair": "designated",
        "@geometry": "center"
      },
      "geometry": {
        "type": "Point",
        "coordinates": [
          -87.7121823,
          41.9463722
        ]
      },
      "id": "way/864026212"
    },
    {
      "type": "Feature",
      "properties": {
        "@id": "way/893591741",
        "addr:city": "Indianapolis",
        "addr:country": "US",
        "addr:county": "Marion, IN",
        "addr:housenumber": "8150",
        "addr:postcode": "46227",
        "addr:state": "IN",
        "addr:street": "US 31",
        "amenity": "fast_food",
        "brand": "Portillo's",
        "brand:wikidata": "Q3399307",
        "building": "yes",
        "cuisine": "hot_dog;burger",
        "name": "Portillo's",
        "opening_hours": "Mo-Su 10:30-22:00",
        "phone": "+1 317 743 9364",
        "source": "esri/Indianapolis_IN_Buildings",
        "takeaway": "yes",
        "website": "https://www.portillos.com/locations/indianapolis/",
        "@geometry": "center"
      },
      "geometry": {
        "type": "Point",
        "coordinates": [
          -86.1363133,
          39.6481566
        ]
      },
      "id": "way/893591741"
    },
    {
      "type": "Feature",
      "properties": {
        "@id": "way/925264850",
        "addr:city": "Madison",
        "addr:country": "US",
        "addr:county": "Dane, WI",
        "addr:housenumber": "4505",
        "addr:postcode": "53704",
        "addr:state": "WI",
        "addr:street": "East Towne Boulevard",
        "amenity": "fast_food",
        "brand": "Portillo's",
        "brand:wikidata": "Q3399307",
        "building": "retail",
        "cuisine": "hot_dog;burger",
        "name": "Portillo's",
        "opening_hours": "Mo-Su 10:30-22:00",
        "phone": "+1 608 819 2720",
        "takeaway": "yes",
        "website": "https://www.portillos.com/locations/madison/",
        "@geometry": "center"
      },
      "geometry": {
        "type": "Point",
        "coordinates": [
          -89.3066381,
          43.1274319
        ]
      },
      "id": "way/925264850"
    },
    {
      "type": "Feature",
      "properties": {
        "@id": "way/925266278",
        "addr:city": "Davenport",
        "addr:country": "US",
        "addr:county": "Scott, IA",
        "addr:housenumber": "2741",
        "addr:postcode": "52807",
        "addr:state": "IA",
        "addr:street": "East 53rd Street",
        "amenity": "fast_food",
        "brand": "Portillo's",
        "brand:wikidata": "Q3399307",
        "building": "yes",
        "cuisine": "hot_dog;burger",
        "drive_through": "yes",
        "indoor_seating": "yes",
        "name": "Portillo's",
        "opening_hours": "Mo-Su 10:30-22:00",
        "phone": "+1 563-823-9500",
        "smoking": "no",
        "takeaway": "yes",
        "website": "https://www.portillos.com/locations/davenport/",
        "@geometry": "center"
      },
      "geometry": {
        "type": "Point",
        "coordinates": [
          -90.5338617,
          41.5744591
        ]
      },
      "id": "way/925266278"
    },
    {
      "type": "Feature",
      "properties": {
        "@id": "way/925269777",
        "addr:city": "Merrillville",
        "addr:country": "US",
        "addr:county": "Lake, IN",
        "addr:housenumber": "555",
        "addr:postcode": "46410",
        "addr:state": "IN",
        "addr:street": "East 81st Avenue",
        "amenity": "fast_food",
        "brand": "Portillo's",
        "brand:wikidata": "Q3399307",
        "building": "retail",
        "cuisine": "hot_dog;burger",
        "drive_through": "yes",
        "name": "Portillo's",
        "opening_hours": "Mo-Su 10:30-22:00",
        "phone": "+1 219 769 8300",
        "takeaway": "yes",
        "website": "https://www.portillos.com/locations/merrillville/",
        "@geometry": "center"
      },
      "geometry": {
        "type": "Point",
        "coordinates": [
          -87.3328691,
          41.470359
        ]
      },
      "id": "way/925269777"
    },
    {
      "type": "Feature",
      "properties": {
        "@id": "way/926035832",
        "addr:city": "Peoria",
        "addr:country": "US",
        "addr:county": "Peoria, IL",
        "addr:housenumber": "4412",
        "addr:postcode": "61615",
        "addr:state": "IL",
        "addr:street": "Rockwood Road",
        "amenity": "fast_food",
        "brand": "Portillo's",
        "brand:wikidata": "Q3399307",
        "building": "retail",
        "cuisine": "hot_dog;burger",
        "diet:vegan": "limited",
        "drive_through": "yes",
        "name": "Portillo's",
        "opening_hours": "Mo-Su 10:30-22:00",
        "phone": "+1 309 282 3400",
        "takeaway": "yes",
        "website": "https://www.portillos.com/locations/peoria/",
        "@geometry": "center"
      },
      "geometry": {
        "type": "Point",
        "coordinates": [
          -89.632353,
          40.7414136
        ]
      },
      "id": "way/926035832"
    },
    {
      "type": "Feature",
      "properties": {
        "@id": "way/930477389",
        "addr:city": "Rockford",
        "addr:country": "US",
        "addr:county": "Winnebago, IL",
        "addr:housenumber": "6090",
        "addr:postcode": "61108",
        "addr:state": "IL",
        "addr:street": "East State Street",
        "amenity": "fast_food",
        "brand": "Portillo's",
        "brand:wikidata": "Q3399307",
        "building": "retail",
        "cuisine": "hot_dog;burger",
        "drive_through": "yes",
        "internet_access": "no",
        "internet_access:fee": "no",
        "name": "Portillo's",
        "opening_hours": "Mo-Su 10:30-22:00",
        "phone": "+1 815-997-1800",
        "smoking": "no",
        "takeaway": "yes",
        "toilets": "yes",
        "toilets:access": "customers",
        "toilets:wheelchair": "yes",
        "website": "https://www.portillos.com/locations/rockford/",
        "wheelchair": "yes",
        "@geometry": "center"
      },
      "geometry": {
        "type": "Point",
        "coordinates": [
          -88.9973803,
          42.2675135
        ]
      },
      "id": "way/930477389"
    },
    {
      "type": "Feature",
      "properties": {
        "@id": "way/930852032",
        "addr:city": "Homewood",
        "addr:housenumber": "17500",
        "addr:postcode": "60430",
        "addr:state": "IL",
        "addr:street": "Halsted Street",
        "amenity": "fast_food",
        "brand": "Portillo's",
        "brand:wikidata": "Q3399307",
        "building": "retail",
        "check_date": "2026-07-06",
        "cuisine": "hot_dog;burger",
        "drive_through": "yes",
        "name": "Portillo's",
        "opening_hours": "Mo-Su 10:30-24:00",
        "phone": "+1 708 991 2061",
        "takeaway": "yes",
        "website": "https://www.portillos.com/locations/homewood/",
        "@geometry": "center"
      },
      "geometry": {
        "type": "Point",
        "coordinates": [
          -87.6369973,
          41.5715883
        ]
      },
      "id": "way/930852032"
    },
    {
      "type": "Feature",
      "properties": {
        "@id": "way/930853069",
        "addr:city": "New Lenox",
        "addr:housenumber": "2306",
        "addr:postcode": "60451",
        "addr:state": "IL",
        "addr:street": "Lincoln Highway",
        "air_conditioning": "yes",
        "amenity": "fast_food",
        "brand": "Portillo's",
        "brand:wikidata": "Q3399307",
        "building": "retail",
        "cuisine": "hot_dog;burger",
        "diet:vegetarian": "no",
        "drive_through": "yes",
        "name": "Portillo's",
        "opening_hours": "Mo-Su 10:30-22:00, Fr-Sa 10:30-23:00",
        "phone": "+1 815-485-8301",
        "takeaway": "yes",
        "website": "https://www.portillos.com/locations/new-lenox/",
        "@geometry": "center"
      },
      "geometry": {
        "type": "Point",
        "coordinates": [
          -87.9215466,
          41.5091022
        ]
      },
      "id": "way/930853069"
    },
    {
      "type": "Feature",
      "properties": {
        "@id": "way/930853632",
        "addr:city": "Tinley Park",
        "addr:country": "US",
        "addr:county": "Cook, IL",
        "addr:housenumber": "15900",
        "addr:postcode": "60477",
        "addr:state": "IL",
        "addr:street": "Harlem Avenue",
        "amenity": "fast_food",
        "branch": "Tinley Park",
        "brand": "Portillo's",
        "brand:wikidata": "Q3399307",
        "building": "retail",
        "cuisine": "hot_dog;burger",
        "drive_through": "yes",
        "name": "Portillo's",
        "opening_hours": "Mo-Su 10:30-23:00",
        "phone": "+1 708 444 1000",
        "takeaway": "yes",
        "website": "https://www.portillos.com/locations/tinley-park/",
        "wheelchair": "yes",
        "@geometry": "center"
      },
      "geometry": {
        "type": "Point",
        "coordinates": [
          -87.7951809,
          41.6016712
        ]
      },
      "id": "way/930853632"
    },
    {
      "type": "Feature",
      "properties": {
        "@id": "way/930854073",
        "addr:city": "Crestwood",
        "addr:country": "US",
        "addr:county": "Cook, IL",
        "addr:housenumber": "13130",
        "addr:postcode": "60445",
        "addr:state": "IL",
        "addr:street": "South Cicero Avenue",
        "amenity": "fast_food",
        "branch": "Crestwood",
        "brand": "Portillo's",
        "brand:wikidata": "Q3399307",
        "building": "retail",
        "cuisine": "hot_dog;burger",
        "drive_through": "yes",
        "name": "Portillo's",
        "opening_hours": "Mo-Su 10:30-22:00",
        "phone": "+1 708 385 6400",
        "takeaway": "yes",
        "website": "https://www.portillos.com/locations/crestwood/",
        "@geometry": "center"
      },
      "geometry": {
        "type": "Point",
        "coordinates": [
          -87.7389393,
          41.652928
        ]
      },
      "id": "way/930854073"
    },
    {
      "type": "Feature",
      "properties": {
        "@id": "way/931607171",
        "addr:city": "Villa Park",
        "addr:country": "US",
        "addr:county": "DuPage, IL",
        "addr:housenumber": "635 1/2",
        "addr:postcode": "60181",
        "addr:state": "IL",
        "addr:street": "North Avenue",
        "amenity": "fast_food",
        "brand": "Portillo's",
        "brand:wikidata": "Q3399307",
        "building": "retail",
        "cuisine": "hot_dog;burger",
        "drive_through": "yes",
        "name": "Portillo's",
        "opening_hours": "Mo-Su 10:30-22:00",
        "phone": "+1 630 530 8440",
        "takeaway": "yes",
        "website": "https://www.portillos.com/locations/villa-park/",
        "@geometry": "center"
      },
      "geometry": {
        "type": "Point",
        "coordinates": [
          -87.9941668,
          41.9047799
        ]
      },
      "id": "way/931607171"
    },
    {
      "type": "Feature",
      "properties": {
        "@id": "way/961246865",
        "addr:city": "Avondale",
        "addr:country": "US",
        "addr:county": "Maricopa, AZ",
        "addr:housenumber": "10331",
        "addr:postcode": "85392",
        "addr:state": "AZ",
        "addr:street": "West McDowell Road",
        "air_conditioning": "yes",
        "amenity": "fast_food",
        "brand": "Portillo's",
        "brand:wikidata": "Q3399307",
        "building": "yes",
        "cuisine": "hot_dog;burger",
        "drive_through": "yes",
        "name": "Portillo's",
        "opening_hours": "Mo-Su 10:30-22:00",
        "phone": "+1 480 569 1880",
        "takeaway": "yes",
        "website": "https://www.portillos.com/locations/avondale/",
        "@geometry": "center"
      },
      "geometry": {
        "type": "Point",
        "coordinates": [
          -112.2837639,
          33.4639736
        ]
      },
      "id": "way/961246865"
    },
    {
      "type": "Feature",
      "properties": {
        "@id": "way/962735015",
        "addr:city": "Orlando",
        "addr:country": "US",
        "addr:county": "Orange, FL",
        "addr:housenumber": "7715",
        "addr:postcode": "32836",
        "addr:state": "FL",
        "addr:street": "Palm Parkway",
        "amenity": "fast_food",
        "brand": "Portillo's",
        "brand:wikidata": "Q3399307",
        "building": "retail",
        "cuisine": "hot_dog;burger",
        "name": "Portillo's",
        "opening_hours": "Mo-Su 10:30-22:00",
        "phone": "+1 689 800 0102",
        "takeaway": "yes",
        "website": "https://www.portillos.com/location/orlando/",
        "@geometry": "center"
      },
      "geometry": {
        "type": "Point",
        "coordinates": [
          -81.4888269,
          28.399908
        ]
      },
      "id": "way/962735015"
    },
    {
      "type": "Feature",
      "properties": {
        "@id": "way/977472945",
        "addr:city": "Northlake",
        "addr:country": "US",
        "addr:county": "Cook, IL",
        "addr:housenumber": "170",
        "addr:postcode": "60164",
        "addr:state": "IL",
        "addr:street": "West North Avenue",
        "amenity": "fast_food",
        "brand": "Portillo's",
        "brand:wikidata": "Q3399307",
        "building": "retail",
        "cuisine": "hot_dog;burger",
        "drive_through": "yes",
        "name": "Portillo's",
        "opening_hours": "Mo-Su 10:30-22:00",
        "phone": "+1 708 409 0000",
        "takeaway": "yes",
        "website": "https://www.portillos.com/locations/northlake/",
        "@geometry": "center"
      },
      "geometry": {
        "type": "Point",
        "coordinates": [
          -87.9126208,
          41.9073712
        ]
      },
      "id": "way/977472945"
    },
    {
      "type": "Feature",
      "properties": {
        "@id": "way/1148255271",
        "addr:city": "Knoxville",
        "addr:country": "US",
        "addr:housenumber": "11151",
        "addr:postcode": "37934",
        "addr:street": "Kingston Pike",
        "amenity": "fast_food",
        "branch": "Taqiera & Neveria",
        "brand": "Portillo's",
        "brand:wikidata": "Q3399307",
        "building": "commercial",
        "cuisine": "hot_dog;burger",
        "delivery": "yes",
        "name": "Portillo's",
        "opening_hours": "Mo-Sa 11:00-22:00; Su 11:00-21:00",
        "phone": "+1 865 671 4763",
        "smoking": "outside",
        "takeaway": "yes",
        "website": "http://orderpotrillostaqueriaandneveria.com/",
        "@geometry": "center"
      },
      "geometry": {
        "type": "Point",
        "coordinates": [
          -84.1514112,
          35.8866796
        ]
      },
      "id": "way/1148255271"
    },
    {
      "type": "Feature",
      "properties": {
        "@id": "way/1191654643",
        "addr:city": "Rosemont",
        "addr:housenumber": "6850",
        "addr:postcode": "60018",
        "addr:state": "IL",
        "addr:street": "Mannheim Road",
        "amenity": "fast_food",
        "branch": "Rosemont Pick Up",
        "brand": "Portillo's",
        "brand:wikidata": "Q3399307",
        "building": "retail",
        "building:levels": "1",
        "cuisine": "hot_dog;burger",
        "delivery": "yes",
        "drive_through": "yes",
        "name": "Portillo's",
        "takeaway": "only",
        "website": "https://www.portillos.com/location/rosemont/",
        "@geometry": "center"
      },
      "geometry": {
        "type": "Point",
        "coordinates": [
          -87.8852906,
          41.9988656
        ]
      },
      "id": "way/1191654643"
    },
    {
      "type": "Feature",
      "properties": {
        "@id": "way/1250912339",
        "addr:city": "Surprise",
        "addr:housenumber": "16320",
        "addr:postcode": "85388",
        "addr:state": "AZ",
        "addr:street": "West Waddell Road",
        "amenity": "fast_food",
        "brand": "Portillo's",
        "brand:wikidata": "Q3399307",
        "building": "yes",
        "check_date": "2024-06-01",
        "cuisine": "hot_dog;burger",
        "name": "Portillo's",
        "takeaway": "yes",
        "@geometry": "center"
      },
      "geometry": {
        "type": "Point",
        "coordinates": [
          -112.4103002,
          33.6103053
        ]
      },
      "id": "way/1250912339"
    },
    {
      "type": "Feature",
      "properties": {
        "@id": "way/1268047309",
        "addr:city": "Joliet",
        "addr:housenumber": "1414",
        "addr:postcode": "60435",
        "addr:state": "IL",
        "addr:street": "North Larkin Avenue",
        "amenity": "fast_food",
        "brand": "Portillo's",
        "brand:wikidata": "Q3399307",
        "building": "retail",
        "cuisine": "hot_dog;burger",
        "drive_through": "yes",
        "name": "Portillo's",
        "note": "Carryout only location",
        "takeaway": "only",
        "website": "https://order.portillos.com/menu/portillos-joliet/",
        "@geometry": "center"
      },
      "geometry": {
        "type": "Point",
        "coordinates": [
          -88.1252229,
          41.5487231
        ]
      },
      "id": "way/1268047309"
    },
    {
      "type": "Feature",
      "properties": {
        "@id": "way/1268484211",
        "addr:city": "Cicero",
        "addr:housenumber": "3300",
        "addr:postcode": "60804",
        "addr:state": "IL",
        "addr:street": "South Cicero Avenue",
        "amenity": "fast_food",
        "branch": "Cicero",
        "brand": "Portillo's",
        "brand:wikidata": "Q3399307",
        "building": "retail",
        "cuisine": "hot_dog;burger",
        "drive_through": "yes",
        "name": "Portillo's",
        "opening_hours": "Mo-Su 10:00-01:00",
        "phone": "+1 708-683-1501",
        "takeaway": "yes",
        "website": "https://locations.portillos.com/cicero",
        "@geometry": "center"
      },
      "geometry": {
        "type": "Point",
        "coordinates": [
          -87.744409,
          41.8324841
        ]
      },
      "id": "way/1268484211"
    },
    {
      "type": "Feature",
      "properties": {
        "@id": "way/1330089529",
        "addr:city": "Richmond",
        "addr:housenumber": "11005",
        "addr:postcode": "77407",
        "addr:state": "TX",
        "addr:street": "West Grand Parkway South",
        "air_conditioning": "yes",
        "amenity": "fast_food",
        "branch": "Richmond",
        "brand": "Portillo's",
        "brand:wikidata": "Q3399307",
        "building": "yes",
        "cuisine": "hot_dog;burger",
        "delivery": "yes",
        "drive_through": "yes",
        "name": "Portillo's",
        "opening_hours": "Su-Th 10:30-22:30, Fr-Sa 10:30-23:00",
        "phone": "+1 346-396-5112",
        "takeaway": "yes",
        "website": "https://locations.portillos.com/richmond",
        "website:menu": "https://www.portillos.com/menu/restaurant/",
        "@geometry": "center"
      },
      "geometry": {
        "type": "Point",
        "coordinates": [
          -95.7077824,
          29.6481426
        ]
      },
      "id": "way/1330089529"
    },
    {
      "type": "Feature",
      "properties": {
        "@id": "way/1339601908",
        "amenity": "fast_food",
        "brand": "Portillo's",
        "brand:wikidata": "Q3399307",
        "building": "retail",
        "cuisine": "hot_dog;burger",
        "name": "Portillo's",
        "takeaway": "yes",
        "@geometry": "center"
      },
      "geometry": {
        "type": "Point",
        "coordinates": [
          -97.3223556,
          32.8980176
        ]
      },
      "id": "way/1339601908"
    },
    {
      "type": "Feature",
      "properties": {
        "@id": "way/1412990014",
        "addr:city": "Schererville",
        "addr:postcode": "46375",
        "addr:state": "IN",
        "addr:street": "Indianapolis Boulevard",
        "amenity": "fast_food",
        "brand": "Portillo's",
        "brand:wikidata": "Q3399307",
        "building": "retail",
        "cuisine": "hot_dog;burger",
        "drive_through": "yes",
        "name": "Portillo's",
        "takeaway": "yes",
        "@geometry": "center"
      },
      "geometry": {
        "type": "Point",
        "coordinates": [
          -87.4703458,
          41.4957254
        ]
      },
      "id": "way/1412990014"
    },
    {
      "type": "Feature",
      "properties": {
        "@id": "way/1485003652",
        "addr:city": "Orlando",
        "addr:housenumber": "315",
        "addr:postcode": "32828",
        "addr:state": "FL",
        "addr:street": "North Alafaya Trail",
        "amenity": "fast_food",
        "brand": "Portillo's",
        "brand:wikidata": "Q3399307",
        "building": "yes",
        "cuisine": "hot_dog;burger",
        "name": "Portillo's",
        "opening_hours": "Su-Th 10:00-22:30, Fr-Sa 10:00-24:00",
        "phone": "+14072050268",
        "takeaway": "yes",
        "website": "https://www.portillos.com/",
        "website:menu": "https://www.portillos.com/",
        "@geometry": "center"
      },
      "geometry": {
        "type": "Point",
        "coordinates": [
          -81.2041168,
          28.5525591
        ]
      },
      "id": "way/1485003652"
    },
    {
      "type": "Feature",
      "properties": {
        "@id": "way/1486420945",
        "addr:city": "Gilbert",
        "addr:housenumber": "2650",
        "addr:postcode": "85295",
        "addr:state": "AZ",
        "addr:street": "South Market Street",
        "amenity": "fast_food",
        "brand": "Portillo's",
        "brand:wikidata": "Q3399307",
        "building": "yes",
        "cuisine": "hot_dog;burger",
        "name": "Portillo's",
        "takeaway": "yes",
        "@geometry": "center"
      },
      "geometry": {
        "type": "Point",
        "coordinates": [
          -111.7440136,
          33.3022019
        ]
      },
      "id": "way/1486420945"
    },
    {
      "type": "Feature",
      "properties": {
        "@id": "way/1489272907",
        "addr:housenumber": "1801",
        "addr:postcode": "60102",
        "addr:street": "Randall Road",
        "amenity": "fast_food",
        "brand": "Portillo's",
        "brand:wikidata": "Q3399307",
        "building": "retail",
        "cuisine": "hot_dog;burger",
        "drive_through": "yes",
        "name": "Portillo's",
        "opening_hours": "Su-Th 10:00-23:30; Fr-Sa 10:00-00:00",
        "phone": "+1 224-428-1025",
        "source": "microsoft/BuildingFootprints",
        "takeaway": "yes",
        "website": "https://www.portillos.com/locations/algonquin/",
        "@geometry": "center"
      },
      "geometry": {
        "type": "Point",
        "coordinates": [
          -88.3350511,
          42.1461755
        ]
      },
      "id": "way/1489272907"
    },
    {
      "type": "Feature",
      "properties": {
        "@id": "way/1492880380",
        "addr:city": "Clermont",
        "addr:housenumber": "1251",
        "addr:postcode": "34711",
        "addr:state": "FL",
        "addr:street": "East Highway 50",
        "amenity": "fast_food",
        "brand": "Portillo's",
        "brand:wikidata": "Q3399307",
        "building": "yes",
        "cuisine": "hot_dog;burger",
        "drive_through": "yes",
        "name": "Portillo's",
        "takeaway": "yes",
        "website": "https://locations.portillos.com/clermont",
        "@geometry": "center"
      },
      "geometry": {
        "type": "Point",
        "coordinates": [
          -81.7345225,
          28.5459435
        ]
      },
      "id": "way/1492880380"
    },
    {
      "type": "Feature",
      "properties": {
        "@id": "way/1496820054",
        "amenity": "fast_food",
        "brand": "Portillo's",
        "brand:wikidata": "Q3399307",
        "building": "yes",
        "cuisine": "hot_dog;burger",
        "name": "Portillo's",
        "takeaway": "yes",
        "@geometry": "center"
      },
      "geometry": {
        "type": "Point",
        "coordinates": [
          -96.6672185,
          32.997546
        ]
      },
      "id": "way/1496820054"
    },
    {
      "type": "Feature",
      "properties": {
        "@id": "way/1534773827",
        "amenity": "fast_food",
        "brand": "Portillo's",
        "brand:wikidata": "Q3399307",
        "building": "yes",
        "cuisine": "hot_dog;burger",
        "name": "Portillo's",
        "takeaway": "yes",
        "@geometry": "center"
      },
      "geometry": {
        "type": "Point",
        "coordinates": [
          -95.5407404,
          29.9645017
        ]
      },
      "id": "way/1534773827"
    },
    {
      "type": "Feature",
      "properties": {
        "@id": "way/1549452841",
        "amenity": "fast_food",
        "brand": "Portillo's",
        "brand:wikidata": "Q3399307",
        "building": "yes",
        "cuisine": "hot_dog;burger",
        "drive_through": "yes",
        "name": "Portillo's",
        "takeaway": "yes",
        "@geometry": "center"
      },
      "geometry": {
        "type": "Point",
        "coordinates": [
          -96.6636715,
          33.1271245
        ]
      },
      "id": "way/1549452841"
    },
    {
      "type": "Feature",
      "properties": {
        "@id": "way/1554343655",
        "amenity": "fast_food",
        "brand": "Portillo's",
        "brand:wikidata": "Q3399307",
        "building": "yes",
        "cuisine": "hot_dog;burger",
        "name": "Portillo's",
        "takeaway": "yes",
        "@geometry": "center"
      },
      "geometry": {
        "type": "Point",
        "coordinates": [
          -97.2796925,
          33.0211199
        ]
      },
      "id": "way/1554343655"
    },
    {
      "type": "Feature",
      "properties": {
        "@id": "node/8076662977",
        "addr:city": "Springfield",
        "addr:country": "US",
        "addr:county": "Sangamon, IL",
        "addr:housenumber": "3400",
        "addr:postcode": "62704",
        "addr:state": "IL",
        "addr:street": "Freedom Drive",
        "amenity": "fast_food",
        "brand": "Portillo's",
        "brand:wikidata": "Q3399307",
        "cuisine": "hot_dog;burger",
        "delivery": "yes",
        "delivery:partner": "DoorDash",
        "delivery:partner:wikidata": "Q20714323",
        "drive_through": "yes",
        "indoor_seating": "yes",
        "name": "Portillo's",
        "opening_hours": "Su-Th 10:30-22:30; Fr-Sa 10:30-23:00",
        "phone": "+1-217-210-9050",
        "start_date": "2020-12-08",
        "takeaway": "yes",
        "website": "https://www.portillos.com/locations/springfield/"
      },
      "geometry": {
        "type": "Point",
        "coordinates": [
          -89.7070717,
          39.752543
        ]
      },
      "id": "node/8076662977"
    },
    {
      "type": "Feature",
      "properties": {
        "@id": "node/8581373015",
        "addr:city": "Moreno Valley",
        "addr:country": "US",
        "addr:county": "Riverside, CA",
        "addr:housenumber": "12840",
        "addr:postcode": "92553",
        "addr:state": "CA",
        "addr:street": "Day Street",
        "amenity": "fast_food",
        "brand": "Portillo's",
        "brand:wikidata": "Q3399307",
        "contact:facebook": "portillos.hotdog",
        "contact:instagram": "portilloshotdogs",
        "contact:twitter": "portilloshotdog",
        "cuisine": "burger;cake;hotdog",
        "internet_access": "wlan",
        "level": "0",
        "name": "Portillo's",
        "opening_hours": "Su-Th 10:00-22:30; Fr-Sa 10:00-23:00",
        "phone": "+1 951 653 1000",
        "self_service": "no",
        "source": "local_knowledge",
        "takeaway": "yes",
        "website": "https://www.portillos.com/index.html",
        "website:menu": "https://order.portillos.com/menu/portillos-moreno-valley"
      },
      "geometry": {
        "type": "Point",
        "coordinates": [
          -117.2782729,
          33.9345215
        ]
      },
      "id": "node/8581373015"
    },
    {
      "type": "Feature",
      "properties": {
        "@id": "node/8584566814",
        "addr:city": "Brandon",
        "addr:country": "US",
        "addr:county": "Hillsborough, FL",
        "addr:housenumber": "1748",
        "addr:postcode": "33511",
        "addr:state": "FL",
        "addr:street": "West Brandon Boulevard",
        "amenity": "fast_food",
        "brand": "Portillo's",
        "brand:wikidata": "Q3399307",
        "cuisine": "hot_dog;burger",
        "name": "Portillo's",
        "opening_hours": "Mo-Su 10:30-22:00",
        "phone": "+1 813 210 8190",
        "takeaway": "yes",
        "website": "https://www.portillos.com/locations/brandon/"
      },
      "geometry": {
        "type": "Point",
        "coordinates": [
          -82.3118126,
          27.9381788
        ]
      },
      "id": "node/8584566814"
    },
    {
      "type": "Feature",
      "properties": {
        "@id": "node/8584583403",
        "addr:city": "Tampa",
        "addr:country": "US",
        "addr:county": "Hillsborough, FL",
        "addr:housenumber": "2102",
        "addr:postcode": "33612",
        "addr:state": "FL",
        "addr:street": "East Fowler Avenue",
        "amenity": "fast_food",
        "brand": "Portillo's",
        "brand:wikidata": "Q3399307",
        "cuisine": "hot_dog;burger",
        "name": "Portillo's",
        "opening_hours": "Mo-Su 10:30-22:00",
        "phone": "+1 813 540 9001",
        "takeaway": "yes",
        "website": "https://www.portillos.com/locations/tampa/"
      },
      "geometry": {
        "type": "Point",
        "coordinates": [
          -82.438426,
          28.0551659
        ]
      },
      "id": "node/8584583403"
    },
    {
      "type": "Feature",
      "properties": {
        "@id": "node/8587200617",
        "addr:city": "Avon",
        "addr:country": "US",
        "addr:county": "Hendricks, IN",
        "addr:housenumber": "10444",
        "addr:postcode": "46123",
        "addr:state": "IN",
        "addr:street": "East US Highway 36",
        "amenity": "fast_food",
        "brand": "Portillo's",
        "brand:wikidata": "Q3399307",
        "cuisine": "hot_dog;burger",
        "name": "Portillo's",
        "opening_hours": "Mo-Su 10:30-22:00",
        "phone": "+1 317 766 9955",
        "takeaway": "yes",
        "website": "https://www.portillos.com/locations/avon/"
      },
      "geometry": {
        "type": "Point",
        "coordinates": [
          -86.3375274,
          39.7661222
        ]
      },
      "id": "node/8587200617"
    },
    {
      "type": "Feature",
      "properties": {
        "@id": "node/10179031687",
        "addr:city": "Westfield",
        "addr:housenumber": "870",
        "addr:postcode": "46074",
        "addr:state": "IN",
        "addr:street": "IN-32",
        "amenity": "fast_food",
        "brand": "Portillo's",
        "brand:wikidata": "Q3399307",
        "check_date": "2026-09-14",
        "cuisine": "hot_dog;burger",
        "name": "Portillo's",
        "takeaway": "yes"
      },
      "geometry": {
        "type": "Point",
        "coordinates": [
          -86.1425082,
          40.0433125
        ]
      },
      "id": "node/10179031687"
    },
    {
      "type": "Feature",
      "properties": {
        "@id": "node/11334723306",
        "addr:city": "Kissimmee",
        "addr:housenumber": "8041",
        "addr:postcode": "34747",
        "addr:state": "FL",
        "addr:street": "West Irlo Bronson Memorial Highway",
        "amenity": "fast_food",
        "brand": "Portillo's",
        "brand:wikidata": "Q3399307",
        "cuisine": "hot_dog;burger",
        "name": "Portillo's",
        "takeaway": "yes"
      },
      "geometry": {
        "type": "Point",
        "coordinates": [
          -81.6098383,
          28.3476595
        ]
      },
      "id": "node/11334723306"
    },
    {
      "type": "Feature",
      "properties": {
        "@id": "node/11990840074",
        "amenity": "fast_food",
        "brand": "Portillo's",
        "brand:wikidata": "Q3399307",
        "cuisine": "hot_dog;burger",
        "name": "Portillo's",
        "takeaway": "yes"
      },
      "geometry": {
        "type": "Point",
        "coordinates": [
          -92.9358309,
          44.9445078
        ]
      },
      "id": "node/11990840074"
    },
    {
      "type": "Feature",
      "properties": {
        "@id": "node/12289138297",
        "addr:housenumber": "4560",
        "addr:street": "Destination Drive",
        "amenity": "fast_food",
        "brand": "Portillo's",
        "brand:wikidata": "Q3399307",
        "check_date": "2025-09-20",
        "cuisine": "hot_dog;burger",
        "indoor_seating": "yes",
        "name": "Portillo's",
        "outdoor_seating": "yes",
        "takeaway": "yes"
      },
      "geometry": {
        "type": "Point",
        "coordinates": [
          -96.8571186,
          33.0792757
        ]
      },
      "id": "node/12289138297"
    },
    {
      "type": "Feature",
      "properties": {
        "@id": "node/12871898211",
        "amenity": "fast_food",
        "brand": "Portillo's",
        "brand:wikidata": "Q3399307",
        "cuisine": "hot_dog;burger",
        "name": "Portillo's",
        "opening_hours": "Fr,Sa 10:00-24:00, Su-Th 10:00-22:30",
        "takeaway": "yes"
      },
      "geometry": {
        "type": "Point",
        "coordinates": [
          -82.7292624,
          27.7923952
        ]
      },
      "id": "node/12871898211"
    },
    {
      "type": "Feature",
      "properties": {
        "@id": "node/13414360359",
        "addr:city": "Dallas",
        "addr:housenumber": "13904",
        "addr:state": "TX",
        "addr:street": "Dallas Parkway",
        "amenity": "fast_food",
        "brand": "Portillo's",
        "brand:wikidata": "Q3399307",
        "cuisine": "hot_dog;burger",
        "name": "Portillo's",
        "takeaway": "yes"
      },
      "geometry": {
        "type": "Point",
        "coordinates": [
          -96.82133,
          32.9366561
        ]
      },
      "id": "node/13414360359"
    },
    {
      "type": "Feature",
      "properties": {
        "@id": "node/13452753520",
        "amenity": "fast_food",
        "brand": "Portillo's",
        "brand:wikidata": "Q3399307",
        "cuisine": "hot_dog;burger",
        "name": "Portillo's",
        "takeaway": "yes"
      },
      "geometry": {
        "type": "Point",
        "coordinates": [
          -110.9126191,
          32.2220003
        ]
      },
      "id": "node/13452753520"
    },
    {
      "type": "Feature",
      "properties": {
        "@id": "node/13825985001",
        "amenity": "fast_food",
        "brand": "Portillo's",
        "brand:wikidata": "Q3399307",
        "cuisine": "hot_dog;burger",
        "name": "Portillo's",
        "takeaway": "yes"
      },
      "geometry": {
        "type": "Point",
        "coordinates": [
          -95.2653614,
          30.0058343
        ]
      },
      "id": "node/13825985001"
    }
  ]
}