{
  "type": "FeatureCollection",
  "generator": "overpass-turbo",
  "copyright": "The data included in this document is from www.openstreetmap.org. The data is made available under ODbL.",
  "timestamp": "2026-09-25T04:30:36Z",
  "features": [
    {
      "type": "Feature",
      "properties": {
        "@id": "node/277840140",
        "addr:city": "San Diego",
        "addr:country": "US",
        "addr:housenumber": "8861",
        "addr:postcode": "92037",
        "addr:state": "CA",
        "addr:street": "Villa La Jolla Drive",
        "amenity": "restaurant",
        "brand": "Snooze",
        "brand:wikidata": "Q111304345",
        "check_date": "2026-06-27",
        "cuisine": "breakfast",
        "name": "Snooze",
        "official_name": "Snooze, an A.M. Eatery",
        "phone": "+1-858-483-5556",
        "website": "https://www.snoozeeatery.com/restaurant/california/la-jolla"
      },
      "geometry": {
        "type": "Point",
        "coordinates": [
          -117.232496,
          32.8693375
        ]
      },
      "id": "node/277840140"
    },
    {
      "type": "Feature",
      "properties": {
        "@id": "way/444490831",
        "addr:city": "Tustin",
        "addr:housenumber": "3032",
        "addr:postcode": "92782",
        "addr:state": "CA",
        "addr:street": "El Camino Real",
        "amenity": "restaurant",
        "bar": "yes",
        "branch": "an A M Eatery",
        "brand": "Snooze",
        "brand:wikidata": "Q111304345",
        "building": "retail",
        "building:levels": "1",
        "check_date": "2026-01-16",
        "cuisine": "breakfast",
        "diet:gluten_free": "yes",
        "name": "Snooze",
        "official_name": "Snooze, an A.M. Eatery",
        "outdoor_seating": "yes",
        "@geometry": "center"
      },
      "geometry": {
        "type": "Point",
        "coordinates": [
          -117.7935053,
          33.7222658
        ]
      },
      "id": "way/444490831"
    },
    {
      "type": "Feature",
      "properties": {
        "@id": "way/516050260",
        "addr:city": "Gilbert",
        "addr:housenumber": "310",
        "addr:postcode": "85234",
        "addr:state": "AZ",
        "addr:street": "North Gilbert Road",
        "amenity": "restaurant",
        "branch": "an A M  Eatery",
        "brand": "Snooze",
        "brand:wikidata": "Q111304345",
        "building": "yes",
        "cuisine": "breakfast",
        "name": "Snooze",
        "official_name": "Snooze, an A.M. Eatery",
        "website": "https://snoozeeatery.com",
        "@geometry": "center"
      },
      "geometry": {
        "type": "Point",
        "coordinates": [
          -111.7900825,
          33.3554556
        ]
      },
      "id": "way/516050260"
    },
    {
      "type": "Feature",
      "properties": {
        "@id": "way/878782680",
        "amenity": "restaurant",
        "brand": "Snooze",
        "brand:wikidata": "Q111304345",
        "building": "yes",
        "building:levels": "1",
        "cuisine": "breakfast",
        "name": "Snooze",
        "official_name": "Snooze, an A.M. Eatery",
        "@geometry": "center"
      },
      "geometry": {
        "type": "Point",
        "coordinates": [
          -110.9350473,
          32.249809
        ]
      },
      "id": "way/878782680"
    },
    {
      "type": "Feature",
      "properties": {
        "@id": "way/993412946",
        "addr:housenumber": "718",
        "addr:street": "West 18th Street",
        "addr:unit": "A",
        "amenity": "restaurant",
        "brand": "Snooze",
        "brand:wikidata": "Q111304345",
        "building": "yes",
        "check_date": "2024-10-03",
        "cuisine": "breakfast",
        "name": "Snooze",
        "official_name": "Snooze, an A.M. Eatery",
        "opening_hours": "Mo-Su 06:30-14:30; PH closed",
        "outdoor_seating": "yes",
        "payment:american_express": "yes",
        "payment:discover_card": "yes",
        "payment:mastercard": "yes",
        "payment:visa": "yes",
        "takeaway": "yes",
        "wheelchair": "yes",
        "@geometry": "center"
      },
      "geometry": {
        "type": "Point",
        "coordinates": [
          -95.4103309,
          29.8015726
        ]
      },
      "id": "way/993412946"
    },
    {
      "type": "Feature",
      "properties": {
        "@id": "way/1194279537",
        "addr:city": "Kansas City",
        "addr:housenumber": "4144",
        "addr:postcode": "64111",
        "addr:state": "MO",
        "addr:street": "Broadway Boulevard",
        "amenity": "restaurant",
        "brand": "Snooze",
        "brand:wikidata": "Q111304345",
        "building": "yes",
        "cuisine": "breakfast",
        "diet:gluten_free": "yes",
        "name": "Snooze",
        "official_name": "Snooze, an A.M. Eatery",
        "opening_hours": "Mo-Fr 06:30-14:30; Sa-Su 06:30-16:00",
        "phone": "+1-816-601-3500",
        "website": "https://www.snoozeeatery.com/",
        "@geometry": "center"
      },
      "geometry": {
        "type": "Point",
        "coordinates": [
          -94.5896515,
          39.0516913
        ]
      },
      "id": "way/1194279537"
    },
    {
      "type": "Feature",
      "properties": {
        "@id": "node/1844546299",
        "addr:city": "Boulder",
        "addr:housenumber": "1617",
        "addr:postcode": "80302",
        "addr:street": "Pearl Street",
        "amenity": "restaurant",
        "brand": "Snooze",
        "brand:wikidata": "Q111304345",
        "cuisine": "breakfast",
        "name": "Snooze",
        "official_name": "Snooze, an A.M. Eatery",
        "opening_hours": "Mo-Fr 07:00-15:00; Sa,Su 07:00-16:00",
        "website": "https://www.snoozeeatery.com/restaurant/colorado/boulder/"
      },
      "geometry": {
        "type": "Point",
        "coordinates": [
          -105.274247,
          40.0192128
        ]
      },
      "id": "node/1844546299"
    },
    {
      "type": "Feature",
      "properties": {
        "@id": "node/2000619514",
        "addr:city": "Denver",
        "addr:housenumber": "700",
        "addr:postcode": "80206",
        "addr:state": "CO",
        "addr:street": "Colorado Boulevard",
        "amenity": "restaurant",
        "branch": "AM Eatery",
        "brand": "Snooze",
        "brand:wikidata": "Q111304345",
        "cuisine": "breakfast",
        "name": "Snooze",
        "official_name": "Snooze, an A.M. Eatery",
        "opening_hours": "Mo-Fr 06:30-14:30; Sa,Su 06:30-15:30",
        "phone": "+1-303-736-6200",
        "website": "https://snoozeeatery.com/"
      },
      "geometry": {
        "type": "Point",
        "coordinates": [
          -104.940429,
          39.727554
        ]
      },
      "id": "node/2000619514"
    },
    {
      "type": "Feature",
      "properties": {
        "@id": "node/4639135648",
        "amenity": "restaurant",
        "brand": "Snooze",
        "brand:wikidata": "Q111304345",
        "cuisine": "breakfast",
        "internet_access": "wlan",
        "name": "Snooze",
        "official_name": "Snooze, an A.M. Eatery",
        "opening_hours": "Mo-Fr 06:30-14:30; Sa-Su 06:30-16:00",
        "outdoor_seating": "yes",
        "phone": "+1-512-428-8444",
        "website": "https://snoozeeatery.com/"
      },
      "geometry": {
        "type": "Point",
        "coordinates": [
          -97.7659325,
          30.2508607
        ]
      },
      "id": "node/4639135648"
    },
    {
      "type": "Feature",
      "properties": {
        "@id": "node/4709189172",
        "addr:city": "Denver",
        "addr:housenumber": "2262",
        "addr:postcode": "80205",
        "addr:state": "CO",
        "addr:street": "Larimer Street",
        "amenity": "restaurant",
        "brand": "Snooze",
        "brand:wikidata": "Q111304345",
        "cuisine": "breakfast",
        "name": "Snooze",
        "official_name": "Snooze, an A.M. Eatery"
      },
      "geometry": {
        "type": "Point",
        "coordinates": [
          -104.988994,
          39.7555554
        ]
      },
      "id": "node/4709189172"
    },
    {
      "type": "Feature",
      "properties": {
        "@id": "node/4716174442",
        "air_conditioning": "yes",
        "amenity": "restaurant",
        "brand": "Snooze",
        "brand:wikidata": "Q111304345",
        "cuisine": "breakfast",
        "name": "Snooze",
        "official_name": "Snooze, an A.M. Eatery",
        "opening_hours": "Mo-Su 06:30-14:30"
      },
      "geometry": {
        "type": "Point",
        "coordinates": [
          -111.934742,
          33.4237521
        ]
      },
      "id": "node/4716174442"
    },
    {
      "type": "Feature",
      "properties": {
        "@id": "node/5102231222",
        "addr:city": "San Diego",
        "addr:housenumber": "394 5th Ave",
        "addr:postcode": "92103",
        "addr:state": "CA",
        "addr:street": "5th Avenue",
        "amenity": "restaurant",
        "brand": "Snooze",
        "brand:wikidata": "Q111304345",
        "cuisine": "breakfast",
        "image": "https://www.snoozeeatery.com/wp-content/uploads/2019/09/Hillcrest_exterior.jpg",
        "name": "Snooze",
        "official_name": "Snooze, an A.M. Eatery",
        "opening_hours": "Mo-Fr 06:30-14:30",
        "opening_hours:signed": "Sa-So 06:30-16:00",
        "phone": "+1-619-500-3344",
        "website": "https://www.snoozeeatery.com/"
      },
      "geometry": {
        "type": "Point",
        "coordinates": [
          -117.160725,
          32.7491489
        ]
      },
      "id": "node/5102231222"
    },
    {
      "type": "Feature",
      "properties": {
        "@id": "node/5465041535",
        "addr:city": "Austin",
        "addr:housenumber": "3800",
        "addr:postcode": "78756",
        "addr:state": "TX",
        "addr:street": "North Lamar Boulevard",
        "addr:unit": "120",
        "amenity": "restaurant",
        "branch": "An A M  Earery",
        "brand": "Snooze",
        "brand:wikidata": "Q111304345",
        "cuisine": "breakfast",
        "delivery": "no",
        "name": "Snooze",
        "official_name": "Snooze, an A.M. Eatery",
        "opening_hours": "Mo-Su 06:30-14:30",
        "outdoor_seating": "yes",
        "takeaway": "yes"
      },
      "geometry": {
        "type": "Point",
        "coordinates": [
          -97.7434574,
          30.3056313
        ]
      },
      "id": "node/5465041535"
    },
    {
      "type": "Feature",
      "properties": {
        "@id": "node/5999514986",
        "addr:city": "Fort Collins",
        "addr:housenumber": "144",
        "addr:postcode": "80524",
        "addr:street": "West Mountain Avenue",
        "amenity": "restaurant",
        "brand": "Snooze",
        "brand:wikidata": "Q111304345",
        "cuisine": "breakfast",
        "internet_access": "wlan",
        "name": "Snooze",
        "official_name": "Snooze, an A.M. Eatery",
        "opening_hours": "Mo-Su 06:30-14:30",
        "phone": "+1 970 482 9253",
        "website": "https://snoozeeatery.com/"
      },
      "geometry": {
        "type": "Point",
        "coordinates": [
          -105.0780158,
          40.5872718
        ]
      },
      "id": "node/5999514986"
    },
    {
      "type": "Feature",
      "properties": {
        "@id": "node/6050508770",
        "addr:city": "Phoenix",
        "addr:housenumber": "4901",
        "addr:postcode": "85044",
        "addr:state": "AZ",
        "addr:street": "East Ray Road",
        "amenity": "restaurant",
        "brand": "Snooze",
        "brand:wikidata": "Q111304345",
        "cuisine": "breakfast",
        "diet:vegan": "yes",
        "diet:vegetarian": "yes",
        "name": "Snooze",
        "official_name": "Snooze, an A.M. Eatery",
        "opening_hours": "Mo-Fr 06:30-14:30; Sa-Su 06:30-15:30",
        "phone": "+1 480-893-7638",
        "source": "esri/USA_NAD_Addresses",
        "website": "https://www.snoozeeatery.com/restaurant/arizona/ahwatukee"
      },
      "geometry": {
        "type": "Point",
        "coordinates": [
          -111.977676,
          33.3193572
        ]
      },
      "id": "node/6050508770"
    },
    {
      "type": "Feature",
      "properties": {
        "@id": "node/7101986144",
        "addr:city": "Phoenix",
        "addr:housenumber": "800",
        "addr:postcode": "85004",
        "addr:state": "AZ",
        "addr:street": "North Central Avenue",
        "addr:unit": "3",
        "amenity": "restaurant",
        "bar": "yes",
        "branch": "an A M Eatery",
        "brand": "Snooze",
        "brand:wikidata": "Q111304345",
        "cuisine": "breakfast",
        "diet:vegan": "yes",
        "diet:vegetarian": "yes",
        "name": "Snooze",
        "official_name": "Snooze, an A.M. Eatery",
        "opening_hours": "Mo-Su 06:30-14:30",
        "phone": "+1-602-675-9950",
        "website": "https://snoozeeatery.com/"
      },
      "geometry": {
        "type": "Point",
        "coordinates": [
          -112.074059,
          33.456832
        ]
      },
      "id": "node/7101986144"
    },
    {
      "type": "Feature",
      "properties": {
        "@id": "node/7111054191",
        "addr:city": "Austin",
        "addr:housenumber": "1109",
        "addr:postcode": "78702",
        "addr:state": "TX",
        "addr:street": "East 5th Street",
        "addr:unit": "180",
        "amenity": "restaurant",
        "brand": "Snooze",
        "brand:wikidata": "Q111304345",
        "contact:facebook": "https://www.facebook.com/EatSnooze",
        "contact:instagram": "https://www.instagram.com/eatsnooze/",
        "cuisine": "breakfast",
        "description": "American restaurant chain specializing in breakfast food",
        "internet_access": "wlan",
        "name": "Snooze",
        "official_name": "Snooze, an A.M. Eatery",
        "opening_hours": "Mo-Fr 06:30-14:30; Sa-Su 06:30-16:00",
        "website": "https://www.snoozeeatery.com/",
        "website:menu": "https://www.snoozeeatery.com/menu"
      },
      "geometry": {
        "type": "Point",
        "coordinates": [
          -97.7311464,
          30.2633947
        ]
      },
      "id": "node/7111054191"
    },
    {
      "type": "Feature",
      "properties": {
        "@id": "node/7804521302",
        "addr:city": "Lone Tree",
        "addr:housenumber": "10002",
        "addr:postcode": "80124",
        "addr:state": "CO",
        "addr:street": "Commons Street",
        "amenity": "restaurant",
        "brand": "Snooze",
        "brand:wikidata": "Q111304345",
        "check_date": "2023-11-03",
        "cuisine": "breakfast",
        "name": "Snooze",
        "official_name": "Snooze, an A.M. Eatery",
        "phone": "+1-720-583-6819",
        "website": "https://www.snoozeeatery.com/restaurant/colorado/lone-tree/"
      },
      "geometry": {
        "type": "Point",
        "coordinates": [
          -104.879102,
          39.5353113
        ]
      },
      "id": "node/7804521302"
    },
    {
      "type": "Feature",
      "properties": {
        "@id": "node/7936364078",
        "addr:unit": "846",
        "amenity": "restaurant",
        "branch": "A M  Eatery",
        "brand": "Snooze",
        "brand:wikidata": "Q111304345",
        "cuisine": "breakfast",
        "indoor_seating": "yes",
        "name": "Snooze",
        "official_name": "Snooze, an A.M. Eatery",
        "opening_hours": "Mo-Fr 06:30-14:30; Sa-Su 06:30-16:00",
        "outdoor_seating": "no"
      },
      "geometry": {
        "type": "Point",
        "coordinates": [
          -96.7676645,
          32.8815583
        ]
      },
      "id": "node/7936364078"
    },
    {
      "type": "Feature",
      "properties": {
        "@id": "node/9008993748",
        "amenity": "restaurant",
        "brand": "Snooze",
        "brand:wikidata": "Q111304345",
        "cuisine": "breakfast",
        "name": "Snooze",
        "official_name": "Snooze, an A.M. Eatery"
      },
      "geometry": {
        "type": "Point",
        "coordinates": [
          -98.4799307,
          29.4938406
        ]
      },
      "id": "node/9008993748"
    },
    {
      "type": "Feature",
      "properties": {
        "@id": "node/9937557448",
        "addr:city": "Colorado Springs",
        "addr:housenumber": "7587",
        "addr:postcode": "80920",
        "addr:state": "CO",
        "addr:street": "North Academy Boulevard",
        "addr:unit": "120",
        "amenity": "restaurant",
        "branch": "Snooze North Academy",
        "brand": "Snooze",
        "brand:wikidata": "Q111304345",
        "check_date": "2025-11-17",
        "contact:facebook": "https://www.facebook.com/EatSnooze",
        "cuisine": "breakfast",
        "name": "Snooze",
        "official_name": "Snooze, an A.M. Eatery",
        "opening_hours": "Mo-Fr 06:30-14:30; Sa-Su 06:30-15:30",
        "phone": "+1-719-694-1360",
        "website": "https://www.snoozeeatery.com/restaurant/colorado/colorado-springs/",
        "website:menu": "https://www.snoozeeatery.com/menu"
      },
      "geometry": {
        "type": "Point",
        "coordinates": [
          -104.7980226,
          38.9407766
        ]
      },
      "id": "node/9937557448"
    },
    {
      "type": "Feature",
      "properties": {
        "@id": "node/10298931490",
        "addr:city": "Phoenix",
        "addr:housenumber": "2045",
        "addr:state": "AZ",
        "addr:street": "East Camelback Road",
        "addr:unit": "A17",
        "air_conditioning": "yes",
        "amenity": "restaurant",
        "bar": "yes",
        "brand": "Snooze",
        "brand:wikidata": "Q111304345",
        "check_date": "2023-01-01",
        "cuisine": "breakfast",
        "diet:gluten_free": "yes",
        "diet:vegan": "yes",
        "diet:vegetarian": "yes",
        "name": "Snooze",
        "official_name": "Snooze, an A.M. Eatery",
        "opening_hours": "Mo-Fr 06:30-14:30; Sa-Su 06:30-15:30",
        "outdoor_seating": "yes",
        "payment:mastercard": "yes",
        "payment:visa": "yes",
        "phone": "+1 480-725-8000",
        "website": "https://www.snoozeeatery.com/",
        "wheelchair": "yes"
      },
      "geometry": {
        "type": "Point",
        "coordinates": [
          -112.0370668,
          33.5082179
        ]
      },
      "id": "node/10298931490"
    },
    {
      "type": "Feature",
      "properties": {
        "@id": "node/10747476420",
        "amenity": "restaurant",
        "brand": "Snooze",
        "brand:wikidata": "Q111304345",
        "cuisine": "breakfast",
        "name": "Snooze",
        "official_name": "Snooze, an A.M. Eatery"
      },
      "geometry": {
        "type": "Point",
        "coordinates": [
          -111.8945585,
          33.5827617
        ]
      },
      "id": "node/10747476420"
    },
    {
      "type": "Feature",
      "properties": {
        "@id": "node/11192122058",
        "addr:city": "Centennial",
        "addr:housenumber": "6781",
        "addr:postcode": "80122",
        "addr:state": "CO",
        "addr:street": "South York Street",
        "addr:unit": "Unit 515",
        "amenity": "restaurant",
        "bar": "yes",
        "brand": "Snooze",
        "brand:wikidata": "Q111304345",
        "check_date": "2025-06-13",
        "cuisine": "breakfast",
        "name": "Snooze",
        "official_name": "Snooze, an A.M. Eatery",
        "opening_hours": "Mo-Fr 06:30-14:30; Sa-Su 06:30-15:30",
        "outdoor_seating": "yes",
        "phone": "+1-303-734-9655",
        "reservation": "recommended",
        "website": "https://www.snoozeeatery.com/restaurant/colorado/centennial-co"
      },
      "geometry": {
        "type": "Point",
        "coordinates": [
          -104.9617539,
          39.5932456
        ]
      },
      "id": "node/11192122058"
    },
    {
      "type": "Feature",
      "properties": {
        "@id": "node/11295716757",
        "addr:housenumber": "4600",
        "addr:street": "Roswell Road Northeast",
        "addr:unit": "G-100",
        "amenity": "restaurant",
        "brand": "Snooze",
        "brand:wikidata": "Q111304345",
        "breakfast": "yes",
        "check_date": "2023-10-28",
        "cuisine": "breakfast",
        "diet:vegan": "yes",
        "diet:vegetarian": "yes",
        "name": "Snooze",
        "official_name": "Snooze, an A.M. Eatery",
        "opening_hours": "Mo-Fr 07:00-14:30; Sa-Su 07:00-16:00",
        "payment:cash": "yes",
        "payment:mastercard": "yes",
        "payment:visa": "yes",
        "phone": "+1 470-571-3880",
        "website": "https://www.snoozeeatery.com/restaurant/georgia/north-buckhead/",
        "wheelchair": "yes"
      },
      "geometry": {
        "type": "Point",
        "coordinates": [
          -84.380913,
          33.8797098
        ]
      },
      "id": "node/11295716757"
    },
    {
      "type": "Feature",
      "properties": {
        "@id": "node/11627479337",
        "amenity": "restaurant",
        "brand": "Snooze",
        "brand:wikidata": "Q111304345",
        "cuisine": "breakfast",
        "name": "Snooze",
        "official_name": "Snooze, an A.M. Eatery"
      },
      "geometry": {
        "type": "Point",
        "coordinates": [
          -80.8155871,
          35.2210201
        ]
      },
      "id": "node/11627479337"
    },
    {
      "type": "Feature",
      "properties": {
        "@id": "node/11753779472",
        "addr:floor": "G",
        "amenity": "restaurant",
        "brand": "Snooze",
        "brand:wikidata": "Q111304345",
        "check_date": "2025-08-23",
        "cuisine": "breakfast",
        "level": "0",
        "name": "Snooze",
        "official_name": "Snooze, an A.M. Eatery",
        "payment:cash": "yes",
        "payment:mastercard": "yes",
        "payment:visa": "yes",
        "wheelchair": "yes"
      },
      "geometry": {
        "type": "Point",
        "coordinates": [
          -84.2872042,
          34.0488228
        ]
      },
      "id": "node/11753779472"
    },
    {
      "type": "Feature",
      "properties": {
        "@id": "node/11783573081",
        "addr:floor": "G;1",
        "addr:housenumber": "2973",
        "addr:street": "Cobb Parkway South",
        "addr:unit": "100",
        "amenity": "restaurant",
        "brand": "Snooze",
        "brand:wikidata": "Q111304345",
        "check_date": "2026-06-06",
        "cuisine": "breakfast",
        "diet:vegetarian": "yes",
        "internet_access": "wlan",
        "internet_access:fee": "customers",
        "level": "0;1",
        "name": "Snooze",
        "official_name": "Snooze, an A.M. Eatery",
        "opening_hours": "Mo-Fr 07:00-14:30; Sa 07:00-16:00; Su off",
        "payment:cash": "yes",
        "payment:credit_cards": "yes",
        "payment:debit_cards": "yes",
        "phone": "+1 470-924-1880",
        "website": "https://www.snoozeeatery.com/restaurant/georgia/cumberland/",
        "wheelchair": "yes"
      },
      "geometry": {
        "type": "Point",
        "coordinates": [
          -84.461501,
          33.8810785
        ]
      },
      "id": "node/11783573081"
    },
    {
      "type": "Feature",
      "properties": {
        "@id": "node/11809940752",
        "addr:city": "Dallas",
        "addr:housenumber": "5100",
        "addr:postcode": "75254",
        "addr:state": "TX",
        "addr:street": "Belt Line Road",
        "addr:unit": "824",
        "amenity": "restaurant",
        "brand": "Snooze",
        "brand:wikidata": "Q111304345",
        "cuisine": "breakfast",
        "name": "Snooze",
        "official_name": "Snooze, an A.M. Eatery"
      },
      "geometry": {
        "type": "Point",
        "coordinates": [
          -96.8212126,
          32.9522458
        ]
      },
      "id": "node/11809940752"
    },
    {
      "type": "Feature",
      "properties": {
        "@id": "node/11875386257",
        "amenity": "restaurant",
        "brand": "Snooze",
        "brand:wikidata": "Q111304345",
        "cuisine": "breakfast",
        "name": "Snooze",
        "official_name": "Snooze, an A.M. Eatery"
      },
      "geometry": {
        "type": "Point",
        "coordinates": [
          -80.8269676,
          35.1523062
        ]
      },
      "id": "node/11875386257"
    },
    {
      "type": "Feature",
      "properties": {
        "@id": "node/12002542402",
        "addr:city": "Dallas",
        "addr:housenumber": "3211",
        "addr:postcode": "75219",
        "addr:state": "TX",
        "addr:street": "Oak Lawn Avenue",
        "air_conditioning": "yes",
        "amenity": "restaurant",
        "bar": "yes",
        "brand": "Snooze",
        "brand:wikidata": "Q111304345",
        "cuisine": "breakfast",
        "delivery": "yes",
        "diet:dairy_free": "yes",
        "diet:healthy": "yes",
        "diet:lacto_vegetarian": "yes",
        "diet:meat": "yes",
        "diet:non-vegetarian": "yes",
        "diet:ovo_vegetarian": "yes",
        "diet:vegan": "yes",
        "diet:vegetarian": "yes",
        "name": "Snooze",
        "official_name": "Snooze, an A.M. Eatery",
        "opening_hours": "Mo-Fr 06:30-14:30; Sa-Su 06:30-16:00",
        "outdoor_seating": "yes",
        "phone": "+14694807250",
        "takeaway": "yes",
        "toilets": "yes",
        "website": "https://www.snoozeeatery.com/restaurant/texas/oak-lawn-avenue-2/",
        "website:menu": "https://www.snoozeeatery.com/menu/restaurant/oak-lawn-avenue-2/"
      },
      "geometry": {
        "type": "Point",
        "coordinates": [
          -96.8084175,
          32.8102027
        ]
      },
      "id": "node/12002542402"
    },
    {
      "type": "Feature",
      "properties": {
        "@id": "node/12097995595",
        "amenity": "restaurant",
        "brand": "Snooze",
        "brand:wikidata": "Q111304345",
        "check_date": "2024-08-10",
        "cuisine": "breakfast",
        "name": "Snooze",
        "official_name": "Snooze, an A.M. Eatery",
        "outdoor_seating": "yes"
      },
      "geometry": {
        "type": "Point",
        "coordinates": [
          -83.9935516,
          34.0514817
        ]
      },
      "id": "node/12097995595"
    },
    {
      "type": "Feature",
      "properties": {
        "@id": "node/12177511387",
        "amenity": "restaurant",
        "brand": "Snooze",
        "brand:wikidata": "Q111304345",
        "check_date": "2024-09-14",
        "cuisine": "breakfast",
        "name": "Snooze",
        "official_name": "Snooze, an A.M. Eatery"
      },
      "geometry": {
        "type": "Point",
        "coordinates": [
          -84.4112776,
          33.7813446
        ]
      },
      "id": "node/12177511387"
    },
    {
      "type": "Feature",
      "properties": {
        "@id": "node/12326670941",
        "addr:city": "Arvada",
        "addr:housenumber": "7240",
        "addr:postcode": "80002",
        "addr:state": "CO",
        "addr:street": "W 56th Ave",
        "addr:unit": "100",
        "amenity": "restaurant",
        "brand": "Snooze",
        "brand:wikidata": "Q111304345",
        "check_date:opening_hours": "2026-01-20",
        "cuisine": "breakfast",
        "delivery": "yes",
        "name": "Snooze",
        "official_name": "Snooze, an A.M. Eatery",
        "opening_hours": "Mo-Fr 06:30-14:30; Sa-Su 06:30-15:00",
        "outdoor_seating": "yes",
        "phone": "+1-720-994-8650",
        "takeaway": "yes",
        "website": "https://www.snoozeeatery.com/restaurant/colorado/arvada/"
      },
      "geometry": {
        "type": "Point",
        "coordinates": [
          -105.0774074,
          39.7982039
        ]
      },
      "id": "node/12326670941"
    },
    {
      "type": "Feature",
      "properties": {
        "@id": "node/12393826020",
        "addr:city": "Nashville",
        "addr:housenumber": "969",
        "addr:postcode": "37206",
        "addr:state": "TN",
        "addr:street": "Main Street",
        "amenity": "restaurant",
        "brand": "Snooze",
        "brand:wikidata": "Q111304345",
        "cuisine": "breakfast",
        "name": "Snooze",
        "official_name": "Snooze, an A.M. Eatery",
        "opening_hours": "Mo-Fr 06:30-14:30; Sa-Su 06:30-15:30",
        "phone": "+1-615-314-5600",
        "website": "https://www.snoozeeatery.com/restaurant/tennessee/east-nashville/"
      },
      "geometry": {
        "type": "Point",
        "coordinates": [
          -86.7526275,
          36.1780313
        ]
      },
      "id": "node/12393826020"
    },
    {
      "type": "Feature",
      "properties": {
        "@id": "node/12639010523",
        "amenity": "restaurant",
        "branch": "Eatery",
        "brand": "Snooze",
        "brand:wikidata": "Q111304345",
        "check_date": "2025-03-03",
        "contact:phone": "+1 303-342-6612",
        "contact:website": "https://www.snoozeeatery.com/restaurant/colorado/denver-international-airport/",
        "cuisine": "breakfast",
        "indoor": "yes",
        "level": "3",
        "name": "Snooze",
        "official_name": "Snooze, an A.M. Eatery",
        "opening_hours": "06:00-22:00",
        "source:opening_hours": "DIA website"
      },
      "geometry": {
        "type": "Point",
        "coordinates": [
          -104.6739578,
          39.8584383
        ]
      },
      "id": "node/12639010523"
    },
    {
      "type": "Feature",
      "properties": {
        "@id": "node/12844709937",
        "amenity": "restaurant",
        "brand": "Snooze",
        "brand:wikidata": "Q111304345",
        "cuisine": "breakfast",
        "name": "Snooze",
        "official_name": "Snooze, an A.M. Eatery"
      },
      "geometry": {
        "type": "Point",
        "coordinates": [
          -117.8551077,
          33.7877177
        ]
      },
      "id": "node/12844709937"
    },
    {
      "type": "Feature",
      "properties": {
        "@id": "node/13125416756",
        "addr:city": "Charlotte",
        "addr:housenumber": "2041",
        "addr:postcode": "28203",
        "addr:state": "NC",
        "addr:street": "South Boulevard",
        "addr:unit": "106",
        "amenity": "restaurant",
        "brand": "Snooze",
        "brand:wikidata": "Q111304345",
        "cuisine": "breakfast",
        "name": "Snooze",
        "official_name": "Snooze, an A.M. Eatery",
        "opening_hours": "Mo-Fr 06:30-14:30; Sa-Su 06:30-16:00",
        "phone": "+1-980-701-9600",
        "website": "https://www.snoozeeatery.com"
      },
      "geometry": {
        "type": "Point",
        "coordinates": [
          -80.8598578,
          35.2083877
        ]
      },
      "id": "node/13125416756"
    },
    {
      "type": "Feature",
      "properties": {
        "@id": "node/13673306356",
        "addr:city": "Denver",
        "addr:housenumber": "1701",
        "addr:postcode": "80202",
        "addr:state": "CO",
        "addr:street": "Wynkoop Street",
        "amenity": "restaurant",
        "brand": "Snooze",
        "brand:wikidata": "Q111304345",
        "cuisine": "breakfast",
        "indoor": "room",
        "level": "0",
        "name": "Snooze",
        "official_name": "Snooze, an A.M. Eatery",
        "room": "retail",
        "toilets:wheelchair": "yes",
        "website": "https://snoozeeatery.com/",
        "wheelchair": "yes"
      },
      "geometry": {
        "type": "Point",
        "coordinates": [
          -104.9998805,
          39.7534656
        ]
      },
      "id": "node/13673306356"
    },
    {
      "type": "Feature",
      "properties": {
        "@id": "node/13673320309",
        "addr:city": "Denver",
        "addr:housenumber": "1701 Suite 100",
        "addr:postcode": "80202",
        "addr:state": "CO",
        "addr:street": "Wynkoop Street",
        "amenity": "restaurant",
        "brand": "Snooze",
        "brand:wikidata": "Q111304345",
        "cocktails": "yes",
        "cuisine": "breakfast",
        "drink:beer": "yes",
        "drink:coffee": "yes",
        "drink:wine": "yes",
        "happy_hours": "Mo-Fr 15:00-18:00",
        "internet_access": "wlan",
        "level": "0",
        "name": "Snooze",
        "official_name": "Snooze, an A.M. Eatery",
        "opening_hours": "Mo-Fr 06:00-15:00; Sa-Su 06:00-15:30",
        "organic": "yes",
        "outdoor_seating": "yes",
        "phone": "+1-303-825-3536",
        "room": "retail",
        "toilets": "yes",
        "toilets:handwashing": "yes",
        "toilets:unisex": "yes",
        "toilets:wheelchair": "yes",
        "website": "https://www.snoozeeatery.com/restaurant/colorado/union-station",
        "website:menu": "https://www.snoozeeatery.com/restaurant/colorado/union-station#location-menu",
        "wheelchair": "yes"
      },
      "geometry": {
        "type": "Point",
        "coordinates": [
          -105.0008331,
          39.7528047
        ]
      },
      "id": "node/13673320309"
    },
    {
      "type": "Feature",
      "properties": {
        "@id": "node/13768484451",
        "amenity": "restaurant",
        "branch": "A M  Eatery",
        "brand": "Snooze",
        "brand:wikidata": "Q111304345",
        "cuisine": "breakfast",
        "name": "Snooze",
        "official_name": "Snooze, an A.M. Eatery"
      },
      "geometry": {
        "type": "Point",
        "coordinates": [
          -111.9262923,
          33.6238356
        ]
      },
      "id": "node/13768484451"
    }
  ]
}